{
  "type": "FeatureCollection",
  "features": [
    {
      "type": "Feature",
      "properties": {
        "type": "deviation_path",
        "trip_id": "10142411_020826",
        "shape_id": "147133",
        "stroke": "#00bcd4",
        "stroke-width": 3,
        "stroke-opacity": 0.95
      },
      "geometry": {
        "type": "LineString",
        "coordinates": [
          [
            34.776136180682336,
            32.064907540494225
          ],
          [
            34.775567,
            32.064376
          ],
          [
            34.775568,
            32.064373
          ],
          [
            34.775602,
            32.064295
          ],
          [
            34.775613,
            32.064252
          ],
          [
            34.77563,
            32.06419
          ],
          [
            34.775762,
            32.063927
          ],
          [
            34.775964,
            32.063611
          ],
          [
            34.775476,
            32.063267
          ],
          [
            34.77516,
            32.063012
          ],
          [
            34.774946,
            32.062863
          ],
          [
            34.774859,
            32.062787
          ],
          [
            34.774443,
            32.062533
          ],
          [
            34.774007,
            32.062315
          ],
          [
            34.773629,
            32.062097
          ],
          [
            34.773462,
            32.062006
          ],
          [
            34.773497,
            32.061895
          ],
          [
            34.773559,
            32.0617
          ],
          [
            34.773672,
            32.061332
          ],
          [
            34.773819,
            32.060881
          ],
          [
            34.773931,
            32.060582
          ],
          [
            34.773825,
            32.060085
          ],
          [
            34.773638,
            32.059392
          ],
          [
            34.773485,
            32.058799
          ],
          [
            34.773473,
            32.058754
          ],
          [
            34.773358885079446,
            32.05831575014552
          ]
        ]
      }
    },
    {
      "type": "Feature",
      "properties": {
        "type": "original_route_shape",
        "shape_id": "160365",
        "stroke": "#1f2a7a",
        "stroke-width": 3,
        "stroke-opacity": 0.85
      },
      "geometry": {
        "type": "LineString",
        "coordinates": [
          [
            34.79613824768951,
            32.08053751975743
          ],
          [
            34.796106,
            32.080519
          ],
          [
            34.795938,
            32.080388
          ],
          [
            34.795437,
            32.080116
          ],
          [
            34.795413,
            32.080103
          ],
          [
            34.794951,
            32.07983
          ],
          [
            34.794861,
            32.079777
          ],
          [
            34.794787,
            32.079742
          ],
          [
            34.794633,
            32.079677
          ],
          [
            34.79437,
            32.07965
          ],
          [
            34.794246,
            32.07964
          ],
          [
            34.794111,
            32.079651
          ],
          [
            34.793954,
            32.079666
          ],
          [
            34.793952,
            32.079667
          ],
          [
            34.793891,
            32.079653
          ],
          [
            34.793832,
            32.079634
          ],
          [
            34.793775,
            32.0796
          ],
          [
            34.793721,
            32.07955
          ],
          [
            34.793501,
            32.07929
          ],
          [
            34.793358,
            32.079143
          ],
          [
            34.793251,
            32.079024
          ],
          [
            34.792986,
            32.07879
          ],
          [
            34.792868,
            32.078647
          ],
          [
            34.792782,
            32.078536
          ],
          [
            34.792697,
            32.078418
          ],
          [
            34.792617,
            32.078281
          ],
          [
            34.79255,
            32.078212
          ],
          [
            34.792487,
            32.078158
          ],
          [
            34.792454,
            32.078135
          ],
          [
            34.792408,
            32.078118
          ],
          [
            34.792301,
            32.078094
          ],
          [
            34.792136,
            32.078057
          ],
          [
            34.791874,
            32.078005
          ],
          [
            34.791739,
            32.077976
          ],
          [
            34.791461,
            32.077888
          ],
          [
            34.791339,
            32.077848
          ],
          [
            34.790941,
            32.077715
          ],
          [
            34.790787,
            32.077664
          ],
          [
            34.790354,
            32.077521
          ],
          [
            34.790026,
            32.077413
          ],
          [
            34.789168,
            32.077129
          ],
          [
            34.788872,
            32.07703
          ],
          [
            34.788781,
            32.076999
          ],
          [
            34.788666,
            32.07696
          ],
          [
            34.787775,
            32.076655
          ],
          [
            34.787081,
            32.076414
          ],
          [
            34.786084,
            32.076081
          ],
          [
            34.785906,
            32.076022
          ],
          [
            34.785417,
            32.075893
          ],
          [
            34.784833,
            32.075773
          ],
          [
            34.784443,
            32.075718
          ],
          [
            34.784356,
            32.07571
          ],
          [
            34.784239,
            32.0757
          ],
          [
            34.783912,
            32.075671
          ],
          [
            34.783406,
            32.075639
          ],
          [
            34.782823,
            32.075616
          ],
          [
            34.782014,
            32.075586
          ],
          [
            34.781779,
            32.075577
          ],
          [
            34.781703,
            32.075574
          ],
          [
            34.7816,
            32.07551
          ],
          [
            34.78163,
            32.075063
          ],
          [
            34.781635,
            32.074861
          ],
          [
            34.781687,
            32.07427
          ],
          [
            34.781701,
            32.073599
          ],
          [
            34.781745,
            32.072931
          ],
          [
            34.781794,
            32.071723
          ],
          [
            34.78182,
            32.07108
          ],
          [
            34.781393,
            32.07122
          ],
          [
            34.780827,
            32.071377
          ],
          [
            34.780671,
            32.071408
          ],
          [
            34.780387,
            32.071489
          ],
          [
            34.780334,
            32.071508
          ],
          [
            34.780252,
            32.071537
          ],
          [
            34.780155,
            32.07158
          ],
          [
            34.780072,
            32.071622
          ],
          [
            34.779956,
            32.071688
          ],
          [
            34.779816,
            32.071762
          ],
          [
            34.779349,
            32.072049
          ],
          [
            34.77925,
            32.0721
          ],
          [
            34.779162,
            32.07205
          ],
          [
            34.779145,
            32.07204
          ],
          [
            34.779121,
            32.072019
          ],
          [
            34.77912,
            32.071991
          ],
          [
            34.779108,
            32.071936
          ],
          [
            34.779045,
            32.071739
          ],
          [
            34.778751,
            32.07089
          ],
          [
            34.778692,
            32.070689
          ],
          [
            34.778641,
            32.070517
          ],
          [
            34.778597,
            32.07036
          ],
          [
            34.778351,
            32.069649
          ],
          [
            34.778014,
            32.06848
          ],
          [
            34.77795,
            32.068265
          ],
          [
            34.777939,
            32.068229
          ],
          [
            34.777765,
            32.067562
          ],
          [
            34.777471,
            32.066658
          ],
          [
            34.777197,
            32.065952
          ],
          [
            34.777157,
            32.065885
          ],
          [
            34.777072,
            32.065784
          ],
          [
            34.776686,
            32.065421
          ],
          [
            34.775568,
            32.064373
          ],
          [
            34.775602,
            32.064295
          ],
          [
            34.775613,
            32.064252
          ],
          [
            34.77563,
            32.06419
          ],
          [
            34.775762,
            32.063927
          ],
          [
            34.775964,
            32.063611
          ],
          [
            34.775997,
            32.063581
          ],
          [
            34.776016,
            32.063565
          ],
          [
            34.776037,
            32.063551
          ],
          [
            34.776056,
            32.063541
          ],
          [
            34.776093,
            32.06352
          ],
          [
            34.776322,
            32.063438
          ],
          [
            34.776457,
            32.063434
          ],
          [
            34.776506,
            32.063436
          ],
          [
            34.776456,
            32.062889
          ],
          [
            34.776478,
            32.062776
          ],
          [
            34.776534,
            32.062781
          ],
          [
            34.776584,
            32.062783
          ],
          [
            34.776678,
            32.062784
          ],
          [
            34.776977,
            32.062752
          ],
          [
            34.777459,
            32.062704
          ],
          [
            34.77768,
            32.062704
          ],
          [
            34.777902,
            32.062682
          ],
          [
            34.777991,
            32.062617
          ],
          [
            34.778011,
            32.062584
          ],
          [
            34.778018,
            32.062552
          ],
          [
            34.778003,
            32.062454
          ],
          [
            34.777758,
            32.06208
          ],
          [
            34.777437,
            32.061477
          ],
          [
            34.777258,
            32.061147
          ],
          [
            34.777173,
            32.061039
          ],
          [
            34.777043,
            32.060923
          ],
          [
            34.776909,
            32.060835
          ],
          [
            34.7768,
            32.060782
          ],
          [
            34.776656,
            32.060725
          ],
          [
            34.776455,
            32.06067
          ],
          [
            34.776065,
            32.060585
          ],
          [
            34.775861,
            32.060559
          ],
          [
            34.775333,
            32.060542
          ],
          [
            34.775039,
            32.060544
          ],
          [
            34.774511,
            32.060556
          ],
          [
            34.774166,
            32.060579
          ],
          [
            34.773931,
            32.060582
          ],
          [
            34.773825,
            32.060085
          ],
          [
            34.773638,
            32.059392
          ],
          [
            34.773485,
            32.058799
          ],
          [
            34.773473,
            32.058754
          ],
          [
            34.773285,
            32.058032
          ],
          [
            34.773107,
            32.057405
          ],
          [
            34.772974,
            32.056885
          ],
          [
            34.772819,
            32.056329
          ],
          [
            34.772699,
            32.05602
          ],
          [
            34.772267,
            32.055075
          ],
          [
            34.772111,
            32.054804
          ],
          [
            34.771806,
            32.054798
          ],
          [
            34.771624,
            32.054795
          ],
          [
            34.771026,
            32.054734
          ],
          [
            34.770825,
            32.054723
          ],
          [
            34.770591,
            32.054741
          ],
          [
            34.770541,
            32.054745
          ],
          [
            34.770181,
            32.054768
          ],
          [
            34.769567,
            32.05482
          ],
          [
            34.768941,
            32.054879
          ],
          [
            34.768394,
            32.054916
          ],
          [
            34.767701,
            32.054955
          ],
          [
            34.767279,
            32.054964
          ],
          [
            34.766906,
            32.054963
          ],
          [
            34.766781,
            32.05494
          ],
          [
            34.766708,
            32.054927
          ],
          [
            34.766506,
            32.054907
          ],
          [
            34.766212369246276,
            32.05487829924964
          ]
        ]
      }
    },
    {
      "type": "Feature",
      "properties": {
        "type": "original_route_stop",
        "stop_code": "20832",
        "stop_name": "ת.רק''ל ארלוזורוב/דרך מנחם בגין",
        "marker-color": "#2ca02c",
        "marker-symbol": "bus",
        "marker-size": "medium"
      },
      "geometry": {
        "type": "Point",
        "coordinates": [
          34.796115,
          32.080578
        ]
      }
    },
    {
      "type": "Feature",
      "properties": {
        "type": "original_route_stop",
        "stop_code": "2320",
        "stop_name": "שדרות שאול המלך/הנרייטה סולד",
        "marker-color": "#2ca02c",
        "marker-symbol": "bus",
        "marker-size": "medium"
      },
      "geometry": {
        "type": "Point",
        "coordinates": [
          34.792251,
          32.078129
        ]
      }
    },
    {
      "type": "Feature",
      "properties": {
        "type": "original_route_stop",
        "stop_code": "25732",
        "stop_name": "בית הדר דפנה/שד' שאול המלך",
        "marker-color": "#2ca02c",
        "marker-symbol": "bus",
        "marker-size": "medium"
      },
      "geometry": {
        "type": "Point",
        "coordinates": [
          34.790426,
          32.077593
        ]
      }
    },
    {
      "type": "Feature",
      "properties": {
        "type": "original_route_stop",
        "stop_code": "21544",
        "stop_name": "בית המשפט/שד' שאול המלך",
        "marker-color": "#2ca02c",
        "marker-symbol": "bus",
        "marker-size": "medium"
      },
      "geometry": {
        "type": "Point",
        "coordinates": [
          34.787868,
          32.076736
        ]
      }
    },
    {
      "type": "Feature",
      "properties": {
        "type": "original_route_stop",
        "stop_code": "21150",
        "stop_name": "לונדון מיניסטור/שד' שאול המלך",
        "marker-color": "#2ca02c",
        "marker-symbol": "bus",
        "marker-size": "medium"
      },
      "geometry": {
        "type": "Point",
        "coordinates": [
          34.782893,
          32.075664
        ]
      }
    },
    {
      "type": "Feature",
      "properties": {
        "type": "original_route_stop",
        "stop_code": "20273",
        "stop_name": "אבן גבירול/אליעזר קפלן",
        "marker-color": "#2ca02c",
        "marker-symbol": "bus",
        "marker-size": "medium"
      },
      "geometry": {
        "type": "Point",
        "coordinates": [
          34.78164,
          32.073989
        ]
      }
    },
    {
      "type": "Feature",
      "properties": {
        "type": "original_route_stop",
        "stop_code": "25592",
        "stop_name": "הבימה/שד' רוטשילד",
        "marker-color": "#2ca02c",
        "marker-symbol": "bus",
        "marker-size": "medium"
      },
      "geometry": {
        "type": "Point",
        "coordinates": [
          34.778882,
          32.071428
        ]
      }
    },
    {
      "type": "Feature",
      "properties": {
        "type": "original_route_stop",
        "stop_code": "25587",
        "stop_name": "שד' רוטשילד/שיינקין",
        "marker-color": "#2ca02c",
        "marker-symbol": "bus",
        "marker-size": "medium"
      },
      "geometry": {
        "type": "Point",
        "coordinates": [
          34.777966,
          32.0685
        ]
      }
    },
    {
      "type": "Feature",
      "properties": {
        "type": "original_route_stop",
        "stop_code": "25584",
        "stop_name": "שד' רוטשילד/בלפור",
        "marker-color": "#2ca02c",
        "marker-symbol": "bus",
        "marker-size": "medium"
      },
      "geometry": {
        "type": "Point",
        "coordinates": [
          34.77721,
          32.066128
        ]
      }
    },
    {
      "type": "Feature",
      "properties": {
        "type": "original_route_stop",
        "stop_code": "20855",
        "stop_name": "העלייה/דרך שלמה",
        "marker-color": "#2ca02c",
        "marker-symbol": "bus",
        "marker-size": "medium"
      },
      "geometry": {
        "type": "Point",
        "coordinates": [
          34.772258,
          32.05518
        ]
      }
    },
    {
      "type": "Feature",
      "properties": {
        "type": "original_route_stop",
        "stop_code": "25374",
        "stop_name": "דרך שלמה/בן עטר",
        "marker-color": "#2ca02c",
        "marker-symbol": "bus",
        "marker-size": "medium"
      },
      "geometry": {
        "type": "Point",
        "coordinates": [
          34.768637,
          32.054945
        ]
      }
    },
    {
      "type": "Feature",
      "properties": {
        "type": "original_route_stop",
        "stop_code": "27035",
        "stop_name": "דרך שלמה/אליפלט",
        "marker-color": "#2ca02c",
        "marker-symbol": "bus",
        "marker-size": "medium"
      },
      "geometry": {
        "type": "Point",
        "coordinates": [
          34.766208,
          32.054923
        ]
      }
    },
    {
      "type": "Feature",
      "properties": {
        "type": "cancelled_stop",
        "stop_code": "20053",
        "stop_name": "מקווה ישראל/לבונטין",
        "marker-color": "#ff0000",
        "marker-symbol": "bus",
        "marker-size": "medium"
      },
      "geometry": {
        "type": "Point",
        "coordinates": [
          34.77689,
          32.062716
        ]
      }
    },
    {
      "type": "Feature",
      "properties": {
        "type": "cancelled_stop",
        "stop_code": "21376",
        "stop_name": "חברת החשמל/דרך מנחם בגין",
        "marker-color": "#ff0000",
        "marker-symbol": "bus",
        "marker-size": "medium"
      },
      "geometry": {
        "type": "Point",
        "coordinates": [
          34.777575,
          32.061845
        ]
      }
    },
    {
      "type": "Feature",
      "properties": {
        "type": "new_stop",
        "stop_code": "20005",
        "stop_name": "ת.רק''ל אלנבי/יהודה הלוי",
        "marker-color": "#1f9ed6",
        "marker-symbol": "bus",
        "marker-size": "medium"
      },
      "geometry": {
        "type": "Point",
        "coordinates": [
          34.77418,
          32.062454
        ]
      }
    },
    {
      "type": "Feature",
      "properties": {
        "type": "reported_block_stop",
        "stop_code": "20053",
        "stop_name": "מקווה ישראל/לבונטין",
        "marker-color": "#ff8800",
        "marker-symbol": "bus",
        "marker-size": "medium"
      },
      "geometry": {
        "type": "Point",
        "coordinates": [
          34.77689,
          32.062716
        ]
      }
    },
    {
      "type": "Feature",
      "properties": {
        "type": "reported_block_stop",
        "stop_code": "21376",
        "stop_name": "חברת החשמל/דרך מנחם בגין",
        "marker-color": "#ff8800",
        "marker-symbol": "bus",
        "marker-size": "medium"
      },
      "geometry": {
        "type": "Point",
        "coordinates": [
          34.777575,
          32.061845
        ]
      }
    },
    {
      "type": "Feature",
      "properties": {
        "type": "deviate_from_stop",
        "stop_code": "25578",
        "stop_name": "שד' רוטשילד/נחמני",
        "marker-color": "#8000ff",
        "marker-symbol": "bus",
        "marker-size": "medium"
      },
      "geometry": {
        "type": "Point",
        "coordinates": [
          34.776104,
          32.064942
        ]
      }
    },
    {
      "type": "Feature",
      "properties": {
        "type": "deviate_to_stop",
        "stop_code": "21481",
        "stop_name": "קאנטרי שוק העלייה/העלייה",
        "marker-color": "#8000ff",
        "marker-symbol": "bus",
        "marker-size": "medium"
      },
      "geometry": {
        "type": "Point",
        "coordinates": [
          34.773308,
          32.058329
        ]
      }
    }
  ]
}