{
  "type": "FeatureCollection",
  "features": [
    {
      "type": "Feature",
      "properties": {
        "type": "deviation_path",
        "trip_id": "10266299_020826",
        "shape_id": "158380",
        "stroke": "#00bcd4",
        "stroke-width": 3,
        "stroke-opacity": 0.95
      },
      "geometry": {
        "type": "LineString",
        "coordinates": [
          [
            34.779104004672924,
            32.071073234132555
          ],
          [
            34.779174,
            32.071324
          ],
          [
            34.779294,
            32.07172
          ],
          [
            34.779365,
            32.071932
          ],
          [
            34.77937,
            32.071988
          ],
          [
            34.779363,
            32.07202
          ],
          [
            34.779349,
            32.072049
          ],
          [
            34.77925,
            32.0721
          ],
          [
            34.778811,
            32.072312
          ],
          [
            34.778562,
            32.072419
          ],
          [
            34.778499,
            32.072443
          ],
          [
            34.77722,
            32.073146
          ],
          [
            34.77717,
            32.073172
          ],
          [
            34.777053,
            32.07323
          ],
          [
            34.776927,
            32.073293
          ],
          [
            34.775862,
            32.073835
          ],
          [
            34.775457,
            32.074022
          ],
          [
            34.775519,
            32.074119
          ],
          [
            34.775596,
            32.074254
          ],
          [
            34.77564,
            32.07433
          ],
          [
            34.775656,
            32.074413
          ],
          [
            34.775729,
            32.074548
          ],
          [
            34.775863,
            32.074795
          ],
          [
            34.775612,
            32.074982
          ],
          [
            34.775547,
            32.075026
          ],
          [
            34.77552,
            32.075055
          ],
          [
            34.775498,
            32.075079
          ],
          [
            34.775494,
            32.075085
          ],
          [
            34.775405,
            32.075163
          ],
          [
            34.775271,
            32.075297
          ],
          [
            34.775118,
            32.075476
          ],
          [
            34.77507757589813,
            32.075538608060214
          ]
        ]
      }
    },
    {
      "type": "Feature",
      "properties": {
        "type": "original_route_shape",
        "shape_id": "165044",
        "stroke": "#1f2a7a",
        "stroke-width": 3,
        "stroke-opacity": 0.85
      },
      "geometry": {
        "type": "LineString",
        "coordinates": [
          [
            34.7806383589943,
            32.04638082588405
          ],
          [
            34.780635,
            32.046415
          ],
          [
            34.780628,
            32.046565
          ],
          [
            34.780643,
            32.046628
          ],
          [
            34.780659,
            32.046696
          ],
          [
            34.780712,
            32.046899
          ],
          [
            34.780734,
            32.046987
          ],
          [
            34.780818,
            32.047239
          ],
          [
            34.780925,
            32.047367
          ],
          [
            34.78067,
            32.04741
          ],
          [
            34.780451,
            32.04746
          ],
          [
            34.78031,
            32.047487
          ],
          [
            34.780165,
            32.047514
          ],
          [
            34.779948,
            32.047549
          ],
          [
            34.779626,
            32.047591
          ],
          [
            34.779194,
            32.047685
          ],
          [
            34.779064,
            32.047707
          ],
          [
            34.779021,
            32.047716
          ],
          [
            34.778975,
            32.047726
          ],
          [
            34.778117,
            32.047938
          ],
          [
            34.776447,
            32.048466
          ],
          [
            34.775902,
            32.048639
          ],
          [
            34.7761,
            32.049276
          ],
          [
            34.776284,
            32.049836
          ],
          [
            34.776433,
            32.050328
          ],
          [
            34.776622,
            32.050879
          ],
          [
            34.776636,
            32.050876
          ],
          [
            34.776647,
            32.050874
          ],
          [
            34.776659,
            32.050874
          ],
          [
            34.776671,
            32.050875
          ],
          [
            34.776683,
            32.050877
          ],
          [
            34.776694,
            32.05088
          ],
          [
            34.776704,
            32.050884
          ],
          [
            34.776714,
            32.050889
          ],
          [
            34.776723,
            32.050896
          ],
          [
            34.776731,
            32.050903
          ],
          [
            34.77674,
            32.050912
          ],
          [
            34.776744,
            32.050919
          ],
          [
            34.776748,
            32.050928
          ],
          [
            34.776751,
            32.050937
          ],
          [
            34.776752,
            32.050947
          ],
          [
            34.776752,
            32.050956
          ],
          [
            34.776751,
            32.050966
          ],
          [
            34.776746,
            32.05098
          ],
          [
            34.776742,
            32.050987
          ],
          [
            34.776738,
            32.050993
          ],
          [
            34.776727,
            32.051005
          ],
          [
            34.776714,
            32.051014
          ],
          [
            34.776699,
            32.051022
          ],
          [
            34.776682,
            32.051027
          ],
          [
            34.776667,
            32.051029
          ],
          [
            34.776787,
            32.051445
          ],
          [
            34.77691,
            32.05186
          ],
          [
            34.777078,
            32.052355
          ],
          [
            34.777431,
            32.05347
          ],
          [
            34.777427,
            32.053469
          ],
          [
            34.777428,
            32.053471
          ],
          [
            34.777712,
            32.054352
          ],
          [
            34.777738,
            32.054415
          ],
          [
            34.777495,
            32.054468
          ],
          [
            34.777375,
            32.054495
          ],
          [
            34.776937,
            32.054594
          ],
          [
            34.776251,
            32.05475
          ],
          [
            34.775919,
            32.054831
          ],
          [
            34.775799,
            32.054856
          ],
          [
            34.775719,
            32.054869
          ],
          [
            34.77563,
            32.054924
          ],
          [
            34.775583,
            32.054982
          ],
          [
            34.775566,
            32.055048
          ],
          [
            34.775688,
            32.055279
          ],
          [
            34.775818,
            32.05551
          ],
          [
            34.775952,
            32.055747
          ],
          [
            34.776149,
            32.056089
          ],
          [
            34.776473,
            32.056623
          ],
          [
            34.776834,
            32.057245
          ],
          [
            34.777172,
            32.057813
          ],
          [
            34.778054,
            32.057415
          ],
          [
            34.778928,
            32.057037
          ],
          [
            34.779666,
            32.056718
          ],
          [
            34.779759,
            32.056676
          ],
          [
            34.779939,
            32.056598
          ],
          [
            34.780005,
            32.056674
          ],
          [
            34.779974,
            32.05681
          ],
          [
            34.779958,
            32.056883
          ],
          [
            34.779864,
            32.057165
          ],
          [
            34.779819,
            32.0573
          ],
          [
            34.779738,
            32.057471
          ],
          [
            34.779663,
            32.057648
          ],
          [
            34.779432,
            32.058004
          ],
          [
            34.77938,
            32.058068
          ],
          [
            34.779293,
            32.058197
          ],
          [
            34.779244,
            32.058237
          ],
          [
            34.779202,
            32.058276
          ],
          [
            34.779061,
            32.058403
          ],
          [
            34.778957,
            32.058498
          ],
          [
            34.778859,
            32.058558
          ],
          [
            34.778811,
            32.058592
          ],
          [
            34.778583,
            32.058718
          ],
          [
            34.778359,
            32.058825
          ],
          [
            34.778129,
            32.058931
          ],
          [
            34.778032,
            32.059007
          ],
          [
            34.778013,
            32.059027
          ],
          [
            34.778007,
            32.059045
          ],
          [
            34.777978,
            32.059189
          ],
          [
            34.778144,
            32.059474
          ],
          [
            34.77837,
            32.05961
          ],
          [
            34.77852,
            32.059715
          ],
          [
            34.778656,
            32.059806
          ],
          [
            34.778778,
            32.059901
          ],
          [
            34.778934,
            32.060079
          ],
          [
            34.779196,
            32.060404
          ],
          [
            34.77943,
            32.060703
          ],
          [
            34.779511,
            32.060807
          ],
          [
            34.779859,
            32.061291
          ],
          [
            34.780214,
            32.06175
          ],
          [
            34.780419,
            32.062029
          ],
          [
            34.780495,
            32.062169
          ],
          [
            34.780403,
            32.062272
          ],
          [
            34.780332,
            32.062328
          ],
          [
            34.780192,
            32.062437
          ],
          [
            34.779716,
            32.062809
          ],
          [
            34.779547,
            32.062952
          ],
          [
            34.779391,
            32.063071
          ],
          [
            34.779316,
            32.063135
          ],
          [
            34.779212,
            32.063222
          ],
          [
            34.778927,
            32.063398
          ],
          [
            34.778805,
            32.063464
          ],
          [
            34.778724,
            32.0635
          ],
          [
            34.77854,
            32.063565
          ],
          [
            34.778337,
            32.06363
          ],
          [
            34.778157,
            32.06368
          ],
          [
            34.778064,
            32.063705
          ],
          [
            34.777999,
            32.063719
          ],
          [
            34.77793,
            32.063738
          ],
          [
            34.777881,
            32.063749
          ],
          [
            34.777848,
            32.063757
          ],
          [
            34.77777,
            32.06377
          ],
          [
            34.777637,
            32.063791
          ],
          [
            34.777466,
            32.063801
          ],
          [
            34.777349,
            32.063801
          ],
          [
            34.777236,
            32.063791
          ],
          [
            34.777104,
            32.063778
          ],
          [
            34.776945,
            32.063737
          ],
          [
            34.776728,
            32.063706
          ],
          [
            34.776521,
            32.063695
          ],
          [
            34.776486,
            32.0637
          ],
          [
            34.776445,
            32.063706
          ],
          [
            34.776217,
            32.063764
          ],
          [
            34.776187,
            32.063762
          ],
          [
            34.776168,
            32.063754
          ],
          [
            34.775964,
            32.063611
          ],
          [
            34.775611,
            32.063362
          ],
          [
            34.775476,
            32.063267
          ],
          [
            34.77516,
            32.063012
          ],
          [
            34.774946,
            32.062863
          ],
          [
            34.77486,
            32.062788
          ],
          [
            34.774859,
            32.062787
          ],
          [
            34.774443,
            32.062533
          ],
          [
            34.774295,
            32.062759
          ],
          [
            34.774255,
            32.062843
          ],
          [
            34.774144,
            32.063072
          ],
          [
            34.774114,
            32.063133
          ],
          [
            34.77385,
            32.063646
          ],
          [
            34.774402,
            32.063807
          ],
          [
            34.774467,
            32.063826
          ],
          [
            34.775059,
            32.064017
          ],
          [
            34.775566,
            32.064171
          ],
          [
            34.77563,
            32.06419
          ],
          [
            34.7758,
            32.064341
          ],
          [
            34.776913,
            32.065376
          ],
          [
            34.777227,
            32.065677
          ],
          [
            34.777298,
            32.065761
          ],
          [
            34.777395,
            32.065912
          ],
          [
            34.777688,
            32.066592
          ],
          [
            34.77783,
            32.067093
          ],
          [
            34.778,
            32.067634
          ],
          [
            34.778166,
            32.068177
          ],
          [
            34.778179,
            32.068216
          ],
          [
            34.778652,
            32.069573
          ],
          [
            34.778712,
            32.069769
          ],
          [
            34.778813,
            32.070094
          ],
          [
            34.778904,
            32.070466
          ],
          [
            34.779059,
            32.070912
          ],
          [
            34.779174,
            32.071324
          ],
          [
            34.779294,
            32.07172
          ],
          [
            34.779365,
            32.071932
          ],
          [
            34.77937,
            32.071988
          ],
          [
            34.779363,
            32.07202
          ],
          [
            34.779349,
            32.072049
          ],
          [
            34.77925,
            32.0721
          ],
          [
            34.778811,
            32.072312
          ],
          [
            34.778562,
            32.072419
          ],
          [
            34.778604,
            32.072516
          ],
          [
            34.778622,
            32.072557
          ],
          [
            34.778821,
            32.073167
          ],
          [
            34.778835,
            32.07322
          ],
          [
            34.778853,
            32.073283
          ],
          [
            34.778914,
            32.073485
          ],
          [
            34.779008,
            32.073802
          ],
          [
            34.779079,
            32.074055
          ],
          [
            34.779107,
            32.074137
          ],
          [
            34.779003,
            32.074153
          ],
          [
            34.77671,
            32.074626
          ],
          [
            34.77643,
            32.074671
          ],
          [
            34.775863,
            32.074795
          ],
          [
            34.775612,
            32.074982
          ],
          [
            34.775547,
            32.075026
          ],
          [
            34.77552,
            32.075055
          ],
          [
            34.775498,
            32.075079
          ],
          [
            34.775494,
            32.075085
          ],
          [
            34.775405,
            32.075163
          ],
          [
            34.775271,
            32.075297
          ],
          [
            34.775118,
            32.075476
          ],
          [
            34.775036,
            32.075603
          ],
          [
            34.775015,
            32.075627
          ],
          [
            34.774991,
            32.075654
          ],
          [
            34.774897,
            32.075787
          ],
          [
            34.774814,
            32.075952
          ],
          [
            34.77479,
            32.076005
          ],
          [
            34.774509,
            32.076796
          ],
          [
            34.774478,
            32.076884
          ],
          [
            34.774336,
            32.077371
          ],
          [
            34.774299,
            32.077475
          ],
          [
            34.774298,
            32.077577
          ],
          [
            34.774307,
            32.077614
          ],
          [
            34.774329,
            32.077651
          ],
          [
            34.774362,
            32.077689
          ],
          [
            34.774478,
            32.077777
          ],
          [
            34.774519,
            32.077818
          ],
          [
            34.774551,
            32.077863
          ],
          [
            34.774569,
            32.077901
          ],
          [
            34.774575,
            32.077944
          ],
          [
            34.774579,
            32.077976
          ],
          [
            34.774575,
            32.07801
          ],
          [
            34.774555,
            32.078084
          ],
          [
            34.774514,
            32.078185
          ],
          [
            34.774531,
            32.078239
          ],
          [
            34.774542,
            32.078264
          ],
          [
            34.77456,
            32.078283
          ],
          [
            34.77475,
            32.078567
          ],
          [
            34.774945,
            32.079084
          ],
          [
            34.775057,
            32.079548
          ],
          [
            34.775094,
            32.079698
          ],
          [
            34.775656,
            32.081464
          ],
          [
            34.776223,
            32.083444
          ],
          [
            34.776274,
            32.083522
          ],
          [
            34.776308,
            32.083574
          ],
          [
            34.775358,
            32.084079
          ],
          [
            34.774872,
            32.084281
          ],
          [
            34.774436,
            32.084431
          ],
          [
            34.774313,
            32.084466
          ],
          [
            34.774422,
            32.084882
          ],
          [
            34.774667,
            32.085814
          ],
          [
            34.774727,
            32.086098
          ],
          [
            34.774798,
            32.086379
          ],
          [
            34.774929,
            32.086899
          ],
          [
            34.775158,
            32.087794
          ],
          [
            34.775247,
            32.088128
          ],
          [
            34.77531,
            32.088396
          ],
          [
            34.775517,
            32.089277
          ],
          [
            34.775667,
            32.089878
          ],
          [
            34.775715,
            32.090074
          ],
          [
            34.775798,
            32.090342
          ],
          [
            34.775919,
            32.090834
          ],
          [
            34.776109,
            32.091608
          ],
          [
            34.776144,
            32.091786
          ],
          [
            34.77627,
            32.092314
          ],
          [
            34.77699,
            32.092247
          ],
          [
            34.777515,
            32.092199
          ],
          [
            34.777799,
            32.092173
          ],
          [
            34.778218,
            32.092137
          ],
          [
            34.778784,
            32.092087
          ],
          [
            34.779333,
            32.092034
          ],
          [
            34.779543,
            32.092014
          ],
          [
            34.779747,
            32.091994
          ],
          [
            34.780601,
            32.091915
          ],
          [
            34.78128,
            32.091845
          ],
          [
            34.781376,
            32.091835
          ],
          [
            34.782299,
            32.091691
          ],
          [
            34.782681,
            32.091643
          ],
          [
            34.78279,
            32.091632
          ],
          [
            34.782914,
            32.091619
          ],
          [
            34.783035,
            32.091608
          ],
          [
            34.783043,
            32.091653
          ],
          [
            34.783063,
            32.091745
          ],
          [
            34.783182,
            32.092344
          ],
          [
            34.783274,
            32.092872
          ],
          [
            34.783468,
            32.093842
          ],
          [
            34.78357,
            32.093871
          ],
          [
            34.783579,
            32.093873
          ],
          [
            34.783637,
            32.093884
          ],
          [
            34.783701,
            32.093883
          ],
          [
            34.784206,
            32.093822
          ],
          [
            34.784484,
            32.093763
          ],
          [
            34.784554,
            32.093737
          ],
          [
            34.784629,
            32.093708
          ],
          [
            34.784696,
            32.093675
          ],
          [
            34.78473,
            32.09366
          ],
          [
            34.784778,
            32.093643
          ],
          [
            34.784811,
            32.09364
          ],
          [
            34.784838,
            32.093646
          ],
          [
            34.78486,
            32.093653
          ],
          [
            34.784883,
            32.093668
          ],
          [
            34.784903,
            32.093684
          ],
          [
            34.784918,
            32.093703
          ],
          [
            34.784932,
            32.093728
          ],
          [
            34.784967,
            32.093762
          ],
          [
            34.784983,
            32.093776
          ],
          [
            34.785004,
            32.093791
          ],
          [
            34.785025,
            32.093803
          ],
          [
            34.785045,
            32.093813
          ],
          [
            34.78507,
            32.09382
          ],
          [
            34.785151,
            32.093838
          ],
          [
            34.785761,
            32.093763
          ],
          [
            34.786445,
            32.093761
          ],
          [
            34.787154,
            32.093756
          ],
          [
            34.78721,
            32.093756
          ],
          [
            34.787999,
            32.093777
          ],
          [
            34.78857,
            32.093783
          ],
          [
            34.78874,
            32.093784
          ],
          [
            34.78953,
            32.093789
          ],
          [
            34.790371,
            32.093801
          ],
          [
            34.79045,
            32.093802
          ],
          [
            34.790539,
            32.093807
          ],
          [
            34.790596,
            32.093809
          ],
          [
            34.791241,
            32.093846
          ],
          [
            34.791742,
            32.093912
          ],
          [
            34.79235,
            32.09402
          ],
          [
            34.792452,
            32.09404
          ],
          [
            34.792988,
            32.094143
          ],
          [
            34.793552,
            32.094281
          ],
          [
            34.794423,
            32.094517
          ],
          [
            34.794895,
            32.092521
          ],
          [
            34.795063,
            32.091714
          ],
          [
            34.79518,
            32.091268
          ],
          [
            34.795216,
            32.091161
          ],
          [
            34.795257,
            32.090873
          ],
          [
            34.795344,
            32.090418
          ],
          [
            34.795366,
            32.090198
          ],
          [
            34.795402,
            32.089922
          ],
          [
            34.795435,
            32.089565
          ],
          [
            34.795459,
            32.089204
          ],
          [
            34.795473,
            32.089012
          ],
          [
            34.79548,
            32.08864
          ],
          [
            34.795484,
            32.088529
          ],
          [
            34.795483,
            32.088159
          ],
          [
            34.795473,
            32.087701
          ],
          [
            34.795412,
            32.087206
          ],
          [
            34.795391,
            32.086815
          ],
          [
            34.795325,
            32.086425
          ],
          [
            34.795247,
            32.086139
          ],
          [
            34.795181,
            32.085863
          ],
          [
            34.79516,
            32.085776
          ],
          [
            34.795134,
            32.085698
          ],
          [
            34.79507,
            32.085324
          ],
          [
            34.794706,
            32.083354
          ],
          [
            34.794624,
            32.082993
          ],
          [
            34.794544,
            32.082683
          ],
          [
            34.794514,
            32.082568
          ],
          [
            34.794662,
            32.082546
          ],
          [
            34.794792,
            32.082522
          ],
          [
            34.794866,
            32.0825
          ],
          [
            34.794931,
            32.082476
          ],
          [
            34.795073,
            32.082416
          ],
          [
            34.795154,
            32.082383
          ],
          [
            34.795258,
            32.082338
          ],
          [
            34.795371,
            32.082284
          ],
          [
            34.795502,
            32.082194
          ],
          [
            34.795872,
            32.081904
          ],
          [
            34.795965,
            32.081829
          ],
          [
            34.796029,
            32.08187
          ],
          [
            34.796093,
            32.081901
          ],
          [
            34.796331,
            32.0821
          ],
          [
            34.796401,
            32.082161
          ],
          [
            34.796588,
            32.082296
          ],
          [
            34.796606,
            32.0823
          ],
          [
            34.796616,
            32.082304
          ],
          [
            34.796636,
            32.082312
          ],
          [
            34.796645,
            32.082318
          ],
          [
            34.796663,
            32.08233
          ],
          [
            34.796681,
            32.082346
          ],
          [
            34.796835,
            32.082406
          ],
          [
            34.796954,
            32.082453
          ],
          [
            34.797055,
            32.082527
          ],
          [
            34.797103,
            32.082568
          ],
          [
            34.797131,
            32.082592
          ],
          [
            34.797198,
            32.082715
          ],
          [
            34.797231,
            32.082793
          ],
          [
            34.797249,
            32.082865
          ],
          [
            34.797259,
            32.082935
          ],
          [
            34.797261,
            32.082995
          ],
          [
            34.797255,
            32.083053
          ],
          [
            34.797244,
            32.08309
          ],
          [
            34.797232,
            32.083123
          ],
          [
            34.797208,
            32.08317
          ],
          [
            34.797181,
            32.083195
          ],
          [
            34.797064,
            32.083222
          ],
          [
            34.797025,
            32.083224
          ],
          [
            34.79696,
            32.083226
          ],
          [
            34.796927,
            32.083219
          ],
          [
            34.796894,
            32.083208
          ],
          [
            34.796885,
            32.083203
          ],
          [
            34.796828,
            32.083173
          ],
          [
            34.796793,
            32.083143
          ],
          [
            34.796764,
            32.083096
          ],
          [
            34.79669,
            32.082837
          ],
          [
            34.7966879822465,
            32.0828300051212
          ]
        ]
      }
    },
    {
      "type": "Feature",
      "properties": {
        "type": "original_route_stop",
        "stop_code": "20902",
        "stop_name": "שד' ישראל גורי/דרך קיבוץ גלויות",
        "marker-color": "#2ca02c",
        "marker-symbol": "bus",
        "marker-size": "medium"
      },
      "geometry": {
        "type": "Point",
        "coordinates": [
          34.780691,
          32.046386
        ]
      }
    },
    {
      "type": "Feature",
      "properties": {
        "type": "original_route_stop",
        "stop_code": "25426",
        "stop_name": "דרך קיבוץ גלויות/חכמי לובלין",
        "marker-color": "#2ca02c",
        "marker-symbol": "bus",
        "marker-size": "medium"
      },
      "geometry": {
        "type": "Point",
        "coordinates": [
          34.778574,
          32.047872
        ]
      }
    },
    {
      "type": "Feature",
      "properties": {
        "type": "original_route_stop",
        "stop_code": "25423",
        "stop_name": "מסילת ישרים/דרך קיבוץ גלויות",
        "marker-color": "#2ca02c",
        "marker-symbol": "bus",
        "marker-size": "medium"
      },
      "geometry": {
        "type": "Point",
        "coordinates": [
          34.776124,
          32.049176
        ]
      }
    },
    {
      "type": "Feature",
      "properties": {
        "type": "original_route_stop",
        "stop_code": "25427",
        "stop_name": "מסילת ישרים/חכמי ישראל",
        "marker-color": "#2ca02c",
        "marker-symbol": "bus",
        "marker-size": "medium"
      },
      "geometry": {
        "type": "Point",
        "coordinates": [
          34.776791,
          32.051271
        ]
      }
    },
    {
      "type": "Feature",
      "properties": {
        "type": "original_route_stop",
        "stop_code": "25429",
        "stop_name": "דרך שלמה/מסילת ישרים",
        "marker-color": "#2ca02c",
        "marker-symbol": "bus",
        "marker-size": "medium"
      },
      "geometry": {
        "type": "Point",
        "coordinates": [
          34.77648,
          32.054745
        ]
      }
    },
    {
      "type": "Feature",
      "properties": {
        "type": "original_route_stop",
        "stop_code": "21554",
        "stop_name": "שד' הר ציון/וולפסון",
        "marker-color": "#2ca02c",
        "marker-symbol": "bus",
        "marker-size": "medium"
      },
      "geometry": {
        "type": "Point",
        "coordinates": [
          34.776495,
          32.056561
        ]
      }
    },
    {
      "type": "Feature",
      "properties": {
        "type": "original_route_stop",
        "stop_code": "25070",
        "stop_name": "ת. מרכזית תל אביב/לוינסקי",
        "marker-color": "#2ca02c",
        "marker-symbol": "bus",
        "marker-size": "medium"
      },
      "geometry": {
        "type": "Point",
        "coordinates": [
          34.779058,
          32.05693
        ]
      }
    },
    {
      "type": "Feature",
      "properties": {
        "type": "original_route_stop",
        "stop_code": "21482",
        "stop_name": "הגדוד העברי/שד' הר ציון",
        "marker-color": "#2ca02c",
        "marker-symbol": "bus",
        "marker-size": "medium"
      },
      "geometry": {
        "type": "Point",
        "coordinates": [
          34.778725,
          32.058694
        ]
      }
    },
    {
      "type": "Feature",
      "properties": {
        "type": "original_route_stop",
        "stop_code": "21588",
        "stop_name": "סלומון/הרכבת",
        "marker-color": "#2ca02c",
        "marker-symbol": "bus",
        "marker-size": "medium"
      },
      "geometry": {
        "type": "Point",
        "coordinates": [
          34.780191,
          32.061639
        ]
      }
    },
    {
      "type": "Feature",
      "properties": {
        "type": "original_route_stop",
        "stop_code": "20745",
        "stop_name": "ת.רק''ל אלנבי/יבנה",
        "marker-color": "#2ca02c",
        "marker-symbol": "bus",
        "marker-size": "medium"
      },
      "geometry": {
        "type": "Point",
        "coordinates": [
          34.774284,
          32.062901
        ]
      }
    },
    {
      "type": "Feature",
      "properties": {
        "type": "original_route_stop",
        "stop_code": "25582",
        "stop_name": "שד' רוטשילד/מזא''ה",
        "marker-color": "#2ca02c",
        "marker-symbol": "bus",
        "marker-size": "medium"
      },
      "geometry": {
        "type": "Point",
        "coordinates": [
          34.777286,
          32.06567
        ]
      }
    },
    {
      "type": "Feature",
      "properties": {
        "type": "original_route_stop",
        "stop_code": "21732",
        "stop_name": "שד' רוטשילד/שיינקין",
        "marker-color": "#2ca02c",
        "marker-symbol": "bus",
        "marker-size": "medium"
      },
      "geometry": {
        "type": "Point",
        "coordinates": [
          34.778387,
          32.068653
        ]
      }
    },
    {
      "type": "Feature",
      "properties": {
        "type": "original_route_stop",
        "stop_code": "25575",
        "stop_name": "כיכר דיזנגוף/ריינס",
        "marker-color": "#2ca02c",
        "marker-symbol": "bus",
        "marker-size": "medium"
      },
      "geometry": {
        "type": "Point",
        "coordinates": [
          34.77495,
          32.07895
        ]
      }
    },
    {
      "type": "Feature",
      "properties": {
        "type": "original_route_stop",
        "stop_code": "25805",
        "stop_name": "ריינס/גורדון",
        "marker-color": "#2ca02c",
        "marker-symbol": "bus",
        "marker-size": "medium"
      },
      "geometry": {
        "type": "Point",
        "coordinates": [
          34.775838,
          32.081909
        ]
      }
    },
    {
      "type": "Feature",
      "properties": {
        "type": "original_route_stop",
        "stop_code": "20364",
        "stop_name": "דיזנגוף/יודפת",
        "marker-color": "#2ca02c",
        "marker-symbol": "bus",
        "marker-size": "medium"
      },
      "geometry": {
        "type": "Point",
        "coordinates": [
          34.774625,
          32.085447
        ]
      }
    },
    {
      "type": "Feature",
      "properties": {
        "type": "original_route_stop",
        "stop_code": "25812",
        "stop_name": "דיזנגוף/ארלוזורוב",
        "marker-color": "#2ca02c",
        "marker-symbol": "bus",
        "marker-size": "medium"
      },
      "geometry": {
        "type": "Point",
        "coordinates": [
          34.775256,
          32.087957
        ]
      }
    },
    {
      "type": "Feature",
      "properties": {
        "type": "original_route_stop",
        "stop_code": "25832",
        "stop_name": "דיזנגוף/ז'בוטינסקי",
        "marker-color": "#2ca02c",
        "marker-symbol": "bus",
        "marker-size": "medium"
      },
      "geometry": {
        "type": "Point",
        "coordinates": [
          34.77566,
          32.089631
        ]
      }
    },
    {
      "type": "Feature",
      "properties": {
        "type": "original_route_stop",
        "stop_code": "25839",
        "stop_name": "שדרות נורדאו/דיזנגוף",
        "marker-color": "#2ca02c",
        "marker-symbol": "bus",
        "marker-size": "medium"
      },
      "geometry": {
        "type": "Point",
        "coordinates": [
          34.776753,
          32.092224
        ]
      }
    },
    {
      "type": "Feature",
      "properties": {
        "type": "original_route_stop",
        "stop_code": "25847",
        "stop_name": "שד' נורדאו/יהושע בן נון",
        "marker-color": "#2ca02c",
        "marker-symbol": "bus",
        "marker-size": "medium"
      },
      "geometry": {
        "type": "Point",
        "coordinates": [
          34.78082,
          32.091847
        ]
      }
    },
    {
      "type": "Feature",
      "properties": {
        "type": "original_route_stop",
        "stop_code": "25894",
        "stop_name": "כיכר מילאנו/דה האז",
        "marker-color": "#2ca02c",
        "marker-symbol": "bus",
        "marker-size": "medium"
      },
      "geometry": {
        "type": "Point",
        "coordinates": [
          34.78459,
          32.093673
        ]
      }
    },
    {
      "type": "Feature",
      "properties": {
        "type": "original_route_stop",
        "stop_code": "25900",
        "stop_name": "ביה''ס עירוני י''א/יהודה המכבי",
        "marker-color": "#2ca02c",
        "marker-symbol": "bus",
        "marker-size": "medium"
      },
      "geometry": {
        "type": "Point",
        "coordinates": [
          34.78823,
          32.093734
        ]
      }
    },
    {
      "type": "Feature",
      "properties": {
        "type": "original_route_stop",
        "stop_code": "25942",
        "stop_name": "יהודה המכבי/דרך נמיר",
        "marker-color": "#2ca02c",
        "marker-symbol": "bus",
        "marker-size": "medium"
      },
      "geometry": {
        "type": "Point",
        "coordinates": [
          34.792836,
          32.094067
        ]
      }
    },
    {
      "type": "Feature",
      "properties": {
        "type": "original_route_stop",
        "stop_code": "20347",
        "stop_name": "דרך נמיר/יהודה המכבי",
        "marker-color": "#2ca02c",
        "marker-symbol": "bus",
        "marker-size": "medium"
      },
      "geometry": {
        "type": "Point",
        "coordinates": [
          34.794543,
          32.093781
        ]
      }
    },
    {
      "type": "Feature",
      "properties": {
        "type": "original_route_stop",
        "stop_code": "21534",
        "stop_name": "תיכון חדש רבין/דרך נמיר",
        "marker-color": "#2ca02c",
        "marker-symbol": "bus",
        "marker-size": "medium"
      },
      "geometry": {
        "type": "Point",
        "coordinates": [
          34.795303,
          32.090293
        ]
      }
    },
    {
      "type": "Feature",
      "properties": {
        "type": "original_route_stop",
        "stop_code": "20348",
        "stop_name": "דרך נמיר/ז'בוטינסקי",
        "marker-color": "#2ca02c",
        "marker-symbol": "bus",
        "marker-size": "medium"
      },
      "geometry": {
        "type": "Point",
        "coordinates": [
          34.795006,
          32.085267
        ]
      }
    },
    {
      "type": "Feature",
      "properties": {
        "type": "original_route_stop",
        "stop_code": "27997",
        "stop_name": "ת. רכבת תל אביב - סבידור/הורדה",
        "marker-color": "#2ca02c",
        "marker-symbol": "bus",
        "marker-size": "medium"
      },
      "geometry": {
        "type": "Point",
        "coordinates": [
          34.796688,
          32.08283
        ]
      }
    },
    {
      "type": "Feature",
      "properties": {
        "type": "cancelled_stop",
        "stop_code": "20236",
        "stop_name": "הבימה/שד' תרס''ט",
        "marker-color": "#ff0000",
        "marker-symbol": "bus",
        "marker-size": "medium"
      },
      "geometry": {
        "type": "Point",
        "coordinates": [
          34.7788,
          32.072934
        ]
      }
    },
    {
      "type": "Feature",
      "properties": {
        "type": "cancelled_stop",
        "stop_code": "25614",
        "stop_name": "היכל התרבות/דיזנגוף",
        "marker-color": "#ff0000",
        "marker-symbol": "bus",
        "marker-size": "medium"
      },
      "geometry": {
        "type": "Point",
        "coordinates": [
          34.778231,
          32.074359
        ]
      }
    },
    {
      "type": "Feature",
      "properties": {
        "type": "new_stop",
        "stop_code": "25607",
        "stop_name": "דיזנגוף סנטר/שדרות בן ציון",
        "marker-color": "#1f9ed6",
        "marker-symbol": "bus",
        "marker-size": "medium"
      },
      "geometry": {
        "type": "Point",
        "coordinates": [
          34.776007,
          32.073814
        ]
      }
    },
    {
      "type": "Feature",
      "properties": {
        "type": "reported_block_stop",
        "stop_code": "20236",
        "stop_name": "הבימה/שד' תרס''ט",
        "marker-color": "#ff8800",
        "marker-symbol": "bus",
        "marker-size": "medium"
      },
      "geometry": {
        "type": "Point",
        "coordinates": [
          34.7788,
          32.072934
        ]
      }
    },
    {
      "type": "Feature",
      "properties": {
        "type": "reported_block_stop",
        "stop_code": "25614",
        "stop_name": "היכל התרבות/דיזנגוף",
        "marker-color": "#ff8800",
        "marker-symbol": "bus",
        "marker-size": "medium"
      },
      "geometry": {
        "type": "Point",
        "coordinates": [
          34.778231,
          32.074359
        ]
      }
    },
    {
      "type": "Feature",
      "properties": {
        "type": "deviate_from_stop",
        "stop_code": "25591",
        "stop_name": "הבימה/שד' רוטשילד",
        "marker-color": "#8000ff",
        "marker-symbol": "bus",
        "marker-size": "medium"
      },
      "geometry": {
        "type": "Point",
        "coordinates": [
          34.779155,
          32.071059
        ]
      }
    },
    {
      "type": "Feature",
      "properties": {
        "type": "deviate_to_stop",
        "stop_code": "25609",
        "stop_name": "דיזנגוף סנטר/דיזנגוף",
        "marker-color": "#8000ff",
        "marker-symbol": "bus",
        "marker-size": "medium"
      },
      "geometry": {
        "type": "Point",
        "coordinates": [
          34.77512,
          32.075566
        ]
      }
    }
  ]
}