{
  "type": "FeatureCollection",
  "features": [
    {
      "type": "Feature",
      "properties": {
        "type": "deviation_path",
        "trip_id": "1038049_020826",
        "shape_id": "151014",
        "stroke": "#00bcd4",
        "stroke-width": 3,
        "stroke-opacity": 0.95
      },
      "geometry": {
        "type": "LineString",
        "coordinates": [
          [
            34.79044035928017,
            32.0775495205013
          ],
          [
            34.790354,
            32.077521
          ],
          [
            34.790041,
            32.077418
          ],
          [
            34.790026,
            32.077413
          ],
          [
            34.789169,
            32.077129
          ],
          [
            34.789168,
            32.077129
          ],
          [
            34.789026,
            32.077151
          ],
          [
            34.788981,
            32.077159
          ],
          [
            34.788923,
            32.077176
          ],
          [
            34.788863,
            32.077192
          ],
          [
            34.788766,
            32.077241
          ],
          [
            34.788615,
            32.077552
          ],
          [
            34.788496,
            32.077826
          ],
          [
            34.78848,
            32.077917
          ],
          [
            34.788463,
            32.078012
          ],
          [
            34.788459,
            32.078216
          ],
          [
            34.78847,
            32.078357
          ],
          [
            34.788487,
            32.078593
          ],
          [
            34.788491,
            32.078616
          ],
          [
            34.788588,
            32.079292
          ],
          [
            34.788653,
            32.079761
          ],
          [
            34.788556,
            32.079769
          ],
          [
            34.78802,
            32.079813
          ],
          [
            34.786953,
            32.079902
          ],
          [
            34.786808,
            32.079914
          ],
          [
            34.786155,
            32.079968
          ],
          [
            34.78563,
            32.08
          ],
          [
            34.785172,
            32.080042
          ],
          [
            34.78495,
            32.080055
          ],
          [
            34.784541,
            32.080079
          ],
          [
            34.783392,
            32.080182
          ],
          [
            34.782036,
            32.080293
          ],
          [
            34.781425,
            32.080336
          ],
          [
            34.781354,
            32.080341
          ],
          [
            34.781177,
            32.080353
          ],
          [
            34.781176,
            32.079803
          ],
          [
            34.781124,
            32.079676
          ],
          [
            34.781093,
            32.079622
          ],
          [
            34.781045,
            32.079581
          ],
          [
            34.780964,
            32.079554
          ],
          [
            34.780889,
            32.079554
          ],
          [
            34.780816,
            32.079555
          ],
          [
            34.780703,
            32.079555
          ],
          [
            34.780656725668045,
            32.07955528389161
          ]
        ]
      }
    },
    {
      "type": "Feature",
      "properties": {
        "type": "original_route_shape",
        "shape_id": "165454",
        "stroke": "#1f2a7a",
        "stroke-width": 3,
        "stroke-opacity": 0.85
      },
      "geometry": {
        "type": "LineString",
        "coordinates": [
          [
            34.79613824768951,
            32.08053751975743
          ],
          [
            34.796106,
            32.080519
          ],
          [
            34.795938,
            32.080388
          ],
          [
            34.795437,
            32.080116
          ],
          [
            34.795413,
            32.080103
          ],
          [
            34.794951,
            32.07983
          ],
          [
            34.794861,
            32.079777
          ],
          [
            34.794787,
            32.079742
          ],
          [
            34.794633,
            32.079677
          ],
          [
            34.79437,
            32.07965
          ],
          [
            34.794246,
            32.07964
          ],
          [
            34.794111,
            32.079651
          ],
          [
            34.793954,
            32.079666
          ],
          [
            34.793952,
            32.079667
          ],
          [
            34.793891,
            32.079653
          ],
          [
            34.793832,
            32.079634
          ],
          [
            34.793775,
            32.0796
          ],
          [
            34.793721,
            32.07955
          ],
          [
            34.793501,
            32.07929
          ],
          [
            34.793358,
            32.079143
          ],
          [
            34.793251,
            32.079024
          ],
          [
            34.792986,
            32.07879
          ],
          [
            34.792868,
            32.078647
          ],
          [
            34.792782,
            32.078536
          ],
          [
            34.792697,
            32.078418
          ],
          [
            34.792617,
            32.078281
          ],
          [
            34.79255,
            32.078212
          ],
          [
            34.792487,
            32.078158
          ],
          [
            34.792454,
            32.078135
          ],
          [
            34.792408,
            32.078118
          ],
          [
            34.792301,
            32.078094
          ],
          [
            34.792136,
            32.078057
          ],
          [
            34.791874,
            32.078005
          ],
          [
            34.791739,
            32.077976
          ],
          [
            34.791461,
            32.077888
          ],
          [
            34.791339,
            32.077848
          ],
          [
            34.790941,
            32.077715
          ],
          [
            34.790787,
            32.077664
          ],
          [
            34.790354,
            32.077521
          ],
          [
            34.790026,
            32.077413
          ],
          [
            34.789168,
            32.077129
          ],
          [
            34.788872,
            32.07703
          ],
          [
            34.788781,
            32.076999
          ],
          [
            34.788666,
            32.07696
          ],
          [
            34.787775,
            32.076655
          ],
          [
            34.787081,
            32.076414
          ],
          [
            34.786084,
            32.076081
          ],
          [
            34.785906,
            32.076022
          ],
          [
            34.785417,
            32.075893
          ],
          [
            34.784833,
            32.075773
          ],
          [
            34.784443,
            32.075718
          ],
          [
            34.784356,
            32.07571
          ],
          [
            34.784239,
            32.0757
          ],
          [
            34.783912,
            32.075671
          ],
          [
            34.783406,
            32.075639
          ],
          [
            34.782823,
            32.075616
          ],
          [
            34.782014,
            32.075586
          ],
          [
            34.781779,
            32.075577
          ],
          [
            34.781703,
            32.075574
          ],
          [
            34.781647,
            32.075929
          ],
          [
            34.781578,
            32.076256
          ],
          [
            34.781459,
            32.076863
          ],
          [
            34.781374,
            32.07752
          ],
          [
            34.781364,
            32.077574
          ],
          [
            34.781355,
            32.077812
          ],
          [
            34.781342,
            32.078163
          ],
          [
            34.781343,
            32.078519
          ],
          [
            34.781357,
            32.079471
          ],
          [
            34.781357,
            32.079563
          ],
          [
            34.781183,
            32.079559
          ],
          [
            34.781128,
            32.079558
          ],
          [
            34.780964,
            32.079554
          ],
          [
            34.78054,
            32.079556
          ],
          [
            34.780053,
            32.079558
          ],
          [
            34.77997,
            32.079558
          ],
          [
            34.779902,
            32.079559
          ],
          [
            34.779756,
            32.079559
          ],
          [
            34.779538,
            32.079565
          ],
          [
            34.779489,
            32.079567
          ],
          [
            34.779124,
            32.079584
          ],
          [
            34.779125,
            32.079505
          ],
          [
            34.77913,
            32.079411
          ],
          [
            34.779119,
            32.079308
          ],
          [
            34.779078,
            32.079243
          ],
          [
            34.778885,
            32.07906
          ],
          [
            34.77876,
            32.078941
          ],
          [
            34.77869,
            32.078878
          ],
          [
            34.778606,
            32.078808
          ],
          [
            34.778077,
            32.078275
          ],
          [
            34.778044,
            32.078241
          ],
          [
            34.778024,
            32.07819
          ],
          [
            34.778011,
            32.078146
          ],
          [
            34.778034,
            32.07809
          ],
          [
            34.778063,
            32.078049
          ],
          [
            34.778207,
            32.07793
          ],
          [
            34.777729,
            32.077346
          ],
          [
            34.777625,
            32.077213
          ],
          [
            34.776893,
            32.076274
          ],
          [
            34.776681,
            32.076021
          ],
          [
            34.776379,
            32.075589
          ],
          [
            34.776308,
            32.075478
          ],
          [
            34.776128,
            32.0752
          ],
          [
            34.775863,
            32.074795
          ],
          [
            34.775729,
            32.074548
          ],
          [
            34.775656,
            32.074413
          ],
          [
            34.775574,
            32.074334
          ],
          [
            34.775381,
            32.074059
          ],
          [
            34.775327,
            32.073972
          ],
          [
            34.775397,
            32.073929
          ],
          [
            34.775933,
            32.073597
          ],
          [
            34.776182,
            32.073476
          ],
          [
            34.776822,
            32.073147
          ],
          [
            34.776947,
            32.073082
          ],
          [
            34.777016,
            32.073046
          ],
          [
            34.77773,
            32.072672
          ],
          [
            34.778492,
            32.072316
          ],
          [
            34.778582,
            32.072287
          ],
          [
            34.778838,
            32.072215
          ],
          [
            34.77893,
            32.072186
          ],
          [
            34.779027,
            32.072147
          ],
          [
            34.779061,
            32.072128
          ],
          [
            34.779089,
            32.0721
          ],
          [
            34.779108,
            32.072065
          ],
          [
            34.779121,
            32.072019
          ],
          [
            34.77912,
            32.071991
          ],
          [
            34.779108,
            32.071936
          ],
          [
            34.779045,
            32.071739
          ],
          [
            34.778751,
            32.07089
          ],
          [
            34.778692,
            32.070689
          ],
          [
            34.778641,
            32.070517
          ],
          [
            34.778597,
            32.07036
          ],
          [
            34.778351,
            32.069649
          ],
          [
            34.778014,
            32.06848
          ],
          [
            34.77795,
            32.068265
          ],
          [
            34.777939,
            32.068229
          ],
          [
            34.777765,
            32.067562
          ],
          [
            34.777471,
            32.066658
          ],
          [
            34.777197,
            32.065952
          ],
          [
            34.777157,
            32.065885
          ],
          [
            34.777072,
            32.065784
          ],
          [
            34.776686,
            32.065421
          ],
          [
            34.775568,
            32.064373
          ],
          [
            34.775414,
            32.064316
          ],
          [
            34.774793,
            32.064114
          ],
          [
            34.774444,
            32.064001
          ],
          [
            34.774247,
            32.063938
          ],
          [
            34.773771,
            32.063813
          ],
          [
            34.772977,
            32.06357
          ],
          [
            34.772543,
            32.063437
          ],
          [
            34.772097,
            32.063304
          ],
          [
            34.77171,
            32.063204
          ],
          [
            34.769951,
            32.062992
          ],
          [
            34.769817,
            32.063631
          ],
          [
            34.769766,
            32.063939
          ],
          [
            34.76976,
            32.063973
          ],
          [
            34.769689,
            32.064403
          ],
          [
            34.769683,
            32.064436
          ],
          [
            34.769639,
            32.064701
          ],
          [
            34.769467,
            32.064686
          ],
          [
            34.769173,
            32.064638
          ],
          [
            34.769133,
            32.064632
          ],
          [
            34.769056,
            32.064623
          ],
          [
            34.768979,
            32.064632
          ],
          [
            34.768937,
            32.064644
          ],
          [
            34.768871,
            32.064672
          ],
          [
            34.768867,
            32.064689
          ],
          [
            34.768846,
            32.0648
          ],
          [
            34.768832,
            32.064884
          ],
          [
            34.76868,
            32.065029
          ],
          [
            34.7681,
            32.065421
          ],
          [
            34.767765,
            32.065656
          ],
          [
            34.767461,
            32.065869
          ],
          [
            34.767094,
            32.066121
          ],
          [
            34.766443,
            32.066573
          ],
          [
            34.765638,
            32.066996
          ],
          [
            34.765581,
            32.067026
          ],
          [
            34.76578103104899,
            32.06731595326367
          ]
        ]
      }
    },
    {
      "type": "Feature",
      "properties": {
        "type": "original_route_stop",
        "stop_code": "20832",
        "stop_name": "ת.רק''ל ארלוזורוב/דרך מנחם בגין",
        "marker-color": "#2ca02c",
        "marker-symbol": "bus",
        "marker-size": "medium"
      },
      "geometry": {
        "type": "Point",
        "coordinates": [
          34.796115,
          32.080578
        ]
      }
    },
    {
      "type": "Feature",
      "properties": {
        "type": "original_route_stop",
        "stop_code": "25617",
        "stop_name": "המלך ג'ורג'/זמנהוף",
        "marker-color": "#2ca02c",
        "marker-symbol": "bus",
        "marker-size": "medium"
      },
      "geometry": {
        "type": "Point",
        "coordinates": [
          34.777315,
          32.076897
        ]
      }
    },
    {
      "type": "Feature",
      "properties": {
        "type": "original_route_stop",
        "stop_code": "20784",
        "stop_name": "דיזנגוף סנטר/המלך ג'ורג'",
        "marker-color": "#2ca02c",
        "marker-symbol": "bus",
        "marker-size": "medium"
      },
      "geometry": {
        "type": "Point",
        "coordinates": [
          34.776195,
          32.075397
        ]
      }
    },
    {
      "type": "Feature",
      "properties": {
        "type": "original_route_stop",
        "stop_code": "25608",
        "stop_name": "דיזנגוף סנטר/שדרות בן ציון",
        "marker-color": "#2ca02c",
        "marker-symbol": "bus",
        "marker-size": "medium"
      },
      "geometry": {
        "type": "Point",
        "coordinates": [
          34.775586,
          32.073756
        ]
      }
    },
    {
      "type": "Feature",
      "properties": {
        "type": "original_route_stop",
        "stop_code": "25592",
        "stop_name": "הבימה/שד' רוטשילד",
        "marker-color": "#2ca02c",
        "marker-symbol": "bus",
        "marker-size": "medium"
      },
      "geometry": {
        "type": "Point",
        "coordinates": [
          34.778882,
          32.071428
        ]
      }
    },
    {
      "type": "Feature",
      "properties": {
        "type": "original_route_stop",
        "stop_code": "25587",
        "stop_name": "שד' רוטשילד/שיינקין",
        "marker-color": "#2ca02c",
        "marker-symbol": "bus",
        "marker-size": "medium"
      },
      "geometry": {
        "type": "Point",
        "coordinates": [
          34.777966,
          32.0685
        ]
      }
    },
    {
      "type": "Feature",
      "properties": {
        "type": "original_route_stop",
        "stop_code": "25584",
        "stop_name": "שד' רוטשילד/בלפור",
        "marker-color": "#2ca02c",
        "marker-symbol": "bus",
        "marker-size": "medium"
      },
      "geometry": {
        "type": "Point",
        "coordinates": [
          34.77721,
          32.066128
        ]
      }
    },
    {
      "type": "Feature",
      "properties": {
        "type": "original_route_stop",
        "stop_code": "20782",
        "stop_name": "ת. רק''ל אלנבי/רוטשילד",
        "marker-color": "#2ca02c",
        "marker-symbol": "bus",
        "marker-size": "medium"
      },
      "geometry": {
        "type": "Point",
        "coordinates": [
          34.774444,
          32.064049
        ]
      }
    },
    {
      "type": "Feature",
      "properties": {
        "type": "original_route_stop",
        "stop_code": "20783",
        "stop_name": "שדרות רוטשילד/אלנבי",
        "marker-color": "#2ca02c",
        "marker-symbol": "bus",
        "marker-size": "medium"
      },
      "geometry": {
        "type": "Point",
        "coordinates": [
          34.772773,
          32.063556
        ]
      }
    },
    {
      "type": "Feature",
      "properties": {
        "type": "original_route_stop",
        "stop_code": "21453",
        "stop_name": "מגדל שלום/הרצל",
        "marker-color": "#2ca02c",
        "marker-symbol": "bus",
        "marker-size": "medium"
      },
      "geometry": {
        "type": "Point",
        "coordinates": [
          34.769838,
          32.063828
        ]
      }
    },
    {
      "type": "Feature",
      "properties": {
        "type": "original_route_stop",
        "stop_code": "26956",
        "stop_name": "מסוף כרמלית/הורדה",
        "marker-color": "#2ca02c",
        "marker-symbol": "bus",
        "marker-size": "medium"
      },
      "geometry": {
        "type": "Point",
        "coordinates": [
          34.765823,
          32.067287
        ]
      }
    },
    {
      "type": "Feature",
      "properties": {
        "type": "cancelled_stop",
        "stop_code": "21544",
        "stop_name": "בית המשפט/שד' שאול המלך",
        "marker-color": "#ff0000",
        "marker-symbol": "bus",
        "marker-size": "medium"
      },
      "geometry": {
        "type": "Point",
        "coordinates": [
          34.787868,
          32.076736
        ]
      }
    },
    {
      "type": "Feature",
      "properties": {
        "type": "cancelled_stop",
        "stop_code": "21150",
        "stop_name": "לונדון מיניסטור/שד' שאול המלך",
        "marker-color": "#ff0000",
        "marker-symbol": "bus",
        "marker-size": "medium"
      },
      "geometry": {
        "type": "Point",
        "coordinates": [
          34.782893,
          32.075664
        ]
      }
    },
    {
      "type": "Feature",
      "properties": {
        "type": "new_stop",
        "stop_code": "21238",
        "stop_name": "בית המשפט/ויצמן",
        "marker-color": "#1f9ed6",
        "marker-symbol": "bus",
        "marker-size": "medium"
      },
      "geometry": {
        "type": "Point",
        "coordinates": [
          34.788581,
          32.078868
        ]
      }
    },
    {
      "type": "Feature",
      "properties": {
        "type": "new_stop",
        "stop_code": "25872",
        "stop_name": "רבנות תל אביב/שד' דוד המלך",
        "marker-color": "#1f9ed6",
        "marker-symbol": "bus",
        "marker-size": "medium"
      },
      "geometry": {
        "type": "Point",
        "coordinates": [
          34.784906,
          32.080103
        ]
      }
    },
    {
      "type": "Feature",
      "properties": {
        "type": "new_stop",
        "stop_code": "25819",
        "stop_name": "שד' דוד המלך/אבן גבירול",
        "marker-color": "#1f9ed6",
        "marker-symbol": "bus",
        "marker-size": "medium"
      },
      "geometry": {
        "type": "Point",
        "coordinates": [
          34.78247,
          32.080303
        ]
      }
    },
    {
      "type": "Feature",
      "properties": {
        "type": "reported_block_stop",
        "stop_code": "21544",
        "stop_name": "בית המשפט/שד' שאול המלך",
        "marker-color": "#ff8800",
        "marker-symbol": "bus",
        "marker-size": "medium"
      },
      "geometry": {
        "type": "Point",
        "coordinates": [
          34.787868,
          32.076736
        ]
      }
    },
    {
      "type": "Feature",
      "properties": {
        "type": "reported_block_stop",
        "stop_code": "21150",
        "stop_name": "לונדון מיניסטור/שד' שאול המלך",
        "marker-color": "#ff8800",
        "marker-symbol": "bus",
        "marker-size": "medium"
      },
      "geometry": {
        "type": "Point",
        "coordinates": [
          34.782893,
          32.075664
        ]
      }
    },
    {
      "type": "Feature",
      "properties": {
        "type": "deviate_from_stop",
        "stop_code": "25732",
        "stop_name": "בית הדר דפנה/שד' שאול המלך",
        "marker-color": "#8000ff",
        "marker-symbol": "bus",
        "marker-size": "medium"
      },
      "geometry": {
        "type": "Point",
        "coordinates": [
          34.790426,
          32.077593
        ]
      }
    },
    {
      "type": "Feature",
      "properties": {
        "type": "deviate_to_stop",
        "stop_code": "21520",
        "stop_name": "כיכר רבין/מלכי ישראל",
        "marker-color": "#8000ff",
        "marker-symbol": "bus",
        "marker-size": "medium"
      },
      "geometry": {
        "type": "Point",
        "coordinates": [
          34.780657,
          32.0796
        ]
      }
    }
  ]
}