{
  "type": "FeatureCollection",
  "features": [
    {
      "type": "Feature",
      "properties": {
        "type": "deviation_path",
        "trip_id": "2202672_020826",
        "shape_id": "162482",
        "stroke": "#00bcd4",
        "stroke-width": 3,
        "stroke-opacity": 0.95
      },
      "geometry": {
        "type": "LineString",
        "coordinates": [
          [
            34.776665931153424,
            32.07963419654126
          ],
          [
            34.776367,
            32.079648
          ],
          [
            34.776252,
            32.079654
          ],
          [
            34.77577,
            32.079675
          ],
          [
            34.775157,
            32.079696
          ],
          [
            34.775094,
            32.079698
          ],
          [
            34.774601,
            32.079715
          ],
          [
            34.774499,
            32.079719
          ],
          [
            34.773827,
            32.079743
          ],
          [
            34.773279,
            32.079762
          ],
          [
            34.773046,
            32.079771
          ],
          [
            34.77228,
            32.079798
          ],
          [
            34.772044,
            32.079807
          ],
          [
            34.771783,
            32.079814
          ],
          [
            34.771024,
            32.079838
          ],
          [
            34.769746,
            32.079878
          ],
          [
            34.768488,
            32.079925
          ],
          [
            34.768357,
            32.07993
          ],
          [
            34.768241,
            32.079934
          ],
          [
            34.768136,
            32.079934
          ],
          [
            34.767384,
            32.079938
          ],
          [
            34.767304,
            32.079605
          ],
          [
            34.767174,
            32.079216
          ],
          [
            34.767101,
            32.079011
          ],
          [
            34.767035,
            32.078836
          ],
          [
            34.767018,
            32.078767
          ],
          [
            34.766934,
            32.078332
          ],
          [
            34.766877,
            32.07814
          ],
          [
            34.766832,
            32.078031
          ],
          [
            34.766776,
            32.077916
          ],
          [
            34.766567,
            32.077513
          ],
          [
            34.766536,
            32.077462
          ],
          [
            34.766492,
            32.077387
          ],
          [
            34.766417,
            32.077247
          ],
          [
            34.766338,
            32.077046
          ],
          [
            34.766312,
            32.076983
          ],
          [
            34.766224,
            32.076758
          ],
          [
            34.76606,
            32.076215
          ],
          [
            34.766056,
            32.076206
          ],
          [
            34.765937,
            32.075757
          ],
          [
            34.765888,
            32.075619
          ],
          [
            34.765872,
            32.075576
          ],
          [
            34.765858,
            32.075541
          ],
          [
            34.765825,
            32.075458
          ],
          [
            34.765811,
            32.075452
          ],
          [
            34.765779,
            32.075437
          ],
          [
            34.765729,
            32.075409
          ],
          [
            34.765698,
            32.075346
          ],
          [
            34.765508,
            32.074942
          ],
          [
            34.76539,
            32.074697
          ],
          [
            34.765058,
            32.073958
          ],
          [
            34.764983,
            32.073753
          ],
          [
            34.764853,
            32.073311
          ],
          [
            34.76484227124526,
            32.0732793159328
          ]
        ]
      }
    },
    {
      "type": "Feature",
      "properties": {
        "type": "original_route_shape",
        "shape_id": "165427",
        "stroke": "#1f2a7a",
        "stroke-width": 3,
        "stroke-opacity": 0.85
      },
      "geometry": {
        "type": "LineString",
        "coordinates": [
          [
            34.79421544613587,
            32.09128005788213
          ],
          [
            34.794139,
            32.091281
          ],
          [
            34.793373,
            32.091266
          ],
          [
            34.792864,
            32.091255
          ],
          [
            34.792035,
            32.091197
          ],
          [
            34.791778,
            32.091178
          ],
          [
            34.791738,
            32.091175
          ],
          [
            34.790897,
            32.091095
          ],
          [
            34.790629,
            32.091079
          ],
          [
            34.790578,
            32.091076
          ],
          [
            34.790533,
            32.091073
          ],
          [
            34.790535,
            32.090985
          ],
          [
            34.790536,
            32.090914
          ],
          [
            34.790537,
            32.090751
          ],
          [
            34.790522,
            32.090466
          ],
          [
            34.790454,
            32.090209
          ],
          [
            34.790144,
            32.088947
          ],
          [
            34.790072,
            32.088651
          ],
          [
            34.790012,
            32.088286
          ],
          [
            34.789996,
            32.088192
          ],
          [
            34.789969,
            32.088113
          ],
          [
            34.789915,
            32.088029
          ],
          [
            34.789867,
            32.087987
          ],
          [
            34.789795,
            32.087989
          ],
          [
            34.789705,
            32.087988
          ],
          [
            34.789616,
            32.087981
          ],
          [
            34.789527,
            32.08797
          ],
          [
            34.789439,
            32.087954
          ],
          [
            34.789353,
            32.087934
          ],
          [
            34.789268,
            32.087908
          ],
          [
            34.789185,
            32.087879
          ],
          [
            34.789104,
            32.087844
          ],
          [
            34.789005,
            32.087796
          ],
          [
            34.788951,
            32.087763
          ],
          [
            34.788879,
            32.087717
          ],
          [
            34.788811,
            32.087666
          ],
          [
            34.788746,
            32.087612
          ],
          [
            34.788685,
            32.087555
          ],
          [
            34.788629,
            32.087494
          ],
          [
            34.788577,
            32.087431
          ],
          [
            34.788529,
            32.087364
          ],
          [
            34.788487,
            32.087296
          ],
          [
            34.788449,
            32.087225
          ],
          [
            34.788417,
            32.087152
          ],
          [
            34.788404,
            32.087119
          ],
          [
            34.78838,
            32.08702
          ],
          [
            34.788348,
            32.086918
          ],
          [
            34.788341,
            32.086848
          ],
          [
            34.788336,
            32.086771
          ],
          [
            34.788336,
            32.086693
          ],
          [
            34.788342,
            32.086615
          ],
          [
            34.788353,
            32.086538
          ],
          [
            34.788371,
            32.086461
          ],
          [
            34.788393,
            32.086385
          ],
          [
            34.788421,
            32.086311
          ],
          [
            34.788454,
            32.086239
          ],
          [
            34.788492,
            32.086168
          ],
          [
            34.788535,
            32.0861
          ],
          [
            34.788583,
            32.086034
          ],
          [
            34.788636,
            32.085971
          ],
          [
            34.788693,
            32.085911
          ],
          [
            34.788754,
            32.085854
          ],
          [
            34.788819,
            32.0858
          ],
          [
            34.788888,
            32.08575
          ],
          [
            34.78896,
            32.085704
          ],
          [
            34.789036,
            32.085662
          ],
          [
            34.789114,
            32.085624
          ],
          [
            34.789195,
            32.08559
          ],
          [
            34.789278,
            32.085561
          ],
          [
            34.789363,
            32.085536
          ],
          [
            34.78941,
            32.085525
          ],
          [
            34.789437,
            32.085442
          ],
          [
            34.789414,
            32.085282
          ],
          [
            34.789409,
            32.085258
          ],
          [
            34.789247,
            32.084501
          ],
          [
            34.789178,
            32.084156
          ],
          [
            34.789094,
            32.083719
          ],
          [
            34.78896,
            32.083749
          ],
          [
            34.788192,
            32.083955
          ],
          [
            34.786633,
            32.084311
          ],
          [
            34.786352,
            32.084374
          ],
          [
            34.786088,
            32.084427
          ],
          [
            34.785714,
            32.084497
          ],
          [
            34.785079,
            32.08463
          ],
          [
            34.784598,
            32.084726
          ],
          [
            34.783901,
            32.084866
          ],
          [
            34.783391,
            32.084968
          ],
          [
            34.783288,
            32.084989
          ],
          [
            34.783287,
            32.084989
          ],
          [
            34.783284,
            32.08499
          ],
          [
            34.782072,
            32.085233
          ],
          [
            34.781816,
            32.085285
          ],
          [
            34.781704,
            32.085307
          ],
          [
            34.781629,
            32.084964
          ],
          [
            34.78157,
            32.084636
          ],
          [
            34.781531,
            32.084464
          ],
          [
            34.781263,
            32.083214
          ],
          [
            34.781232,
            32.082934
          ],
          [
            34.781201,
            32.082649
          ],
          [
            34.781195,
            32.082269
          ],
          [
            34.7812,
            32.082153
          ],
          [
            34.781209,
            32.081571
          ],
          [
            34.781211,
            32.081472
          ],
          [
            34.781206,
            32.081398
          ],
          [
            34.781192,
            32.080911
          ],
          [
            34.781177,
            32.080353
          ],
          [
            34.781176,
            32.079803
          ],
          [
            34.781124,
            32.079676
          ],
          [
            34.781093,
            32.079622
          ],
          [
            34.781045,
            32.079581
          ],
          [
            34.780964,
            32.079554
          ],
          [
            34.78054,
            32.079556
          ],
          [
            34.780053,
            32.079558
          ],
          [
            34.77997,
            32.079558
          ],
          [
            34.779902,
            32.079559
          ],
          [
            34.779756,
            32.079559
          ],
          [
            34.779538,
            32.079565
          ],
          [
            34.779489,
            32.079567
          ],
          [
            34.779124,
            32.079584
          ],
          [
            34.778749,
            32.079594
          ],
          [
            34.778394,
            32.079571
          ],
          [
            34.777796,
            32.079593
          ],
          [
            34.777653,
            32.079591
          ],
          [
            34.77706,
            32.079616
          ],
          [
            34.776367,
            32.079648
          ],
          [
            34.776252,
            32.079654
          ],
          [
            34.77577,
            32.079675
          ],
          [
            34.775157,
            32.079696
          ],
          [
            34.775094,
            32.079698
          ],
          [
            34.774601,
            32.079715
          ],
          [
            34.774499,
            32.079719
          ],
          [
            34.773827,
            32.079743
          ],
          [
            34.773872,
            32.079465
          ],
          [
            34.773898,
            32.079303
          ],
          [
            34.77394,
            32.079048
          ],
          [
            34.773991,
            32.078759
          ],
          [
            34.774051,
            32.078496
          ],
          [
            34.774071,
            32.078403
          ],
          [
            34.77406,
            32.078307
          ],
          [
            34.774032,
            32.078262
          ],
          [
            34.773993,
            32.078228
          ],
          [
            34.773945,
            32.078189
          ],
          [
            34.773901,
            32.078154
          ],
          [
            34.773865,
            32.07811
          ],
          [
            34.773846,
            32.078073
          ],
          [
            34.773836,
            32.078025
          ],
          [
            34.773836,
            32.077971
          ],
          [
            34.773849,
            32.077923
          ],
          [
            34.773862,
            32.077895
          ],
          [
            34.773894,
            32.077843
          ],
          [
            34.773898,
            32.077771
          ],
          [
            34.773891,
            32.077745
          ],
          [
            34.773872,
            32.077711
          ],
          [
            34.773841,
            32.077682
          ],
          [
            34.773637,
            32.077487
          ],
          [
            34.773368,
            32.077264
          ],
          [
            34.77257,
            32.076572
          ],
          [
            34.771769,
            32.075871
          ],
          [
            34.771471,
            32.075527
          ],
          [
            34.77098,
            32.07496
          ],
          [
            34.770622,
            32.075105
          ],
          [
            34.770377,
            32.075147
          ],
          [
            34.769768,
            32.075195
          ],
          [
            34.769703,
            32.0752
          ],
          [
            34.768744,
            32.075314
          ],
          [
            34.76851,
            32.075345
          ],
          [
            34.768022,
            32.075408
          ],
          [
            34.768021,
            32.075421
          ],
          [
            34.767861,
            32.075448
          ],
          [
            34.767689,
            32.075463
          ],
          [
            34.767006,
            32.075473
          ],
          [
            34.766617,
            32.07548
          ],
          [
            34.766186,
            32.075481
          ],
          [
            34.76593,
            32.07548
          ],
          [
            34.76591,
            32.075478
          ],
          [
            34.765896,
            32.075476
          ],
          [
            34.765835,
            32.075462
          ],
          [
            34.765825,
            32.075458
          ],
          [
            34.765811,
            32.075452
          ],
          [
            34.765779,
            32.075437
          ],
          [
            34.765729,
            32.075409
          ],
          [
            34.765698,
            32.075346
          ],
          [
            34.765508,
            32.074942
          ],
          [
            34.76539,
            32.074697
          ],
          [
            34.765058,
            32.073958
          ],
          [
            34.764983,
            32.073752
          ],
          [
            34.764853,
            32.073311
          ],
          [
            34.764574,
            32.072488
          ],
          [
            34.764434,
            32.072108
          ],
          [
            34.764432,
            32.072078
          ],
          [
            34.764114,
            32.07124
          ],
          [
            34.763951,
            32.070813
          ],
          [
            34.76383,
            32.070492
          ],
          [
            34.763262,
            32.068963
          ],
          [
            34.763282,
            32.06891
          ],
          [
            34.763302,
            32.068872
          ],
          [
            34.763283,
            32.068693
          ],
          [
            34.763261,
            32.068594
          ],
          [
            34.763192,
            32.068407
          ],
          [
            34.763155,
            32.068218
          ],
          [
            34.763148,
            32.06812
          ],
          [
            34.763272,
            32.068033
          ],
          [
            34.763959,
            32.067782
          ],
          [
            34.764647,
            32.067516
          ],
          [
            34.764793,
            32.06744
          ],
          [
            34.764883,
            32.067392
          ],
          [
            34.764997,
            32.067332
          ],
          [
            34.765122,
            32.067267
          ],
          [
            34.765252,
            32.067199
          ],
          [
            34.765373,
            32.067135
          ],
          [
            34.765581,
            32.067026
          ],
          [
            34.76578103104899,
            32.06731595326367
          ]
        ]
      }
    },
    {
      "type": "Feature",
      "properties": {
        "type": "original_route_stop",
        "stop_code": "25938",
        "stop_name": "פנקס/דרך נמיר",
        "marker-color": "#2ca02c",
        "marker-symbol": "bus",
        "marker-size": "medium"
      },
      "geometry": {
        "type": "Point",
        "coordinates": [
          34.794216,
          32.091325
        ]
      }
    },
    {
      "type": "Feature",
      "properties": {
        "type": "original_route_stop",
        "stop_code": "25897",
        "stop_name": "בית החייל/ויצמן",
        "marker-color": "#2ca02c",
        "marker-symbol": "bus",
        "marker-size": "medium"
      },
      "geometry": {
        "type": "Point",
        "coordinates": [
          34.790476,
          32.090607
        ]
      }
    },
    {
      "type": "Feature",
      "properties": {
        "type": "original_route_stop",
        "stop_code": "25888",
        "stop_name": "כיכר המדינה/וייצמן",
        "marker-color": "#2ca02c",
        "marker-symbol": "bus",
        "marker-size": "medium"
      },
      "geometry": {
        "type": "Point",
        "coordinates": [
          34.789598,
          32.088024
        ]
      }
    },
    {
      "type": "Feature",
      "properties": {
        "type": "original_route_stop",
        "stop_code": "25886",
        "stop_name": "כיכר המדינה/ויצמן",
        "marker-color": "#2ca02c",
        "marker-symbol": "bus",
        "marker-size": "medium"
      },
      "geometry": {
        "type": "Point",
        "coordinates": [
          34.789372,
          32.085362
        ]
      }
    },
    {
      "type": "Feature",
      "properties": {
        "type": "original_route_stop",
        "stop_code": "21068",
        "stop_name": "ארלוזורוב/משה שרת",
        "marker-color": "#2ca02c",
        "marker-symbol": "bus",
        "marker-size": "medium"
      },
      "geometry": {
        "type": "Point",
        "coordinates": [
          34.787875,
          32.084075
        ]
      }
    },
    {
      "type": "Feature",
      "properties": {
        "type": "original_route_stop",
        "stop_code": "21038",
        "stop_name": "הוועד הפועל/ארלוזורוב",
        "marker-color": "#2ca02c",
        "marker-symbol": "bus",
        "marker-size": "medium"
      },
      "geometry": {
        "type": "Point",
        "coordinates": [
          34.78481,
          32.08473
        ]
      }
    },
    {
      "type": "Feature",
      "properties": {
        "type": "original_route_stop",
        "stop_code": "20699",
        "stop_name": "אבן גבירול/ארלוזורוב",
        "marker-color": "#2ca02c",
        "marker-symbol": "bus",
        "marker-size": "medium"
      },
      "geometry": {
        "type": "Point",
        "coordinates": [
          34.781547,
          32.084806
        ]
      }
    },
    {
      "type": "Feature",
      "properties": {
        "type": "original_route_stop",
        "stop_code": "25823",
        "stop_name": "עיריית תל אביב - יפו/אבן גבירול",
        "marker-color": "#2ca02c",
        "marker-symbol": "bus",
        "marker-size": "medium"
      },
      "geometry": {
        "type": "Point",
        "coordinates": [
          34.781176,
          32.082914
        ]
      }
    },
    {
      "type": "Feature",
      "properties": {
        "type": "original_route_stop",
        "stop_code": "21520",
        "stop_name": "כיכר רבין/מלכי ישראל",
        "marker-color": "#2ca02c",
        "marker-symbol": "bus",
        "marker-size": "medium"
      },
      "geometry": {
        "type": "Point",
        "coordinates": [
          34.780657,
          32.0796
        ]
      }
    },
    {
      "type": "Feature",
      "properties": {
        "type": "original_route_stop",
        "stop_code": "20659",
        "stop_name": "חוף בננה ביץ'",
        "marker-color": "#2ca02c",
        "marker-symbol": "bus",
        "marker-size": "medium"
      },
      "geometry": {
        "type": "Point",
        "coordinates": [
          34.763816,
          32.070602
        ]
      }
    },
    {
      "type": "Feature",
      "properties": {
        "type": "original_route_stop",
        "stop_code": "26956",
        "stop_name": "מסוף כרמלית/הורדה",
        "marker-color": "#2ca02c",
        "marker-symbol": "bus",
        "marker-size": "medium"
      },
      "geometry": {
        "type": "Point",
        "coordinates": [
          34.765823,
          32.067287
        ]
      }
    },
    {
      "type": "Feature",
      "properties": {
        "type": "cancelled_stop",
        "stop_code": "21366",
        "stop_name": "כיכר דיזנגוף/דיזנגוף",
        "marker-color": "#ff0000",
        "marker-symbol": "bus",
        "marker-size": "medium"
      },
      "geometry": {
        "type": "Point",
        "coordinates": [
          34.773907,
          32.078936
        ]
      }
    },
    {
      "type": "Feature",
      "properties": {
        "type": "cancelled_stop",
        "stop_code": "25566",
        "stop_name": "כיכר דיזנגוף/פינסקר",
        "marker-color": "#ff0000",
        "marker-symbol": "bus",
        "marker-size": "medium"
      },
      "geometry": {
        "type": "Point",
        "coordinates": [
          34.773089,
          32.077087
        ]
      }
    },
    {
      "type": "Feature",
      "properties": {
        "type": "cancelled_stop",
        "stop_code": "25543",
        "stop_name": "טרומפלדור/פינסקר",
        "marker-color": "#ff0000",
        "marker-symbol": "bus",
        "marker-size": "medium"
      },
      "geometry": {
        "type": "Point",
        "coordinates": [
          34.770528,
          32.075167
        ]
      }
    },
    {
      "type": "Feature",
      "properties": {
        "type": "cancelled_stop",
        "stop_code": "20133",
        "stop_name": "טרומפלדור/בן יהודה",
        "marker-color": "#ff0000",
        "marker-symbol": "bus",
        "marker-size": "medium"
      },
      "geometry": {
        "type": "Point",
        "coordinates": [
          34.767296,
          32.075514
        ]
      }
    },
    {
      "type": "Feature",
      "properties": {
        "type": "new_stop",
        "stop_code": "20664",
        "stop_name": "פרישמן/דב הוז",
        "marker-color": "#1f9ed6",
        "marker-symbol": "bus",
        "marker-size": "medium"
      },
      "geometry": {
        "type": "Point",
        "coordinates": [
          34.772121,
          32.079849
        ]
      }
    },
    {
      "type": "Feature",
      "properties": {
        "type": "new_stop",
        "stop_code": "20656",
        "stop_name": "חוף בוגרשוב/טיילת",
        "marker-color": "#1f9ed6",
        "marker-symbol": "bus",
        "marker-size": "medium"
      },
      "geometry": {
        "type": "Point",
        "coordinates": [
          34.766845,
          32.078216
        ]
      }
    },
    {
      "type": "Feature",
      "properties": {
        "type": "reported_block_stop",
        "stop_code": "25566",
        "stop_name": "כיכר דיזנגוף/פינסקר",
        "marker-color": "#ff8800",
        "marker-symbol": "bus",
        "marker-size": "medium"
      },
      "geometry": {
        "type": "Point",
        "coordinates": [
          34.773089,
          32.077087
        ]
      }
    },
    {
      "type": "Feature",
      "properties": {
        "type": "reported_block_stop",
        "stop_code": "25543",
        "stop_name": "טרומפלדור/פינסקר",
        "marker-color": "#ff8800",
        "marker-symbol": "bus",
        "marker-size": "medium"
      },
      "geometry": {
        "type": "Point",
        "coordinates": [
          34.770528,
          32.075167
        ]
      }
    },
    {
      "type": "Feature",
      "properties": {
        "type": "deviate_from_stop",
        "stop_code": "25616",
        "stop_name": "פרישמן/שלמה המלך",
        "marker-color": "#8000ff",
        "marker-symbol": "bus",
        "marker-size": "medium"
      },
      "geometry": {
        "type": "Point",
        "coordinates": [
          34.776668,
          32.079679
        ]
      }
    },
    {
      "type": "Feature",
      "properties": {
        "type": "deviate_to_stop",
        "stop_code": "20660",
        "stop_name": "חוף ירושלים",
        "marker-color": "#8000ff",
        "marker-symbol": "bus",
        "marker-size": "medium"
      },
      "geometry": {
        "type": "Point",
        "coordinates": [
          34.764793,
          32.073296
        ]
      }
    }
  ]
}