{
  "type": "FeatureCollection",
  "features": [
    {
      "type": "Feature",
      "properties": {
        "type": "deviation_path_edge",
        "from_stop_code": "20654",
        "to_stop_code": "21104",
        "stroke": "#00bcd4",
        "stroke-width": 3,
        "stroke-opacity": 0.95
      },
      "geometry": {
        "type": "LineString",
        "coordinates": [
          [
            34.76948177473265,
            32.08420915181733
          ],
          [
            34.769502,
            32.084264
          ],
          [
            34.76957,
            32.084448
          ],
          [
            34.769597,
            32.08453
          ],
          [
            34.769626,
            32.08465
          ],
          [
            34.769695,
            32.084873
          ],
          [
            34.769723,
            32.085035
          ],
          [
            34.769741,
            32.085136
          ],
          [
            34.769759,
            32.085413
          ],
          [
            34.769765,
            32.085497
          ],
          [
            34.769768,
            32.085594
          ],
          [
            34.769772,
            32.085724
          ],
          [
            34.769823,
            32.085922
          ],
          [
            34.769831,
            32.085954
          ],
          [
            34.76993,
            32.086156
          ],
          [
            34.770006,
            32.086307
          ],
          [
            34.770142,
            32.086499
          ],
          [
            34.770577,
            32.087096
          ],
          [
            34.770828,
            32.087433
          ],
          [
            34.771076,
            32.087753
          ],
          [
            34.77124204362928,
            32.08796962645674
          ]
        ]
      }
    },
    {
      "type": "Feature",
      "properties": {
        "type": "deviation_path_edge",
        "from_stop_code": "21104",
        "to_stop_code": "20651",
        "stroke": "#00bcd4",
        "stroke-width": 3,
        "stroke-opacity": 0.95
      },
      "geometry": {
        "type": "LineString",
        "coordinates": [
          [
            34.77124204362928,
            32.08796962645674
          ],
          [
            34.771378,
            32.088147
          ],
          [
            34.771493,
            32.08832
          ],
          [
            34.771668,
            32.08862
          ],
          [
            34.771957,
            32.089132
          ],
          [
            34.772328,
            32.089776
          ],
          [
            34.772338,
            32.089804
          ],
          [
            34.773041,
            32.089684
          ],
          [
            34.77334817543621,
            32.08963479041823
          ]
        ]
      }
    },
    {
      "type": "Feature",
      "properties": {
        "type": "deviation_path_edge",
        "from_stop_code": "20651",
        "to_stop_code": "25831",
        "stroke": "#00bcd4",
        "stroke-width": 3,
        "stroke-opacity": 0.95
      },
      "geometry": {
        "type": "LineString",
        "coordinates": [
          [
            34.77334817543621,
            32.08963479041823
          ],
          [
            34.77384,
            32.089556
          ],
          [
            34.774414,
            32.089475
          ],
          [
            34.774686,
            32.08943
          ],
          [
            34.774934,
            32.089382
          ],
          [
            34.775517,
            32.089277
          ],
          [
            34.776237,
            32.089154
          ],
          [
            34.77655213876969,
            32.0891111981964
          ]
        ]
      }
    },
    {
      "type": "Feature",
      "properties": {
        "type": "deviation_path_edge",
        "from_stop_code": "25831",
        "to_stop_code": "25835",
        "stroke": "#00bcd4",
        "stroke-width": 3,
        "stroke-opacity": 0.95
      },
      "geometry": {
        "type": "LineString",
        "coordinates": [
          [
            34.77655213876969,
            32.0891111981964
          ],
          [
            34.776988,
            32.089052
          ],
          [
            34.777666,
            32.088931
          ],
          [
            34.778377,
            32.088821
          ],
          [
            34.77900103525679,
            32.088722629910265
          ]
        ]
      }
    },
    {
      "type": "Feature",
      "properties": {
        "type": "deviation_path_edge",
        "from_stop_code": "25835",
        "to_stop_code": "25848",
        "stroke": "#00bcd4",
        "stroke-width": 3,
        "stroke-opacity": 0.95
      },
      "geometry": {
        "type": "LineString",
        "coordinates": [
          [
            34.77900103525679,
            32.088722629910265
          ],
          [
            34.779392,
            32.088661
          ],
          [
            34.779728,
            32.088608
          ],
          [
            34.780345,
            32.08848
          ],
          [
            34.78119289012672,
            32.08832943127606
          ]
        ]
      }
    },
    {
      "type": "Feature",
      "properties": {
        "type": "deviation_path_edge",
        "from_stop_code": "25848",
        "to_stop_code": "25877",
        "stroke": "#00bcd4",
        "stroke-width": 3,
        "stroke-opacity": 0.95
      },
      "geometry": {
        "type": "LineString",
        "coordinates": [
          [
            34.78119289012672,
            32.08832943127606
          ],
          [
            34.781246,
            32.08832
          ],
          [
            34.781474,
            32.088285
          ],
          [
            34.7822,
            32.088171
          ],
          [
            34.782274,
            32.08816
          ],
          [
            34.782399,
            32.088105
          ],
          [
            34.782992,
            32.087987
          ],
          [
            34.783861,
            32.087808
          ],
          [
            34.784623,
            32.087662
          ],
          [
            34.78493741295835,
            32.0876023281765
          ]
        ]
      }
    },
    {
      "type": "Feature",
      "properties": {
        "type": "deviation_path_edge",
        "from_stop_code": "25877",
        "to_stop_code": "25876",
        "stroke": "#00bcd4",
        "stroke-width": 3,
        "stroke-opacity": 0.95
      },
      "geometry": {
        "type": "LineString",
        "coordinates": [
          [
            34.78493741295835,
            32.0876023281765
          ],
          [
            34.785661,
            32.087465
          ],
          [
            34.786174,
            32.087376
          ],
          [
            34.786129,
            32.087055
          ],
          [
            34.78608,
            32.086669
          ],
          [
            34.786013,
            32.086124
          ],
          [
            34.785973,
            32.085806
          ],
          [
            34.785908,
            32.085279
          ],
          [
            34.785898,
            32.0852
          ],
          [
            34.785714,
            32.084497
          ],
          [
            34.7857,
            32.08442
          ],
          [
            34.786063,
            32.084355
          ],
          [
            34.78641751504301,
            32.08426970314755
          ]
        ]
      }
    },
    {
      "type": "Feature",
      "properties": {
        "type": "original_route_shape",
        "shape_id": "140763",
        "stroke": "#1f2a7a",
        "stroke-width": 3,
        "stroke-opacity": 0.85
      },
      "geometry": {
        "type": "LineString",
        "coordinates": [
          [
            34.7654946276491,
            32.068557864757494
          ],
          [
            34.765628,
            32.068728
          ],
          [
            34.765732,
            32.068894
          ],
          [
            34.764503,
            32.069274
          ],
          [
            34.764778,
            32.069991
          ],
          [
            34.764971,
            32.070529
          ],
          [
            34.765131,
            32.071016
          ],
          [
            34.765391,
            32.071574
          ],
          [
            34.765636,
            32.072131
          ],
          [
            34.76566,
            32.072185
          ],
          [
            34.765878,
            32.072729
          ],
          [
            34.765897,
            32.072776
          ],
          [
            34.765996,
            32.073043
          ],
          [
            34.766092,
            32.073306
          ],
          [
            34.766142,
            32.073437
          ],
          [
            34.766402,
            32.074138
          ],
          [
            34.76642,
            32.074543
          ],
          [
            34.766435,
            32.074921
          ],
          [
            34.766447,
            32.074991
          ],
          [
            34.766469,
            32.075034
          ],
          [
            34.766491,
            32.075089
          ],
          [
            34.766617,
            32.07548
          ],
          [
            34.766685,
            32.075665
          ],
          [
            34.76673,
            32.075791
          ],
          [
            34.766755,
            32.075859
          ],
          [
            34.766871,
            32.076176
          ],
          [
            34.766944,
            32.076383
          ],
          [
            34.767043,
            32.076658
          ],
          [
            34.767133,
            32.076909
          ],
          [
            34.767174,
            32.077023
          ],
          [
            34.767258,
            32.077258
          ],
          [
            34.767291,
            32.077349
          ],
          [
            34.767331,
            32.07746
          ],
          [
            34.767355,
            32.077528
          ],
          [
            34.767496,
            32.07792
          ],
          [
            34.767549,
            32.078068
          ],
          [
            34.767587,
            32.078201
          ],
          [
            34.76764,
            32.07837
          ],
          [
            34.767672,
            32.078446
          ],
          [
            34.767866,
            32.078968
          ],
          [
            34.767947,
            32.079192
          ],
          [
            34.768021,
            32.079383
          ],
          [
            34.768241,
            32.079934
          ],
          [
            34.768278,
            32.080046
          ],
          [
            34.768333,
            32.080215
          ],
          [
            34.768444,
            32.080612
          ],
          [
            34.768452,
            32.080668
          ],
          [
            34.76837,
            32.081017
          ],
          [
            34.768355,
            32.081209
          ],
          [
            34.768348,
            32.081364
          ],
          [
            34.768391,
            32.081565
          ],
          [
            34.768425,
            32.08171
          ],
          [
            34.768509,
            32.082099
          ],
          [
            34.768529,
            32.082166
          ],
          [
            34.768552,
            32.082222
          ],
          [
            34.76881,
            32.082657
          ],
          [
            34.768947,
            32.082877
          ],
          [
            34.769026,
            32.083009
          ],
          [
            34.769077,
            32.08311
          ],
          [
            34.76915,
            32.083291
          ],
          [
            34.769384,
            32.083944
          ],
          [
            34.769502,
            32.084264
          ],
          [
            34.769576,
            32.084336
          ],
          [
            34.769615,
            32.084382
          ],
          [
            34.769639,
            32.084418
          ],
          [
            34.769664,
            32.084468
          ],
          [
            34.769749,
            32.084692
          ],
          [
            34.769839,
            32.084896
          ],
          [
            34.769943,
            32.085083
          ],
          [
            34.76999,
            32.085167
          ],
          [
            34.77008,
            32.085283
          ],
          [
            34.770147,
            32.085361
          ],
          [
            34.770193,
            32.085388
          ],
          [
            34.770238,
            32.0854
          ],
          [
            34.770311,
            32.085381
          ],
          [
            34.770524,
            32.085312
          ],
          [
            34.771414,
            32.085068
          ],
          [
            34.771618,
            32.085022
          ],
          [
            34.772413,
            32.084797
          ],
          [
            34.773575,
            32.0845
          ],
          [
            34.774269,
            32.084302
          ],
          [
            34.774619,
            32.084206
          ],
          [
            34.774937,
            32.08408
          ],
          [
            34.7755,
            32.083823
          ],
          [
            34.775796,
            32.083678
          ],
          [
            34.776223,
            32.083444
          ],
          [
            34.776809,
            32.08311
          ],
          [
            34.777137,
            32.082929
          ],
          [
            34.777332,
            32.082822
          ],
          [
            34.777852,
            32.082528
          ],
          [
            34.777957,
            32.082468
          ],
          [
            34.778522,
            32.082132
          ],
          [
            34.778889,
            32.081874
          ],
          [
            34.779116,
            32.081752
          ],
          [
            34.779343,
            32.081602
          ],
          [
            34.779492,
            32.08153
          ],
          [
            34.779589,
            32.081494
          ],
          [
            34.779738,
            32.081478
          ],
          [
            34.779912,
            32.081476
          ],
          [
            34.78002,
            32.081474
          ],
          [
            34.780163,
            32.081476
          ],
          [
            34.781062,
            32.081472
          ],
          [
            34.781211,
            32.081472
          ],
          [
            34.781366,
            32.081516
          ],
          [
            34.781462,
            32.081512
          ],
          [
            34.78169,
            32.081518
          ],
          [
            34.781875,
            32.08154
          ],
          [
            34.782007,
            32.081567
          ],
          [
            34.782551,
            32.081734
          ],
          [
            34.783007,
            32.081985
          ],
          [
            34.784024,
            32.082782
          ],
          [
            34.785321,
            32.083821
          ],
          [
            34.785434,
            32.083942
          ],
          [
            34.785545,
            32.084105
          ],
          [
            34.7857,
            32.08442
          ],
          [
            34.786063,
            32.084355
          ],
          [
            34.786462,
            32.084259
          ],
          [
            34.787257,
            32.084071
          ],
          [
            34.788155,
            32.083858
          ],
          [
            34.789068,
            32.083632
          ],
          [
            34.789189,
            32.083602
          ],
          [
            34.789528,
            32.083519
          ],
          [
            34.789768,
            32.083469
          ],
          [
            34.790752,
            32.083265
          ],
          [
            34.791535,
            32.083102
          ],
          [
            34.791739,
            32.08306
          ],
          [
            34.792148,
            32.082981
          ],
          [
            34.792597,
            32.08291
          ],
          [
            34.793652,
            32.08273
          ],
          [
            34.794078,
            32.082655
          ],
          [
            34.794514,
            32.082568
          ],
          [
            34.794662,
            32.082546
          ],
          [
            34.794792,
            32.082522
          ],
          [
            34.794866,
            32.0825
          ],
          [
            34.794931,
            32.082476
          ],
          [
            34.795073,
            32.082416
          ],
          [
            34.795154,
            32.082383
          ],
          [
            34.795258,
            32.082338
          ],
          [
            34.795371,
            32.082284
          ],
          [
            34.795502,
            32.082194
          ],
          [
            34.795872,
            32.081904
          ],
          [
            34.795965,
            32.081829
          ],
          [
            34.79608,
            32.08173
          ],
          [
            34.796122,
            32.081689
          ],
          [
            34.796297,
            32.08152
          ],
          [
            34.796526,
            32.081271
          ],
          [
            34.796773,
            32.081002
          ],
          [
            34.796842,
            32.080929
          ],
          [
            34.796954,
            32.080806
          ],
          [
            34.79707,
            32.080866
          ],
          [
            34.797279,
            32.080992
          ],
          [
            34.79739,
            32.081053
          ],
          [
            34.797482,
            32.081103
          ],
          [
            34.797893,
            32.081316
          ],
          [
            34.79822,
            32.0815
          ],
          [
            34.798821,
            32.081806
          ],
          [
            34.799092,
            32.081938
          ],
          [
            34.79952,
            32.082116
          ],
          [
            34.799808,
            32.082233
          ],
          [
            34.799994,
            32.08231
          ],
          [
            34.8002,
            32.08241
          ],
          [
            34.80070978921923,
            32.082577301960264
          ]
        ]
      }
    },
    {
      "type": "Feature",
      "properties": {
        "type": "original_route_stop",
        "stop_code": "25364",
        "stop_name": "הכובשים/דניאל",
        "marker-color": "#2ca02c",
        "marker-symbol": "bus",
        "marker-size": "medium"
      },
      "geometry": {
        "type": "Point",
        "coordinates": [
          34.765534,
          32.068527
        ]
      }
    },
    {
      "type": "Feature",
      "properties": {
        "type": "original_route_stop",
        "stop_code": "25365",
        "stop_name": "הירקון/עזרא הסופר",
        "marker-color": "#2ca02c",
        "marker-symbol": "bus",
        "marker-size": "medium"
      },
      "geometry": {
        "type": "Point",
        "coordinates": [
          34.764907,
          32.070195
        ]
      }
    },
    {
      "type": "Feature",
      "properties": {
        "type": "original_route_stop",
        "stop_code": "20095",
        "stop_name": "הירקון/יונה הנביא",
        "marker-color": "#2ca02c",
        "marker-symbol": "bus",
        "marker-size": "medium"
      },
      "geometry": {
        "type": "Point",
        "coordinates": [
          34.76607,
          32.073094
        ]
      }
    },
    {
      "type": "Feature",
      "properties": {
        "type": "original_route_stop",
        "stop_code": "20657",
        "stop_name": "הירקון/טרומפלדור",
        "marker-color": "#2ca02c",
        "marker-symbol": "bus",
        "marker-size": "medium"
      },
      "geometry": {
        "type": "Point",
        "coordinates": [
          34.766633,
          32.07536
        ]
      }
    },
    {
      "type": "Feature",
      "properties": {
        "type": "original_route_stop",
        "stop_code": "20661",
        "stop_name": "חוף בוגרשוב/הירקון",
        "marker-color": "#2ca02c",
        "marker-symbol": "bus",
        "marker-size": "medium"
      },
      "geometry": {
        "type": "Point",
        "coordinates": [
          34.767699,
          32.078377
        ]
      }
    },
    {
      "type": "Feature",
      "properties": {
        "type": "original_route_stop",
        "stop_code": "20655",
        "stop_name": "חוף פרישמן",
        "marker-color": "#2ca02c",
        "marker-symbol": "bus",
        "marker-size": "medium"
      },
      "geometry": {
        "type": "Point",
        "coordinates": [
          34.768444,
          32.080415
        ]
      }
    },
    {
      "type": "Feature",
      "properties": {
        "type": "original_route_stop",
        "stop_code": "2965",
        "stop_name": "חוף גורדון",
        "marker-color": "#2ca02c",
        "marker-symbol": "bus",
        "marker-size": "medium"
      },
      "geometry": {
        "type": "Point",
        "coordinates": [
          34.768527,
          32.081934
        ]
      }
    },
    {
      "type": "Feature",
      "properties": {
        "type": "original_route_stop",
        "stop_code": "25882",
        "stop_name": "ארלוזורוב/ויצמן",
        "marker-color": "#2ca02c",
        "marker-symbol": "bus",
        "marker-size": "medium"
      },
      "geometry": {
        "type": "Point",
        "coordinates": [
          34.790102,
          32.083353
        ]
      }
    },
    {
      "type": "Feature",
      "properties": {
        "type": "original_route_stop",
        "stop_code": "21035",
        "stop_name": "ארלוזורוב/דרך נמיר",
        "marker-color": "#2ca02c",
        "marker-symbol": "bus",
        "marker-size": "medium"
      },
      "geometry": {
        "type": "Point",
        "coordinates": [
          34.793207,
          32.08276
        ]
      }
    },
    {
      "type": "Feature",
      "properties": {
        "type": "original_route_stop",
        "stop_code": "21140",
        "stop_name": "ת. רכבת תל אביב סבידור/על פרשת דרכים",
        "marker-color": "#2ca02c",
        "marker-symbol": "bus",
        "marker-size": "medium"
      },
      "geometry": {
        "type": "Point",
        "coordinates": [
          34.795464,
          32.082162
        ]
      }
    },
    {
      "type": "Feature",
      "properties": {
        "type": "original_route_stop",
        "stop_code": "28665",
        "stop_name": "הבורסה/דרך ז'בוטינסקי",
        "marker-color": "#2ca02c",
        "marker-symbol": "bus",
        "marker-size": "medium"
      },
      "geometry": {
        "type": "Point",
        "coordinates": [
          34.800724,
          32.082534
        ]
      }
    },
    {
      "type": "Feature",
      "properties": {
        "type": "cancelled_stop",
        "stop_code": "20846",
        "stop_name": "שדרות בן גוריון/בן יהודה",
        "marker-color": "#ff0000",
        "marker-symbol": "bus",
        "marker-size": "medium"
      },
      "geometry": {
        "type": "Point",
        "coordinates": [
          34.771646,
          32.084966
        ]
      }
    },
    {
      "type": "Feature",
      "properties": {
        "type": "cancelled_stop",
        "stop_code": "25786",
        "stop_name": "שד' בן גוריון/דיזנגוף",
        "marker-color": "#ff0000",
        "marker-symbol": "bus",
        "marker-size": "medium"
      },
      "geometry": {
        "type": "Point",
        "coordinates": [
          34.775011,
          32.083995
        ]
      }
    },
    {
      "type": "Feature",
      "properties": {
        "type": "cancelled_stop",
        "stop_code": "20551",
        "stop_name": "מנהלי הנדסה ובת''ש/שד' בן גוריון",
        "marker-color": "#ff0000",
        "marker-symbol": "bus",
        "marker-size": "medium"
      },
      "geometry": {
        "type": "Point",
        "coordinates": [
          34.777038,
          32.08293
        ]
      }
    },
    {
      "type": "Feature",
      "properties": {
        "type": "cancelled_stop",
        "stop_code": "25820",
        "stop_name": "עיריית תל אביב - יפו/בלוך",
        "marker-color": "#ff0000",
        "marker-symbol": "bus",
        "marker-size": "medium"
      },
      "geometry": {
        "type": "Point",
        "coordinates": [
          34.782285,
          32.081605
        ]
      }
    },
    {
      "type": "Feature",
      "properties": {
        "type": "new_stop",
        "stop_code": "21104",
        "stop_name": "הירקון/ארלוזורוב",
        "marker-color": "#1f9ed6",
        "marker-symbol": "bus",
        "marker-size": "medium"
      },
      "geometry": {
        "type": "Point",
        "coordinates": [
          34.771282,
          32.087939
        ]
      }
    },
    {
      "type": "Feature",
      "properties": {
        "type": "new_stop",
        "stop_code": "20651",
        "stop_name": "ז'בוטינסקי/בן יהודה",
        "marker-color": "#1f9ed6",
        "marker-symbol": "bus",
        "marker-size": "medium"
      },
      "geometry": {
        "type": "Point",
        "coordinates": [
          34.773341,
          32.08959
        ]
      }
    },
    {
      "type": "Feature",
      "properties": {
        "type": "new_stop",
        "stop_code": "25831",
        "stop_name": "ז'בוטינסקי/דיזנגוף",
        "marker-color": "#1f9ed6",
        "marker-symbol": "bus",
        "marker-size": "medium"
      },
      "geometry": {
        "type": "Point",
        "coordinates": [
          34.776546,
          32.089066
        ]
      }
    },
    {
      "type": "Feature",
      "properties": {
        "type": "new_stop",
        "stop_code": "25835",
        "stop_name": "ז'בוטינסקי/ארבע ארצות",
        "marker-color": "#1f9ed6",
        "marker-symbol": "bus",
        "marker-size": "medium"
      },
      "geometry": {
        "type": "Point",
        "coordinates": [
          34.778994,
          32.088678
        ]
      }
    },
    {
      "type": "Feature",
      "properties": {
        "type": "new_stop",
        "stop_code": "25848",
        "stop_name": "ז'בוטינסקי/אבן גבירול",
        "marker-color": "#1f9ed6",
        "marker-symbol": "bus",
        "marker-size": "medium"
      },
      "geometry": {
        "type": "Point",
        "coordinates": [
          34.781185,
          32.088285
        ]
      }
    },
    {
      "type": "Feature",
      "properties": {
        "type": "new_stop",
        "stop_code": "25877",
        "stop_name": "גימנסיה הרצליה/ז'בוטינסקי",
        "marker-color": "#1f9ed6",
        "marker-symbol": "bus",
        "marker-size": "medium"
      },
      "geometry": {
        "type": "Point",
        "coordinates": [
          34.784929,
          32.087558
        ]
      }
    },
    {
      "type": "Feature",
      "properties": {
        "type": "reported_block_stop",
        "stop_code": "25786",
        "stop_name": "שד' בן גוריון/דיזנגוף",
        "marker-color": "#ff8800",
        "marker-symbol": "bus",
        "marker-size": "medium"
      },
      "geometry": {
        "type": "Point",
        "coordinates": [
          34.775011,
          32.083995
        ]
      }
    },
    {
      "type": "Feature",
      "properties": {
        "type": "reported_block_stop",
        "stop_code": "20551",
        "stop_name": "מנהלי הנדסה ובת''ש/שד' בן גוריון",
        "marker-color": "#ff8800",
        "marker-symbol": "bus",
        "marker-size": "medium"
      },
      "geometry": {
        "type": "Point",
        "coordinates": [
          34.777038,
          32.08293
        ]
      }
    },
    {
      "type": "Feature",
      "properties": {
        "type": "deviate_from_stop",
        "stop_code": "20654",
        "stop_name": "הירקון/שדרות בן גוריון",
        "marker-color": "#8000ff",
        "marker-symbol": "bus",
        "marker-size": "medium"
      },
      "geometry": {
        "type": "Point",
        "coordinates": [
          34.769531,
          32.084191
        ]
      }
    },
    {
      "type": "Feature",
      "properties": {
        "type": "deviate_to_stop",
        "stop_code": "25876",
        "stop_name": "ארלוזורוב/בלוך",
        "marker-color": "#8000ff",
        "marker-symbol": "bus",
        "marker-size": "medium"
      },
      "geometry": {
        "type": "Point",
        "coordinates": [
          34.786407,
          32.084226
        ]
      }
    }
  ]
}