{
  "type": "FeatureCollection",
  "features": [
    {
      "type": "Feature",
      "properties": {
        "type": "deviation_path_edge",
        "from_stop_code": "25823",
        "to_stop_code": "21516",
        "stroke": "#00bcd4",
        "stroke-width": 3,
        "stroke-opacity": 0.95
      },
      "geometry": {
        "type": "LineString",
        "coordinates": [
          [
            34.7812291951914,
            32.08290821385638
          ],
          [
            34.781201,
            32.082649
          ],
          [
            34.781195,
            32.082269
          ],
          [
            34.7812,
            32.082153
          ],
          [
            34.781209,
            32.081571
          ],
          [
            34.781211,
            32.081472
          ],
          [
            34.781206,
            32.081398
          ],
          [
            34.781192,
            32.080911
          ],
          [
            34.781177,
            32.080353
          ],
          [
            34.781176,
            32.079803
          ],
          [
            34.781183,
            32.079559
          ],
          [
            34.781185,
            32.079462
          ],
          [
            34.78121519462293,
            32.078798420496064
          ]
        ]
      }
    },
    {
      "type": "Feature",
      "properties": {
        "type": "deviation_path_edge",
        "from_stop_code": "21516",
        "to_stop_code": "21100",
        "stroke": "#00bcd4",
        "stroke-width": 3,
        "stroke-opacity": 0.95
      },
      "geometry": {
        "type": "LineString",
        "coordinates": [
          [
            34.78121519462293,
            32.078798420496064
          ],
          [
            34.781228,
            32.078517
          ],
          [
            34.781218,
            32.078156
          ],
          [
            34.781236,
            32.07782
          ],
          [
            34.781243,
            32.077519
          ],
          [
            34.781436,
            32.076229
          ],
          [
            34.781505,
            32.075898
          ],
          [
            34.7816,
            32.07551
          ],
          [
            34.781711,
            32.075477
          ],
          [
            34.781786,
            32.07548
          ],
          [
            34.782021,
            32.075487
          ],
          [
            34.782023,
            32.075488
          ],
          [
            34.78281873233984,
            32.07551027822057
          ]
        ]
      }
    },
    {
      "type": "Feature",
      "properties": {
        "type": "deviation_path_edge",
        "from_stop_code": "21100",
        "to_stop_code": "25722",
        "stroke": "#00bcd4",
        "stroke-width": 3,
        "stroke-opacity": 0.95
      },
      "geometry": {
        "type": "LineString",
        "coordinates": [
          [
            34.78281873233984,
            32.07551027822057
          ],
          [
            34.783416,
            32.075527
          ],
          [
            34.783452,
            32.075527
          ],
          [
            34.783514,
            32.075526
          ],
          [
            34.783725,
            32.07554
          ],
          [
            34.784173,
            32.075585
          ],
          [
            34.784352,
            32.075601
          ],
          [
            34.78445,
            32.075611
          ],
          [
            34.784758,
            32.075663
          ],
          [
            34.784780562363245,
            32.075667297593
          ]
        ]
      }
    },
    {
      "type": "Feature",
      "properties": {
        "type": "deviation_path_edge",
        "from_stop_code": "25722",
        "to_stop_code": "21238",
        "stroke": "#00bcd4",
        "stroke-width": 3,
        "stroke-opacity": 0.95
      },
      "geometry": {
        "type": "LineString",
        "coordinates": [
          [
            34.784780562363245,
            32.075667297593
          ],
          [
            34.785346,
            32.075775
          ],
          [
            34.785658,
            32.075853
          ],
          [
            34.786185,
            32.076003
          ],
          [
            34.786806,
            32.076215
          ],
          [
            34.787131,
            32.07632
          ],
          [
            34.787498,
            32.076454
          ],
          [
            34.787752,
            32.076547
          ],
          [
            34.788822,
            32.07691
          ],
          [
            34.788917,
            32.076942
          ],
          [
            34.788872,
            32.07703
          ],
          [
            34.788841,
            32.07709
          ],
          [
            34.788824,
            32.077123
          ],
          [
            34.788766,
            32.077241
          ],
          [
            34.788615,
            32.077552
          ],
          [
            34.788496,
            32.077826
          ],
          [
            34.78848,
            32.077917
          ],
          [
            34.788463,
            32.078012
          ],
          [
            34.788459,
            32.078216
          ],
          [
            34.78847,
            32.078357
          ],
          [
            34.788487,
            32.078593
          ],
          [
            34.788491,
            32.078616
          ],
          [
            34.78852824595345,
            32.07887556973745
          ]
        ]
      }
    },
    {
      "type": "Feature",
      "properties": {
        "type": "deviation_path_edge",
        "from_stop_code": "21238",
        "to_stop_code": "21815",
        "stroke": "#00bcd4",
        "stroke-width": 3,
        "stroke-opacity": 0.95
      },
      "geometry": {
        "type": "LineString",
        "coordinates": [
          [
            34.78852824595345,
            32.07887556973745
          ],
          [
            34.788588,
            32.079292
          ],
          [
            34.788653,
            32.079761
          ],
          [
            34.788675,
            32.079916
          ],
          [
            34.788761,
            32.080429
          ],
          [
            34.788821,
            32.080791
          ],
          [
            34.788826019890365,
            32.080824047611586
          ]
        ]
      }
    },
    {
      "type": "Feature",
      "properties": {
        "type": "original_route_shape",
        "shape_id": "164857",
        "stroke": "#1f2a7a",
        "stroke-width": 3,
        "stroke-opacity": 0.85
      },
      "geometry": {
        "type": "LineString",
        "coordinates": [
          [
            34.779473107888286,
            32.09882605164135
          ],
          [
            34.779521,
            32.098827
          ],
          [
            34.779565,
            32.098811
          ],
          [
            34.779634,
            32.098802
          ],
          [
            34.779658,
            32.098802
          ],
          [
            34.779724,
            32.098807
          ],
          [
            34.779793,
            32.098791
          ],
          [
            34.779812,
            32.098781
          ],
          [
            34.779853,
            32.098753
          ],
          [
            34.779814,
            32.098638
          ],
          [
            34.779792,
            32.098594
          ],
          [
            34.779758,
            32.098569
          ],
          [
            34.779627,
            32.098504
          ],
          [
            34.779344,
            32.098458
          ],
          [
            34.779294,
            32.09845
          ],
          [
            34.779003,
            32.09839
          ],
          [
            34.778991,
            32.098388
          ],
          [
            34.778766,
            32.098327
          ],
          [
            34.778659,
            32.098299
          ],
          [
            34.77831,
            32.098187
          ],
          [
            34.778117,
            32.098127
          ],
          [
            34.777811,
            32.098026
          ],
          [
            34.777692,
            32.097987
          ],
          [
            34.777664,
            32.097979
          ],
          [
            34.777105,
            32.097775
          ],
          [
            34.776943,
            32.097715
          ],
          [
            34.776868,
            32.097688
          ],
          [
            34.776376,
            32.097509
          ],
          [
            34.776158,
            32.097425
          ],
          [
            34.775903,
            32.097328
          ],
          [
            34.775584,
            32.097213
          ],
          [
            34.775188,
            32.097078
          ],
          [
            34.775089,
            32.097043
          ],
          [
            34.775001,
            32.09701
          ],
          [
            34.774793,
            32.096901
          ],
          [
            34.774691,
            32.096796
          ],
          [
            34.77467,
            32.096762
          ],
          [
            34.774617,
            32.096585
          ],
          [
            34.774564,
            32.096376
          ],
          [
            34.774557,
            32.096234
          ],
          [
            34.774409,
            32.095676
          ],
          [
            34.774391,
            32.095586
          ],
          [
            34.774329,
            32.095338
          ],
          [
            34.774197,
            32.095005
          ],
          [
            34.774073,
            32.094661
          ],
          [
            34.773955,
            32.094332
          ],
          [
            34.773805,
            32.094035
          ],
          [
            34.773712,
            32.093846
          ],
          [
            34.77347,
            32.093237
          ],
          [
            34.773289,
            32.092738
          ],
          [
            34.773179,
            32.09246
          ],
          [
            34.773129,
            32.092326
          ],
          [
            34.773044,
            32.092069
          ],
          [
            34.772934,
            32.091758
          ],
          [
            34.772899,
            32.091654
          ],
          [
            34.772744,
            32.09119
          ],
          [
            34.772246,
            32.08982
          ],
          [
            34.772338,
            32.089804
          ],
          [
            34.773041,
            32.089684
          ],
          [
            34.77384,
            32.089556
          ],
          [
            34.774414,
            32.089475
          ],
          [
            34.774686,
            32.08943
          ],
          [
            34.774934,
            32.089382
          ],
          [
            34.775517,
            32.089277
          ],
          [
            34.776237,
            32.089154
          ],
          [
            34.776988,
            32.089052
          ],
          [
            34.777666,
            32.088931
          ],
          [
            34.778377,
            32.088821
          ],
          [
            34.779392,
            32.088661
          ],
          [
            34.779728,
            32.088608
          ],
          [
            34.780345,
            32.08848
          ],
          [
            34.781246,
            32.08832
          ],
          [
            34.781474,
            32.088285
          ],
          [
            34.7822,
            32.088171
          ],
          [
            34.782274,
            32.08816
          ],
          [
            34.782199,
            32.08777
          ],
          [
            34.782112,
            32.087365
          ],
          [
            34.781985,
            32.086723
          ],
          [
            34.781953,
            32.086537
          ],
          [
            34.781924,
            32.086396
          ],
          [
            34.781775,
            32.085608
          ],
          [
            34.781704,
            32.085307
          ],
          [
            34.781629,
            32.084964
          ],
          [
            34.78157,
            32.084636
          ],
          [
            34.781531,
            32.084464
          ],
          [
            34.781263,
            32.083214
          ],
          [
            34.781232,
            32.082934
          ],
          [
            34.781201,
            32.082649
          ],
          [
            34.781195,
            32.082269
          ],
          [
            34.7812,
            32.082147
          ],
          [
            34.781209,
            32.081571
          ],
          [
            34.781211,
            32.081472
          ],
          [
            34.781201,
            32.081398
          ],
          [
            34.781206,
            32.081398
          ],
          [
            34.781192,
            32.080911
          ],
          [
            34.781177,
            32.080353
          ],
          [
            34.781354,
            32.080341
          ],
          [
            34.781425,
            32.080336
          ],
          [
            34.782036,
            32.080293
          ],
          [
            34.783392,
            32.080182
          ],
          [
            34.784542,
            32.080079
          ],
          [
            34.78495,
            32.080055
          ],
          [
            34.785172,
            32.080042
          ],
          [
            34.78563,
            32.08
          ],
          [
            34.786155,
            32.079968
          ],
          [
            34.786808,
            32.079914
          ],
          [
            34.786953,
            32.079902
          ],
          [
            34.78802,
            32.079813
          ],
          [
            34.788556,
            32.079769
          ],
          [
            34.788653,
            32.079761
          ],
          [
            34.788675,
            32.079916
          ],
          [
            34.788697,
            32.080046
          ],
          [
            34.788725,
            32.080215
          ],
          [
            34.788761,
            32.080429
          ],
          [
            34.788799,
            32.080658
          ],
          [
            34.788821,
            32.080791
          ],
          [
            34.788857,
            32.081028
          ],
          [
            34.788869,
            32.081114
          ],
          [
            34.78888,
            32.081185
          ],
          [
            34.788901,
            32.081323
          ],
          [
            34.78893,
            32.081556
          ],
          [
            34.788971,
            32.081863
          ],
          [
            34.789023,
            32.082197
          ],
          [
            34.789025,
            32.082221
          ],
          [
            34.789073,
            32.08262
          ],
          [
            34.789093,
            32.082793
          ],
          [
            34.789159,
            32.083359
          ],
          [
            34.789223,
            32.083458
          ],
          [
            34.789264,
            32.083493
          ],
          [
            34.789291,
            32.083507
          ],
          [
            34.789303,
            32.083513
          ],
          [
            34.789328,
            32.083522
          ],
          [
            34.789371,
            32.083526
          ],
          [
            34.789528,
            32.083519
          ],
          [
            34.789768,
            32.083469
          ],
          [
            34.790752,
            32.083265
          ],
          [
            34.791535,
            32.083102
          ],
          [
            34.791739,
            32.08306
          ],
          [
            34.792148,
            32.082981
          ],
          [
            34.792597,
            32.08291
          ],
          [
            34.793652,
            32.08273
          ],
          [
            34.794078,
            32.082655
          ],
          [
            34.794514,
            32.082568
          ],
          [
            34.794662,
            32.082546
          ],
          [
            34.794792,
            32.082522
          ],
          [
            34.794866,
            32.0825
          ],
          [
            34.794931,
            32.082476
          ],
          [
            34.795073,
            32.082416
          ],
          [
            34.795154,
            32.082383
          ],
          [
            34.795258,
            32.082338
          ],
          [
            34.795371,
            32.082284
          ],
          [
            34.795502,
            32.082194
          ],
          [
            34.795872,
            32.081904
          ],
          [
            34.795965,
            32.081829
          ],
          [
            34.79608,
            32.08173
          ],
          [
            34.796122,
            32.081689
          ],
          [
            34.796297,
            32.08152
          ],
          [
            34.796526,
            32.081271
          ],
          [
            34.796773,
            32.081002
          ],
          [
            34.796842,
            32.080929
          ],
          [
            34.796954,
            32.080806
          ],
          [
            34.797092,
            32.080676
          ],
          [
            34.797111,
            32.080658
          ],
          [
            34.797203,
            32.080591
          ],
          [
            34.797261,
            32.08055
          ],
          [
            34.797794,
            32.080131
          ],
          [
            34.797814,
            32.080117
          ],
          [
            34.798538,
            32.079602
          ],
          [
            34.798814,
            32.079419
          ],
          [
            34.798903,
            32.07936
          ],
          [
            34.799146,
            32.079215
          ],
          [
            34.799221,
            32.079177
          ],
          [
            34.799708,
            32.078934
          ],
          [
            34.800271,
            32.07863
          ],
          [
            34.800698,
            32.078414
          ],
          [
            34.80077485213941,
            32.078374271351656
          ]
        ]
      }
    },
    {
      "type": "Feature",
      "properties": {
        "type": "original_route_stop",
        "stop_code": "20277",
        "stop_name": "מסוף רדינג/רציפים",
        "marker-color": "#2ca02c",
        "marker-symbol": "bus",
        "marker-size": "medium"
      },
      "geometry": {
        "type": "Point",
        "coordinates": [
          34.779474,
          32.098781
        ]
      }
    },
    {
      "type": "Feature",
      "properties": {
        "type": "original_route_stop",
        "stop_code": "25803",
        "stop_name": "נמל תל אביב/הירקון",
        "marker-color": "#2ca02c",
        "marker-symbol": "bus",
        "marker-size": "medium"
      },
      "geometry": {
        "type": "Point",
        "coordinates": [
          34.774431,
          32.095964
        ]
      }
    },
    {
      "type": "Feature",
      "properties": {
        "type": "original_route_stop",
        "stop_code": "25801",
        "stop_name": "הירקון/שד' נורדאו",
        "marker-color": "#2ca02c",
        "marker-symbol": "bus",
        "marker-size": "medium"
      },
      "geometry": {
        "type": "Point",
        "coordinates": [
          34.773014,
          32.092146
        ]
      }
    },
    {
      "type": "Feature",
      "properties": {
        "type": "original_route_stop",
        "stop_code": "20651",
        "stop_name": "ז'בוטינסקי/בן יהודה",
        "marker-color": "#2ca02c",
        "marker-symbol": "bus",
        "marker-size": "medium"
      },
      "geometry": {
        "type": "Point",
        "coordinates": [
          34.773341,
          32.08959
        ]
      }
    },
    {
      "type": "Feature",
      "properties": {
        "type": "original_route_stop",
        "stop_code": "25831",
        "stop_name": "ז'בוטינסקי/דיזנגוף",
        "marker-color": "#2ca02c",
        "marker-symbol": "bus",
        "marker-size": "medium"
      },
      "geometry": {
        "type": "Point",
        "coordinates": [
          34.776546,
          32.089066
        ]
      }
    },
    {
      "type": "Feature",
      "properties": {
        "type": "original_route_stop",
        "stop_code": "25835",
        "stop_name": "ז'בוטינסקי/ארבע ארצות",
        "marker-color": "#2ca02c",
        "marker-symbol": "bus",
        "marker-size": "medium"
      },
      "geometry": {
        "type": "Point",
        "coordinates": [
          34.778994,
          32.088678
        ]
      }
    },
    {
      "type": "Feature",
      "properties": {
        "type": "original_route_stop",
        "stop_code": "25848",
        "stop_name": "ז'בוטינסקי/אבן גבירול",
        "marker-color": "#2ca02c",
        "marker-symbol": "bus",
        "marker-size": "medium"
      },
      "geometry": {
        "type": "Point",
        "coordinates": [
          34.781185,
          32.088285
        ]
      }
    },
    {
      "type": "Feature",
      "properties": {
        "type": "original_route_stop",
        "stop_code": "20699",
        "stop_name": "אבן גבירול/ארלוזורוב",
        "marker-color": "#2ca02c",
        "marker-symbol": "bus",
        "marker-size": "medium"
      },
      "geometry": {
        "type": "Point",
        "coordinates": [
          34.781547,
          32.084806
        ]
      }
    },
    {
      "type": "Feature",
      "properties": {
        "type": "original_route_stop",
        "stop_code": "25882",
        "stop_name": "ארלוזורוב/ויצמן",
        "marker-color": "#2ca02c",
        "marker-symbol": "bus",
        "marker-size": "medium"
      },
      "geometry": {
        "type": "Point",
        "coordinates": [
          34.790102,
          32.083353
        ]
      }
    },
    {
      "type": "Feature",
      "properties": {
        "type": "original_route_stop",
        "stop_code": "21035",
        "stop_name": "ארלוזורוב/דרך נמיר",
        "marker-color": "#2ca02c",
        "marker-symbol": "bus",
        "marker-size": "medium"
      },
      "geometry": {
        "type": "Point",
        "coordinates": [
          34.793207,
          32.08276
        ]
      }
    },
    {
      "type": "Feature",
      "properties": {
        "type": "original_route_stop",
        "stop_code": "21140",
        "stop_name": "ת. רכבת תל אביב סבידור/על פרשת דרכים",
        "marker-color": "#2ca02c",
        "marker-symbol": "bus",
        "marker-size": "medium"
      },
      "geometry": {
        "type": "Point",
        "coordinates": [
          34.795464,
          32.082162
        ]
      }
    },
    {
      "type": "Feature",
      "properties": {
        "type": "original_route_stop",
        "stop_code": "20017",
        "stop_name": "גשר דוד שיפמן /דרך מנחם בגין",
        "marker-color": "#2ca02c",
        "marker-symbol": "bus",
        "marker-size": "medium"
      },
      "geometry": {
        "type": "Point",
        "coordinates": [
          34.797359,
          32.080412
        ]
      }
    },
    {
      "type": "Feature",
      "properties": {
        "type": "original_route_stop",
        "stop_code": "21126",
        "stop_name": "ערבי נחל/בורוכוב",
        "marker-color": "#2ca02c",
        "marker-symbol": "bus",
        "marker-size": "medium"
      },
      "geometry": {
        "type": "Point",
        "coordinates": [
          34.800753,
          32.078332
        ]
      }
    },
    {
      "type": "Feature",
      "properties": {
        "type": "cancelled_stop",
        "stop_code": "21136",
        "stop_name": "רבנות תל אביב/שד' דוד המלך",
        "marker-color": "#ff0000",
        "marker-symbol": "bus",
        "marker-size": "medium"
      },
      "geometry": {
        "type": "Point",
        "coordinates": [
          34.784509,
          32.080036
        ]
      }
    },
    {
      "type": "Feature",
      "properties": {
        "type": "cancelled_stop",
        "stop_code": "21000",
        "stop_name": "ביה''ח איכילוב/שד' דוד המלך",
        "marker-color": "#ff0000",
        "marker-symbol": "bus",
        "marker-size": "medium"
      },
      "geometry": {
        "type": "Point",
        "coordinates": [
          34.787792,
          32.079787
        ]
      }
    },
    {
      "type": "Feature",
      "properties": {
        "type": "new_stop",
        "stop_code": "21516",
        "stop_name": "כיכר רבין/אבן גבירול",
        "marker-color": "#1f9ed6",
        "marker-symbol": "bus",
        "marker-size": "medium"
      },
      "geometry": {
        "type": "Point",
        "coordinates": [
          34.781162,
          32.078796
        ]
      }
    },
    {
      "type": "Feature",
      "properties": {
        "type": "new_stop",
        "stop_code": "21100",
        "stop_name": "לונדון מיניסטור/שד' שאול המלך",
        "marker-color": "#1f9ed6",
        "marker-symbol": "bus",
        "marker-size": "medium"
      },
      "geometry": {
        "type": "Point",
        "coordinates": [
          34.78282,
          32.075465
        ]
      }
    },
    {
      "type": "Feature",
      "properties": {
        "type": "new_stop",
        "stop_code": "25722",
        "stop_name": "האופרה/שד' שאול המלך",
        "marker-color": "#1f9ed6",
        "marker-symbol": "bus",
        "marker-size": "medium"
      },
      "geometry": {
        "type": "Point",
        "coordinates": [
          34.784789,
          32.075623
        ]
      }
    },
    {
      "type": "Feature",
      "properties": {
        "type": "new_stop",
        "stop_code": "21238",
        "stop_name": "בית המשפט/ויצמן",
        "marker-color": "#1f9ed6",
        "marker-symbol": "bus",
        "marker-size": "medium"
      },
      "geometry": {
        "type": "Point",
        "coordinates": [
          34.788581,
          32.078868
        ]
      }
    },
    {
      "type": "Feature",
      "properties": {
        "type": "reported_block_stop",
        "stop_code": "21136",
        "stop_name": "רבנות תל אביב/שד' דוד המלך",
        "marker-color": "#ff8800",
        "marker-symbol": "bus",
        "marker-size": "medium"
      },
      "geometry": {
        "type": "Point",
        "coordinates": [
          34.784509,
          32.080036
        ]
      }
    },
    {
      "type": "Feature",
      "properties": {
        "type": "reported_block_stop",
        "stop_code": "21000",
        "stop_name": "ביה''ח איכילוב/שד' דוד המלך",
        "marker-color": "#ff8800",
        "marker-symbol": "bus",
        "marker-size": "medium"
      },
      "geometry": {
        "type": "Point",
        "coordinates": [
          34.787792,
          32.079787
        ]
      }
    },
    {
      "type": "Feature",
      "properties": {
        "type": "deviate_from_stop",
        "stop_code": "25823",
        "stop_name": "עיריית תל אביב - יפו/אבן גבירול",
        "marker-color": "#8000ff",
        "marker-symbol": "bus",
        "marker-size": "medium"
      },
      "geometry": {
        "type": "Point",
        "coordinates": [
          34.781176,
          32.082914
        ]
      }
    },
    {
      "type": "Feature",
      "properties": {
        "type": "deviate_to_stop",
        "stop_code": "21815",
        "stop_name": "ביה''ח איכילוב/ויצמן",
        "marker-color": "#8000ff",
        "marker-symbol": "bus",
        "marker-size": "medium"
      },
      "geometry": {
        "type": "Point",
        "coordinates": [
          34.788879,
          32.080816
        ]
      }
    }
  ]
}