{
  "type": "FeatureCollection",
  "features": [
    {
      "type": "Feature",
      "properties": {
        "type": "deviation_path_edge",
        "from_stop_code": "20168",
        "to_stop_code": "21229",
        "stroke": "#00bcd4",
        "stroke-width": 3,
        "stroke-opacity": 0.95
      },
      "geometry": {
        "type": "LineString",
        "coordinates": [
          [
            34.82229474300516,
            32.0860515276753
          ],
          [
            34.82219,
            32.085534
          ],
          [
            34.822151,
            32.085314
          ],
          [
            34.82208,
            32.084889
          ],
          [
            34.821738,
            32.084269
          ],
          [
            34.821427,
            32.083744
          ],
          [
            34.821364,
            32.083633
          ],
          [
            34.821131,
            32.083199
          ],
          [
            34.82111059067168,
            32.08316283543318
          ]
        ]
      }
    },
    {
      "type": "Feature",
      "properties": {
        "type": "deviation_path_edge",
        "from_stop_code": "21229",
        "to_stop_code": "22936",
        "stroke": "#00bcd4",
        "stroke-width": 3,
        "stroke-opacity": 0.95
      },
      "geometry": {
        "type": "LineString",
        "coordinates": [
          [
            34.82111059067168,
            32.08316283543318
          ],
          [
            34.820596,
            32.082251
          ],
          [
            34.82037,
            32.08175
          ],
          [
            34.820048,
            32.080679
          ],
          [
            34.819946,
            32.080381
          ],
          [
            34.819892,
            32.080176
          ],
          [
            34.81978995205538,
            32.07983696467985
          ]
        ]
      }
    },
    {
      "type": "Feature",
      "properties": {
        "type": "deviation_path_edge",
        "from_stop_code": "22936",
        "to_stop_code": "21748",
        "stroke": "#00bcd4",
        "stroke-width": 3,
        "stroke-opacity": 0.95
      },
      "geometry": {
        "type": "LineString",
        "coordinates": [
          [
            34.81978995205538,
            32.07983696467985
          ],
          [
            34.819771,
            32.079774
          ],
          [
            34.819667,
            32.079421
          ],
          [
            34.819772,
            32.079406
          ],
          [
            34.820033,
            32.079369
          ],
          [
            34.821356,
            32.079316
          ],
          [
            34.821768,
            32.079301
          ],
          [
            34.821811,
            32.0793
          ],
          [
            34.822924334806025,
            32.07926690880696
          ]
        ]
      }
    },
    {
      "type": "Feature",
      "properties": {
        "type": "deviation_path_edge",
        "from_stop_code": "21748",
        "to_stop_code": "21382",
        "stroke": "#00bcd4",
        "stroke-width": 3,
        "stroke-opacity": 0.95
      },
      "geometry": {
        "type": "LineString",
        "coordinates": [
          [
            34.822924334806025,
            32.07926690880696
          ],
          [
            34.823325,
            32.079255
          ],
          [
            34.823629,
            32.079243
          ],
          [
            34.824774,
            32.079204
          ],
          [
            34.824973652053835,
            32.07919231552865
          ]
        ]
      }
    },
    {
      "type": "Feature",
      "properties": {
        "type": "deviation_path_edge",
        "from_stop_code": "21382",
        "to_stop_code": "26229",
        "stroke": "#00bcd4",
        "stroke-width": 3,
        "stroke-opacity": 0.95
      },
      "geometry": {
        "type": "LineString",
        "coordinates": [
          [
            34.824973652053835,
            32.07919231552865
          ],
          [
            34.825167,
            32.079181
          ],
          [
            34.825262,
            32.079136
          ],
          [
            34.825331,
            32.079096
          ],
          [
            34.825371,
            32.079023
          ],
          [
            34.825365,
            32.078967
          ],
          [
            34.82529,
            32.07847
          ],
          [
            34.825273,
            32.078283
          ],
          [
            34.825267,
            32.078252
          ],
          [
            34.825259,
            32.078136
          ],
          [
            34.825264,
            32.077947
          ],
          [
            34.825216,
            32.077597
          ],
          [
            34.825213,
            32.077564
          ],
          [
            34.825204,
            32.077003
          ],
          [
            34.82519512475409,
            32.076895609524456
          ]
        ]
      }
    },
    {
      "type": "Feature",
      "properties": {
        "type": "original_route_shape",
        "shape_id": "159346",
        "stroke": "#1f2a7a",
        "stroke-width": 3,
        "stroke-opacity": 0.85
      },
      "geometry": {
        "type": "LineString",
        "coordinates": [
          [
            34.82769541665365,
            32.10361866770817
          ],
          [
            34.827697,
            32.103492
          ],
          [
            34.827703,
            32.103338
          ],
          [
            34.82771,
            32.103209
          ],
          [
            34.827735,
            32.102779
          ],
          [
            34.827754,
            32.102473
          ],
          [
            34.827759,
            32.102395
          ],
          [
            34.827777,
            32.102182
          ],
          [
            34.827809,
            32.10183
          ],
          [
            34.827819,
            32.10174
          ],
          [
            34.827857,
            32.1015
          ],
          [
            34.827894,
            32.10127
          ],
          [
            34.827975,
            32.100796
          ],
          [
            34.828029,
            32.100474
          ],
          [
            34.828049,
            32.100355
          ],
          [
            34.8281,
            32.100112
          ],
          [
            34.828337,
            32.099407
          ],
          [
            34.828324,
            32.09918
          ],
          [
            34.828304,
            32.099108
          ],
          [
            34.828257,
            32.099024
          ],
          [
            34.828233,
            32.099019
          ],
          [
            34.828042,
            32.098911
          ],
          [
            34.827055,
            32.098654
          ],
          [
            34.826576,
            32.09853
          ],
          [
            34.826249,
            32.098435
          ],
          [
            34.826112,
            32.098392
          ],
          [
            34.825824,
            32.098311
          ],
          [
            34.825488,
            32.098205
          ],
          [
            34.824714,
            32.097974
          ],
          [
            34.823564,
            32.097601
          ],
          [
            34.823116,
            32.097472
          ],
          [
            34.822185,
            32.097225
          ],
          [
            34.822045,
            32.097187
          ],
          [
            34.821851,
            32.097105
          ],
          [
            34.821705,
            32.097028
          ],
          [
            34.821588,
            32.096957
          ],
          [
            34.821386,
            32.096807
          ],
          [
            34.821463,
            32.096636
          ],
          [
            34.821631,
            32.096267
          ],
          [
            34.821734,
            32.095946
          ],
          [
            34.821751,
            32.09547
          ],
          [
            34.821796,
            32.095221
          ],
          [
            34.821807,
            32.095156
          ],
          [
            34.821964,
            32.094393
          ],
          [
            34.822025,
            32.094073
          ],
          [
            34.822077,
            32.093771
          ],
          [
            34.822089,
            32.093652
          ],
          [
            34.822277,
            32.092651
          ],
          [
            34.822331,
            32.092346
          ],
          [
            34.822358,
            32.092224
          ],
          [
            34.822419,
            32.091922
          ],
          [
            34.822581,
            32.091064
          ],
          [
            34.822581,
            32.09083
          ],
          [
            34.822581,
            32.090719
          ],
          [
            34.822585,
            32.090634
          ],
          [
            34.82259,
            32.090407
          ],
          [
            34.822582,
            32.090095
          ],
          [
            34.822593,
            32.089762
          ],
          [
            34.822593,
            32.089491
          ],
          [
            34.822574,
            32.089119
          ],
          [
            34.822591,
            32.088631
          ],
          [
            34.822579,
            32.088078
          ],
          [
            34.822584,
            32.087816
          ],
          [
            34.822583,
            32.087808
          ],
          [
            34.822427,
            32.086705
          ],
          [
            34.82219,
            32.085534
          ],
          [
            34.822151,
            32.085314
          ],
          [
            34.82208,
            32.084889
          ],
          [
            34.821738,
            32.084269
          ],
          [
            34.821427,
            32.083744
          ],
          [
            34.821536,
            32.08373
          ],
          [
            34.822475,
            32.083605
          ],
          [
            34.822545,
            32.083596
          ],
          [
            34.823202,
            32.083532
          ],
          [
            34.823639,
            32.083484
          ],
          [
            34.823917,
            32.083436
          ],
          [
            34.824168,
            32.083374
          ],
          [
            34.824419,
            32.083284
          ],
          [
            34.824735,
            32.083102
          ],
          [
            34.824939,
            32.082961
          ],
          [
            34.825048,
            32.082869
          ],
          [
            34.82534,
            32.08253
          ],
          [
            34.825476,
            32.082274
          ],
          [
            34.825497,
            32.0822
          ],
          [
            34.825545,
            32.082047
          ],
          [
            34.825622,
            32.081742
          ],
          [
            34.825622,
            32.081576
          ],
          [
            34.825585,
            32.081396
          ],
          [
            34.825579,
            32.081016
          ],
          [
            34.825566,
            32.080625
          ],
          [
            34.825506,
            32.07973
          ],
          [
            34.825455,
            32.079457
          ],
          [
            34.825404,
            32.07917
          ],
          [
            34.825371,
            32.079023
          ],
          [
            34.825365,
            32.078967
          ],
          [
            34.82529,
            32.07847
          ],
          [
            34.825273,
            32.078283
          ],
          [
            34.825267,
            32.078252
          ],
          [
            34.825259,
            32.078136
          ],
          [
            34.825264,
            32.077947
          ],
          [
            34.825216,
            32.077597
          ],
          [
            34.825213,
            32.077564
          ],
          [
            34.825204,
            32.077003
          ],
          [
            34.825174,
            32.07664
          ],
          [
            34.825141,
            32.076366
          ],
          [
            34.825077,
            32.075113
          ],
          [
            34.825023,
            32.074595
          ],
          [
            34.82502,
            32.074531
          ],
          [
            34.824958,
            32.073426
          ],
          [
            34.824918,
            32.0729
          ],
          [
            34.824939,
            32.072372
          ],
          [
            34.824938,
            32.072062
          ],
          [
            34.824878,
            32.071551
          ],
          [
            34.824834,
            32.070953
          ],
          [
            34.824735,
            32.070365
          ],
          [
            34.824548,
            32.069231
          ],
          [
            34.824359,
            32.068302
          ],
          [
            34.824258,
            32.067856
          ],
          [
            34.824153,
            32.067264
          ],
          [
            34.824065,
            32.066801
          ],
          [
            34.824041,
            32.066674
          ],
          [
            34.824033,
            32.06663
          ],
          [
            34.824024,
            32.06658
          ],
          [
            34.823983,
            32.066361
          ],
          [
            34.82391,
            32.06597
          ],
          [
            34.823735,
            32.065021
          ],
          [
            34.823632,
            32.064486
          ],
          [
            34.823548,
            32.064045
          ],
          [
            34.82344,
            32.063426
          ],
          [
            34.823418,
            32.063305
          ],
          [
            34.823348,
            32.063135
          ],
          [
            34.822951,
            32.062551
          ],
          [
            34.822253,
            32.062085
          ],
          [
            34.8219,
            32.061912
          ],
          [
            34.821156,
            32.061615
          ],
          [
            34.820957,
            32.061537
          ],
          [
            34.820897,
            32.061511
          ],
          [
            34.820577,
            32.061396
          ],
          [
            34.820437,
            32.06135
          ],
          [
            34.820708,
            32.060733
          ],
          [
            34.820742,
            32.060641
          ],
          [
            34.820826,
            32.060431
          ],
          [
            34.820937,
            32.060075
          ],
          [
            34.821025,
            32.059865
          ],
          [
            34.821061,
            32.059739
          ],
          [
            34.821102,
            32.059602
          ],
          [
            34.821163,
            32.059417
          ],
          [
            34.82123,
            32.059229
          ],
          [
            34.821261,
            32.059152
          ],
          [
            34.821319,
            32.059046
          ],
          [
            34.821578,
            32.058268
          ],
          [
            34.822008,
            32.056975
          ],
          [
            34.822152,
            32.056595
          ],
          [
            34.82234,
            32.056136
          ],
          [
            34.822322,
            32.056128
          ],
          [
            34.82231,
            32.056121
          ],
          [
            34.822299,
            32.056114
          ],
          [
            34.822288,
            32.056105
          ],
          [
            34.822278,
            32.056095
          ],
          [
            34.822268,
            32.056085
          ],
          [
            34.822259,
            32.056073
          ],
          [
            34.822246,
            32.056053
          ],
          [
            34.822236,
            32.056034
          ],
          [
            34.82223,
            32.05602
          ],
          [
            34.822225,
            32.056005
          ],
          [
            34.822216,
            32.055973
          ],
          [
            34.822211,
            32.055939
          ],
          [
            34.822209,
            32.055904
          ],
          [
            34.82221,
            32.055886
          ],
          [
            34.822213,
            32.05585
          ],
          [
            34.82222,
            32.055814
          ],
          [
            34.822224,
            32.055797
          ],
          [
            34.82223,
            32.055779
          ],
          [
            34.822243,
            32.055745
          ],
          [
            34.82225,
            32.055729
          ],
          [
            34.82226,
            32.05571
          ],
          [
            34.822277,
            32.055683
          ],
          [
            34.822298,
            32.055655
          ],
          [
            34.82231,
            32.055643
          ],
          [
            34.822334,
            32.05562
          ],
          [
            34.822346,
            32.05561
          ],
          [
            34.822359,
            32.055601
          ],
          [
            34.822372,
            32.055593
          ],
          [
            34.822386,
            32.055586
          ],
          [
            34.822399,
            32.05558
          ],
          [
            34.822418,
            32.055574
          ],
          [
            34.82244,
            32.055569
          ],
          [
            34.822454,
            32.055567
          ],
          [
            34.822468,
            32.055567
          ],
          [
            34.822481,
            32.055567
          ],
          [
            34.822494,
            32.055569
          ],
          [
            34.822507,
            32.055572
          ],
          [
            34.822528,
            32.055579
          ],
          [
            34.822947,
            32.054299
          ],
          [
            34.822965,
            32.054235
          ],
          [
            34.823226,
            32.053842
          ],
          [
            34.823376,
            32.053548
          ],
          [
            34.823419,
            32.05347
          ],
          [
            34.823415,
            32.053459
          ],
          [
            34.823412,
            32.053439
          ],
          [
            34.823413,
            32.053429
          ],
          [
            34.822963,
            32.05316
          ],
          [
            34.822826,
            32.053089
          ],
          [
            34.822618,
            32.052981
          ],
          [
            34.821442,
            32.052297
          ],
          [
            34.821428,
            32.052304
          ],
          [
            34.821411,
            32.05231
          ],
          [
            34.821398,
            32.052312
          ],
          [
            34.82138,
            32.052313
          ],
          [
            34.821361,
            32.05231
          ],
          [
            34.821343,
            32.052305
          ],
          [
            34.821327,
            32.052297
          ],
          [
            34.821316,
            32.05229
          ],
          [
            34.821202,
            32.052336
          ],
          [
            34.82109,
            32.052413
          ],
          [
            34.821025,
            32.052448
          ],
          [
            34.820888,
            32.052496
          ],
          [
            34.820779,
            32.052553
          ],
          [
            34.820666,
            32.05259
          ],
          [
            34.820532,
            32.052629
          ],
          [
            34.820429,
            32.052658
          ],
          [
            34.82025,
            32.052685
          ],
          [
            34.819922,
            32.052678
          ],
          [
            34.819214,
            32.052631
          ],
          [
            34.818927,
            32.052612
          ],
          [
            34.819065,
            32.052355
          ],
          [
            34.819386,
            32.051889
          ],
          [
            34.81964,
            32.051496
          ],
          [
            34.819635,
            32.051444
          ],
          [
            34.81962,
            32.051407
          ],
          [
            34.819574,
            32.051374
          ],
          [
            34.819525,
            32.051346
          ],
          [
            34.819298,
            32.051231
          ],
          [
            34.81921,
            32.051186
          ],
          [
            34.819002,
            32.051095
          ],
          [
            34.81882,
            32.051016
          ],
          [
            34.817534,
            32.050558
          ],
          [
            34.81732,
            32.05052
          ],
          [
            34.816954,
            32.05045
          ],
          [
            34.816291,
            32.050323
          ],
          [
            34.816069,
            32.050193
          ],
          [
            34.815862,
            32.050073
          ],
          [
            34.81565,
            32.049973
          ],
          [
            34.815578,
            32.049929
          ],
          [
            34.815549,
            32.049913
          ],
          [
            34.815517,
            32.049902
          ],
          [
            34.815502,
            32.049901
          ],
          [
            34.815342,
            32.049883
          ],
          [
            34.815009,
            32.049883
          ],
          [
            34.814818,
            32.049817
          ],
          [
            34.814823,
            32.049748
          ],
          [
            34.81482,
            32.049693
          ],
          [
            34.814826,
            32.049555
          ],
          [
            34.814844,
            32.049227
          ],
          [
            34.814849,
            32.048984
          ],
          [
            34.81486,
            32.048504
          ],
          [
            34.814861,
            32.048491
          ],
          [
            34.814871,
            32.048397
          ],
          [
            34.814884,
            32.048335
          ],
          [
            34.814916,
            32.048254
          ],
          [
            34.814968,
            32.048149
          ],
          [
            34.815024,
            32.048073
          ],
          [
            34.815133,
            32.047955
          ],
          [
            34.815192,
            32.047907
          ],
          [
            34.815222,
            32.047883
          ],
          [
            34.815316,
            32.047814
          ],
          [
            34.815422,
            32.047766
          ],
          [
            34.815579,
            32.047729
          ],
          [
            34.815706,
            32.047727
          ],
          [
            34.815885,
            32.04776
          ],
          [
            34.816352,
            32.047915
          ],
          [
            34.816495,
            32.047424
          ],
          [
            34.816401,
            32.047409
          ],
          [
            34.816292,
            32.047377
          ],
          [
            34.816164,
            32.047333
          ],
          [
            34.815751,
            32.047214
          ],
          [
            34.815645,
            32.047138
          ],
          [
            34.815636,
            32.047131
          ],
          [
            34.815588,
            32.047041
          ],
          [
            34.815467,
            32.046483
          ],
          [
            34.815322,
            32.045974
          ],
          [
            34.81461134322499,
            32.046127206525526
          ]
        ]
      }
    },
    {
      "type": "Feature",
      "properties": {
        "type": "original_route_stop",
        "stop_code": "21390",
        "stop_name": "ת. רכבת בני ברק/מבצע קדש",
        "marker-color": "#2ca02c",
        "marker-symbol": "bus",
        "marker-size": "medium"
      },
      "geometry": {
        "type": "Point",
        "coordinates": [
          34.827642,
          32.103618
        ]
      }
    },
    {
      "type": "Feature",
      "properties": {
        "type": "original_route_stop",
        "stop_code": "21666",
        "stop_name": "קניון איילון/דרך אבא הלל",
        "marker-color": "#2ca02c",
        "marker-symbol": "bus",
        "marker-size": "medium"
      },
      "geometry": {
        "type": "Point",
        "coordinates": [
          34.827472,
          32.098809
        ]
      }
    },
    {
      "type": "Feature",
      "properties": {
        "type": "original_route_stop",
        "stop_code": "21817",
        "stop_name": "דרך בן גוריון /דרך ששת הימים",
        "marker-color": "#2ca02c",
        "marker-symbol": "bus",
        "marker-size": "medium"
      },
      "geometry": {
        "type": "Point",
        "coordinates": [
          34.821682,
          32.095915
        ]
      }
    },
    {
      "type": "Feature",
      "properties": {
        "type": "original_route_stop",
        "stop_code": "22273",
        "stop_name": "מגדל קונקורד/דרך בן גוריון",
        "marker-color": "#2ca02c",
        "marker-symbol": "bus",
        "marker-size": "medium"
      },
      "geometry": {
        "type": "Point",
        "coordinates": [
          34.822094,
          32.093343
        ]
      }
    },
    {
      "type": "Feature",
      "properties": {
        "type": "original_route_stop",
        "stop_code": "21231",
        "stop_name": "דרך בן גוריון/דרך ז'בוטינסקי",
        "marker-color": "#2ca02c",
        "marker-symbol": "bus",
        "marker-size": "medium"
      },
      "geometry": {
        "type": "Point",
        "coordinates": [
          34.822531,
          32.090189
        ]
      }
    },
    {
      "type": "Feature",
      "properties": {
        "type": "original_route_stop",
        "stop_code": "26342",
        "stop_name": "דרך בן גוריון/מגדים",
        "marker-color": "#2ca02c",
        "marker-symbol": "bus",
        "marker-size": "medium"
      },
      "geometry": {
        "type": "Point",
        "coordinates": [
          34.822517,
          32.087723
        ]
      }
    },
    {
      "type": "Feature",
      "properties": {
        "type": "original_route_stop",
        "stop_code": "21339",
        "stop_name": "הרא''ה/ שד. ירושלים",
        "marker-color": "#2ca02c",
        "marker-symbol": "bus",
        "marker-size": "medium"
      },
      "geometry": {
        "type": "Point",
        "coordinates": [
          34.824917,
          32.073636
        ]
      }
    },
    {
      "type": "Feature",
      "properties": {
        "type": "original_route_stop",
        "stop_code": "26213",
        "stop_name": "הרא''ה/טרומן",
        "marker-color": "#2ca02c",
        "marker-symbol": "bus",
        "marker-size": "medium"
      },
      "geometry": {
        "type": "Point",
        "coordinates": [
          34.824232,
          32.067979
        ]
      }
    },
    {
      "type": "Feature",
      "properties": {
        "type": "original_route_stop",
        "stop_code": "26188",
        "stop_name": "הרא''ה/פנחס רוטנברג",
        "marker-color": "#2ca02c",
        "marker-symbol": "bus",
        "marker-size": "medium"
      },
      "geometry": {
        "type": "Point",
        "coordinates": [
          34.823418,
          32.063607
        ]
      }
    },
    {
      "type": "Feature",
      "properties": {
        "type": "original_route_stop",
        "stop_code": "26166",
        "stop_name": "הרא''ה/דרך יצחק רבין",
        "marker-color": "#2ca02c",
        "marker-symbol": "bus",
        "marker-size": "medium"
      },
      "geometry": {
        "type": "Point",
        "coordinates": [
          34.821781,
          32.061914
        ]
      }
    },
    {
      "type": "Feature",
      "properties": {
        "type": "original_route_stop",
        "stop_code": "28628",
        "stop_name": "רזיאל/המאה ואחד",
        "marker-color": "#2ca02c",
        "marker-symbol": "bus",
        "marker-size": "medium"
      },
      "geometry": {
        "type": "Point",
        "coordinates": [
          34.822549,
          32.055347
        ]
      }
    },
    {
      "type": "Feature",
      "properties": {
        "type": "original_route_stop",
        "stop_code": "28632",
        "stop_name": "הפארק הלאומי/סן מרטין",
        "marker-color": "#2ca02c",
        "marker-symbol": "bus",
        "marker-size": "medium"
      },
      "geometry": {
        "type": "Point",
        "coordinates": [
          34.821581,
          32.052433
        ]
      }
    },
    {
      "type": "Feature",
      "properties": {
        "type": "original_route_stop",
        "stop_code": "26147",
        "stop_name": "יהדות פילדלפיה/עזריאל",
        "marker-color": "#2ca02c",
        "marker-symbol": "bus",
        "marker-size": "medium"
      },
      "geometry": {
        "type": "Point",
        "coordinates": [
          34.819463,
          32.051677
        ]
      }
    },
    {
      "type": "Feature",
      "properties": {
        "type": "original_route_stop",
        "stop_code": "26143",
        "stop_name": "עזריאל/גבעתי",
        "marker-color": "#2ca02c",
        "marker-symbol": "bus",
        "marker-size": "medium"
      },
      "geometry": {
        "type": "Point",
        "coordinates": [
          34.816379,
          32.050386
        ]
      }
    },
    {
      "type": "Feature",
      "properties": {
        "type": "original_route_stop",
        "stop_code": "26066",
        "stop_name": "כיכר הרב פרדס/שלם",
        "marker-color": "#2ca02c",
        "marker-symbol": "bus",
        "marker-size": "medium"
      },
      "geometry": {
        "type": "Point",
        "coordinates": [
          34.815069,
          32.049928
        ]
      }
    },
    {
      "type": "Feature",
      "properties": {
        "type": "original_route_stop",
        "stop_code": "26142",
        "stop_name": "אצטדיון וינטר",
        "marker-color": "#2ca02c",
        "marker-symbol": "bus",
        "marker-size": "medium"
      },
      "geometry": {
        "type": "Point",
        "coordinates": [
          34.816389,
          32.0476
        ]
      }
    },
    {
      "type": "Feature",
      "properties": {
        "type": "original_route_stop",
        "stop_code": "26014",
        "stop_name": "איצטדיון וינטר",
        "marker-color": "#2ca02c",
        "marker-symbol": "bus",
        "marker-size": "medium"
      },
      "geometry": {
        "type": "Point",
        "coordinates": [
          34.814621,
          32.046172
        ]
      }
    },
    {
      "type": "Feature",
      "properties": {
        "type": "cancelled_stop",
        "stop_code": "25145",
        "stop_name": "הרא''ה/דרך בן גוריון",
        "marker-color": "#ff0000",
        "marker-symbol": "bus",
        "marker-size": "medium"
      },
      "geometry": {
        "type": "Point",
        "coordinates": [
          34.822697,
          32.083536
        ]
      }
    },
    {
      "type": "Feature",
      "properties": {
        "type": "cancelled_stop",
        "stop_code": "26375",
        "stop_name": "הרא''ה/היתד",
        "marker-color": "#ff0000",
        "marker-symbol": "bus",
        "marker-size": "medium"
      },
      "geometry": {
        "type": "Point",
        "coordinates": [
          34.825502,
          32.082003
        ]
      }
    },
    {
      "type": "Feature",
      "properties": {
        "type": "cancelled_stop",
        "stop_code": "26374",
        "stop_name": "הרא''ה/חיבת ציון",
        "marker-color": "#ff0000",
        "marker-symbol": "bus",
        "marker-size": "medium"
      },
      "geometry": {
        "type": "Point",
        "coordinates": [
          34.825467,
          32.079942
        ]
      }
    },
    {
      "type": "Feature",
      "properties": {
        "type": "new_stop",
        "stop_code": "21229",
        "stop_name": "בן גוריון/ הרא''ה",
        "marker-color": "#1f9ed6",
        "marker-symbol": "bus",
        "marker-size": "medium"
      },
      "geometry": {
        "type": "Point",
        "coordinates": [
          34.821066,
          32.083188
        ]
      }
    },
    {
      "type": "Feature",
      "properties": {
        "type": "new_stop",
        "stop_code": "22936",
        "stop_name": "בן גוריון/ הרצל",
        "marker-color": "#1f9ed6",
        "marker-symbol": "bus",
        "marker-size": "medium"
      },
      "geometry": {
        "type": "Point",
        "coordinates": [
          34.81974,
          32.079852
        ]
      }
    },
    {
      "type": "Feature",
      "properties": {
        "type": "new_stop",
        "stop_code": "21748",
        "stop_name": "חיבת ציון/עוזיאל",
        "marker-color": "#1f9ed6",
        "marker-symbol": "bus",
        "marker-size": "medium"
      },
      "geometry": {
        "type": "Point",
        "coordinates": [
          34.822923,
          32.079222
        ]
      }
    },
    {
      "type": "Feature",
      "properties": {
        "type": "new_stop",
        "stop_code": "21382",
        "stop_name": "חיבת ציון/הרא''ה",
        "marker-color": "#1f9ed6",
        "marker-symbol": "bus",
        "marker-size": "medium"
      },
      "geometry": {
        "type": "Point",
        "coordinates": [
          34.824971,
          32.079147
        ]
      }
    },
    {
      "type": "Feature",
      "properties": {
        "type": "reported_block_stop",
        "stop_code": "25145",
        "stop_name": "הרא''ה/דרך בן גוריון",
        "marker-color": "#ff8800",
        "marker-symbol": "bus",
        "marker-size": "medium"
      },
      "geometry": {
        "type": "Point",
        "coordinates": [
          34.822697,
          32.083536
        ]
      }
    },
    {
      "type": "Feature",
      "properties": {
        "type": "reported_block_stop",
        "stop_code": "26375",
        "stop_name": "הרא''ה/היתד",
        "marker-color": "#ff8800",
        "marker-symbol": "bus",
        "marker-size": "medium"
      },
      "geometry": {
        "type": "Point",
        "coordinates": [
          34.825502,
          32.082003
        ]
      }
    },
    {
      "type": "Feature",
      "properties": {
        "type": "deviate_from_stop",
        "stop_code": "20168",
        "stop_name": "דרך בן גוריון/שלישות",
        "marker-color": "#8000ff",
        "marker-symbol": "bus",
        "marker-size": "medium"
      },
      "geometry": {
        "type": "Point",
        "coordinates": [
          34.822243,
          32.086062
        ]
      }
    },
    {
      "type": "Feature",
      "properties": {
        "type": "deviate_to_stop",
        "stop_code": "26229",
        "stop_name": "הרא''ה/ברקאי",
        "marker-color": "#8000ff",
        "marker-symbol": "bus",
        "marker-size": "medium"
      },
      "geometry": {
        "type": "Point",
        "coordinates": [
          34.825142,
          32.0769
        ]
      }
    }
  ]
}