{
  "type": "FeatureCollection",
  "features": [
    {
      "type": "Feature",
      "properties": {
        "type": "deviation_path_edge",
        "from_stop_code": "21044",
        "to_stop_code": "26074",
        "stroke": "#00bcd4",
        "stroke-width": 3,
        "stroke-opacity": 0.95
      },
      "geometry": {
        "type": "LineString",
        "coordinates": [
          [
            34.80981911759622,
            32.06382152596533
          ],
          [
            34.81011,
            32.063226
          ],
          [
            34.810199,
            32.062993
          ],
          [
            34.810332,
            32.062661
          ],
          [
            34.8104175986241,
            32.062405624851756
          ]
        ]
      }
    },
    {
      "type": "Feature",
      "properties": {
        "type": "deviation_path_edge",
        "from_stop_code": "26074",
        "to_stop_code": "26072",
        "stroke": "#00bcd4",
        "stroke-width": 3,
        "stroke-opacity": 0.95
      },
      "geometry": {
        "type": "LineString",
        "coordinates": [
          [
            34.8104175986241,
            32.062405624851756
          ],
          [
            34.810573,
            32.061942
          ],
          [
            34.810648,
            32.061564
          ],
          [
            34.81069,
            32.061303
          ],
          [
            34.810709,
            32.061011
          ],
          [
            34.810739,
            32.060684
          ],
          [
            34.81075,
            32.060318
          ],
          [
            34.810735,
            32.060047
          ],
          [
            34.810715,
            32.059715
          ],
          [
            34.810711,
            32.059601
          ],
          [
            34.81070342111142,
            32.05955628455739
          ]
        ]
      }
    },
    {
      "type": "Feature",
      "properties": {
        "type": "deviation_path_edge",
        "from_stop_code": "26072",
        "to_stop_code": "21285",
        "stroke": "#00bcd4",
        "stroke-width": 3,
        "stroke-opacity": 0.95
      },
      "geometry": {
        "type": "LineString",
        "coordinates": [
          [
            34.81070342111142,
            32.05955628455739
          ],
          [
            34.810701,
            32.059542
          ],
          [
            34.810646,
            32.059208
          ],
          [
            34.810635,
            32.059147
          ],
          [
            34.810613,
            32.059007
          ],
          [
            34.810591,
            32.058903
          ],
          [
            34.810567,
            32.058791
          ],
          [
            34.810942,
            32.058723
          ],
          [
            34.811422,
            32.058648
          ],
          [
            34.811797,
            32.058568
          ],
          [
            34.812349,
            32.058477
          ],
          [
            34.81268266153846,
            32.05843529230769
          ]
        ]
      }
    },
    {
      "type": "Feature",
      "properties": {
        "type": "deviation_path_edge",
        "from_stop_code": "21285",
        "to_stop_code": "21004",
        "stroke": "#00bcd4",
        "stroke-width": 3,
        "stroke-opacity": 0.95
      },
      "geometry": {
        "type": "LineString",
        "coordinates": [
          [
            34.81268266153846,
            32.05843529230769
          ],
          [
            34.813005,
            32.058395
          ],
          [
            34.813982,
            32.058351
          ],
          [
            34.814479,
            32.058341
          ],
          [
            34.815947,
            32.058461
          ],
          [
            34.816381,
            32.058532
          ],
          [
            34.816751,
            32.058625
          ],
          [
            34.817406,
            32.05877
          ],
          [
            34.81760550875188,
            32.05881779405877
          ]
        ]
      }
    },
    {
      "type": "Feature",
      "properties": {
        "type": "original_route_shape",
        "shape_id": "164857",
        "stroke": "#1f2a7a",
        "stroke-width": 3,
        "stroke-opacity": 0.85
      },
      "geometry": {
        "type": "LineString",
        "coordinates": [
          [
            34.788826019890365,
            32.080824047611586
          ],
          [
            34.788857,
            32.081028
          ],
          [
            34.788869,
            32.081114
          ],
          [
            34.78888,
            32.081185
          ],
          [
            34.788901,
            32.081323
          ],
          [
            34.78893,
            32.081556
          ],
          [
            34.788971,
            32.081863
          ],
          [
            34.789023,
            32.082197
          ],
          [
            34.789025,
            32.082221
          ],
          [
            34.789073,
            32.08262
          ],
          [
            34.789093,
            32.082793
          ],
          [
            34.789159,
            32.083359
          ],
          [
            34.789223,
            32.083458
          ],
          [
            34.789264,
            32.083493
          ],
          [
            34.789291,
            32.083507
          ],
          [
            34.789303,
            32.083513
          ],
          [
            34.789328,
            32.083522
          ],
          [
            34.789371,
            32.083526
          ],
          [
            34.789528,
            32.083519
          ],
          [
            34.789768,
            32.083469
          ],
          [
            34.790752,
            32.083265
          ],
          [
            34.791535,
            32.083102
          ],
          [
            34.791739,
            32.08306
          ],
          [
            34.792148,
            32.082981
          ],
          [
            34.792597,
            32.08291
          ],
          [
            34.793652,
            32.08273
          ],
          [
            34.794078,
            32.082655
          ],
          [
            34.794514,
            32.082568
          ],
          [
            34.794662,
            32.082546
          ],
          [
            34.794792,
            32.082522
          ],
          [
            34.794866,
            32.0825
          ],
          [
            34.794931,
            32.082476
          ],
          [
            34.795073,
            32.082416
          ],
          [
            34.795154,
            32.082383
          ],
          [
            34.795258,
            32.082338
          ],
          [
            34.795371,
            32.082284
          ],
          [
            34.795502,
            32.082194
          ],
          [
            34.795872,
            32.081904
          ],
          [
            34.795965,
            32.081829
          ],
          [
            34.79608,
            32.08173
          ],
          [
            34.796122,
            32.081689
          ],
          [
            34.796297,
            32.08152
          ],
          [
            34.796526,
            32.081271
          ],
          [
            34.796773,
            32.081002
          ],
          [
            34.796842,
            32.080929
          ],
          [
            34.796954,
            32.080806
          ],
          [
            34.797092,
            32.080676
          ],
          [
            34.797111,
            32.080658
          ],
          [
            34.797203,
            32.080591
          ],
          [
            34.797261,
            32.08055
          ],
          [
            34.797794,
            32.080131
          ],
          [
            34.797814,
            32.080117
          ],
          [
            34.798538,
            32.079602
          ],
          [
            34.798814,
            32.079419
          ],
          [
            34.798903,
            32.07936
          ],
          [
            34.799146,
            32.079215
          ],
          [
            34.799221,
            32.079177
          ],
          [
            34.799708,
            32.078934
          ],
          [
            34.800271,
            32.07863
          ],
          [
            34.800698,
            32.078414
          ],
          [
            34.801052,
            32.078231
          ],
          [
            34.801321,
            32.078084
          ],
          [
            34.801513,
            32.077967
          ],
          [
            34.801651,
            32.077874
          ],
          [
            34.801879,
            32.077653
          ],
          [
            34.801949,
            32.077532
          ],
          [
            34.801996,
            32.077427
          ],
          [
            34.802045,
            32.077315
          ],
          [
            34.802076,
            32.077233
          ],
          [
            34.802108,
            32.077121
          ],
          [
            34.802129,
            32.077039
          ],
          [
            34.802137,
            32.076917
          ],
          [
            34.802129,
            32.076781
          ],
          [
            34.802115,
            32.076648
          ],
          [
            34.802078,
            32.076493
          ],
          [
            34.802001,
            32.076298
          ],
          [
            34.801932,
            32.076148
          ],
          [
            34.801847,
            32.075958
          ],
          [
            34.80176,
            32.075785
          ],
          [
            34.801598,
            32.075394
          ],
          [
            34.801565,
            32.075316
          ],
          [
            34.801702,
            32.075295
          ],
          [
            34.802048,
            32.075285
          ],
          [
            34.802305,
            32.075278
          ],
          [
            34.802962,
            32.075258
          ],
          [
            34.803778,
            32.075203
          ],
          [
            34.804438,
            32.075193
          ],
          [
            34.804713,
            32.075179
          ],
          [
            34.805495,
            32.075153
          ],
          [
            34.805666,
            32.075147
          ],
          [
            34.806437,
            32.075147
          ],
          [
            34.8071,
            32.075175
          ],
          [
            34.807528,
            32.075203
          ],
          [
            34.807661,
            32.075212
          ],
          [
            34.808582,
            32.075238
          ],
          [
            34.808573,
            32.075117
          ],
          [
            34.808567,
            32.07474
          ],
          [
            34.808587,
            32.074582
          ],
          [
            34.80856,
            32.074527
          ],
          [
            34.808552,
            32.074501
          ],
          [
            34.808546,
            32.074472
          ],
          [
            34.808545,
            32.074292
          ],
          [
            34.808567,
            32.074041
          ],
          [
            34.808586,
            32.073884
          ],
          [
            34.808591,
            32.073681
          ],
          [
            34.808587,
            32.073554
          ],
          [
            34.808635,
            32.07293
          ],
          [
            34.808627,
            32.072131
          ],
          [
            34.808614,
            32.071871
          ],
          [
            34.8086,
            32.071636
          ],
          [
            34.808573,
            32.07126
          ],
          [
            34.80857,
            32.071199
          ],
          [
            34.808545,
            32.071145
          ],
          [
            34.808524,
            32.070947
          ],
          [
            34.808508,
            32.070651
          ],
          [
            34.808535,
            32.070389
          ],
          [
            34.808532,
            32.070255
          ],
          [
            34.808532,
            32.069747
          ],
          [
            34.808533,
            32.069155
          ],
          [
            34.808509,
            32.068453
          ],
          [
            34.808509,
            32.068409
          ],
          [
            34.808512,
            32.068006
          ],
          [
            34.808492,
            32.067762
          ],
          [
            34.808491,
            32.067749
          ],
          [
            34.808492,
            32.067437
          ],
          [
            34.80851,
            32.067162
          ],
          [
            34.808533,
            32.067009
          ],
          [
            34.80853,
            32.066764
          ],
          [
            34.808523,
            32.06656
          ],
          [
            34.808533,
            32.066443
          ],
          [
            34.808565,
            32.066098
          ],
          [
            34.808596,
            32.06594
          ],
          [
            34.808645,
            32.065773
          ],
          [
            34.808706,
            32.065612
          ],
          [
            34.808808,
            32.065422
          ],
          [
            34.808916,
            32.065227
          ],
          [
            34.809023,
            32.065093
          ],
          [
            34.80916,
            32.064937
          ],
          [
            34.809276,
            32.064807
          ],
          [
            34.809497,
            32.064481
          ],
          [
            34.81011,
            32.063226
          ],
          [
            34.810975,
            32.063538
          ],
          [
            34.811135,
            32.063206
          ],
          [
            34.811281,
            32.06283
          ],
          [
            34.811487,
            32.062572
          ],
          [
            34.811578,
            32.062519
          ],
          [
            34.811709,
            32.062458
          ],
          [
            34.811756,
            32.062439
          ],
          [
            34.812327,
            32.062289
          ],
          [
            34.812643,
            32.062202
          ],
          [
            34.813388,
            32.061996
          ],
          [
            34.813553,
            32.06195
          ],
          [
            34.813779,
            32.061889
          ],
          [
            34.814166,
            32.061784
          ],
          [
            34.814346,
            32.061732
          ],
          [
            34.814632,
            32.061657
          ],
          [
            34.814803,
            32.061611
          ],
          [
            34.815202,
            32.061504
          ],
          [
            34.815296,
            32.061485
          ],
          [
            34.81537,
            32.061478
          ],
          [
            34.815414,
            32.06148
          ],
          [
            34.815544,
            32.061506
          ],
          [
            34.815541,
            32.061496
          ],
          [
            34.815539,
            32.061482
          ],
          [
            34.815538,
            32.061469
          ],
          [
            34.81554,
            32.061455
          ],
          [
            34.815546,
            32.061436
          ],
          [
            34.815552,
            32.061423
          ],
          [
            34.81556,
            32.061412
          ],
          [
            34.815575,
            32.061396
          ],
          [
            34.815587,
            32.061387
          ],
          [
            34.8156,
            32.061379
          ],
          [
            34.815614,
            32.061373
          ],
          [
            34.815629,
            32.061368
          ],
          [
            34.815645,
            32.061365
          ],
          [
            34.81566,
            32.061364
          ],
          [
            34.815677,
            32.061364
          ],
          [
            34.815692,
            32.061366
          ],
          [
            34.815708,
            32.06137
          ],
          [
            34.815722,
            32.061375
          ],
          [
            34.815736,
            32.061381
          ],
          [
            34.815749,
            32.061389
          ],
          [
            34.81576,
            32.061399
          ],
          [
            34.815767,
            32.061406
          ],
          [
            34.81625,
            32.061332
          ],
          [
            34.816263,
            32.06133
          ],
          [
            34.816409,
            32.061315
          ],
          [
            34.816399,
            32.061067
          ],
          [
            34.816394,
            32.06085
          ],
          [
            34.81639,
            32.06068
          ],
          [
            34.816407,
            32.060255
          ],
          [
            34.816416,
            32.060101
          ],
          [
            34.816464,
            32.059686
          ],
          [
            34.816536,
            32.059337
          ],
          [
            34.816562,
            32.059223
          ],
          [
            34.816603,
            32.0591
          ],
          [
            34.816722,
            32.05872
          ],
          [
            34.816751,
            32.058625
          ],
          [
            34.817406,
            32.05877
          ],
          [
            34.818675,
            32.059074
          ],
          [
            34.820074,
            32.059287
          ],
          [
            34.821187,
            32.059403
          ],
          [
            34.821192,
            32.059404
          ],
          [
            34.821298,
            32.059428
          ],
          [
            34.821374,
            32.059445
          ],
          [
            34.822052,
            32.059577
          ],
          [
            34.822376,
            32.059628
          ],
          [
            34.822637,
            32.059656
          ],
          [
            34.822831,
            32.059675
          ],
          [
            34.823032,
            32.059682
          ],
          [
            34.823372,
            32.059676
          ],
          [
            34.823777,
            32.059656
          ],
          [
            34.824247,
            32.059598
          ],
          [
            34.82453,
            32.059568
          ],
          [
            34.824804,
            32.059517
          ],
          [
            34.825139,
            32.05944
          ],
          [
            34.825422,
            32.059362
          ],
          [
            34.825534,
            32.059331
          ],
          [
            34.827534,
            32.058711
          ],
          [
            34.827942,
            32.058601
          ],
          [
            34.828029,
            32.058573
          ],
          [
            34.828331,
            32.058476
          ],
          [
            34.830202,
            32.057971
          ],
          [
            34.830754,
            32.057809
          ],
          [
            34.831891,
            32.057485
          ],
          [
            34.8325,
            32.057303
          ],
          [
            34.832721,
            32.057225
          ],
          [
            34.832895,
            32.057142
          ],
          [
            34.832993,
            32.057089
          ],
          [
            34.833067,
            32.05705
          ],
          [
            34.833207,
            32.056956
          ],
          [
            34.833356,
            32.056836
          ],
          [
            34.833528,
            32.056663
          ],
          [
            34.83362,
            32.05654
          ],
          [
            34.83398,
            32.056081
          ],
          [
            34.833901,
            32.056027
          ],
          [
            34.833833,
            32.055938
          ],
          [
            34.833777,
            32.055825
          ],
          [
            34.83355,
            32.055324
          ],
          [
            34.833316,
            32.05477
          ],
          [
            34.833316,
            32.054769
          ],
          [
            34.833329,
            32.05463
          ],
          [
            34.833373,
            32.054576
          ],
          [
            34.83343,
            32.054539
          ],
          [
            34.833465,
            32.054533
          ],
          [
            34.833571,
            32.054504
          ],
          [
            34.833634,
            32.054493
          ],
          [
            34.833753,
            32.05459
          ],
          [
            34.833834,
            32.054719
          ],
          [
            34.833897,
            32.054842
          ],
          [
            34.834065,
            32.055179
          ],
          [
            34.834107,
            32.055414
          ],
          [
            34.833983,
            32.055511
          ],
          [
            34.833901,
            32.055647
          ],
          [
            34.833907,
            32.055758
          ],
          [
            34.833932,
            32.055786
          ],
          [
            34.833957,
            32.055807
          ],
          [
            34.833985,
            32.055819
          ],
          [
            34.834032,
            32.055829
          ],
          [
            34.834079,
            32.055828
          ],
          [
            34.834125,
            32.055818
          ],
          [
            34.834179,
            32.055794
          ],
          [
            34.834323,
            32.055691
          ],
          [
            34.834482,
            32.055492
          ],
          [
            34.83455,
            32.055407
          ],
          [
            34.834704,
            32.055222
          ],
          [
            34.834822,
            32.055108
          ],
          [
            34.834988,
            32.05491
          ],
          [
            34.83521,
            32.054634
          ],
          [
            34.835296,
            32.054534
          ],
          [
            34.836,
            32.053774
          ],
          [
            34.83607,
            32.053689
          ],
          [
            34.836388,
            32.053292
          ],
          [
            34.836945,
            32.052645
          ],
          [
            34.836947,
            32.052643
          ],
          [
            34.837296,
            32.052311
          ],
          [
            34.837766,
            32.052004
          ],
          [
            34.837843,
            32.051966
          ],
          [
            34.838181,
            32.05181
          ],
          [
            34.838418875760446,
            32.051707623090444
          ]
        ]
      }
    },
    {
      "type": "Feature",
      "properties": {
        "type": "original_route_stop",
        "stop_code": "21815",
        "stop_name": "ביה''ח איכילוב/ויצמן",
        "marker-color": "#2ca02c",
        "marker-symbol": "bus",
        "marker-size": "medium"
      },
      "geometry": {
        "type": "Point",
        "coordinates": [
          34.788879,
          32.080816
        ]
      }
    },
    {
      "type": "Feature",
      "properties": {
        "type": "original_route_stop",
        "stop_code": "25882",
        "stop_name": "ארלוזורוב/ויצמן",
        "marker-color": "#2ca02c",
        "marker-symbol": "bus",
        "marker-size": "medium"
      },
      "geometry": {
        "type": "Point",
        "coordinates": [
          34.790102,
          32.083353
        ]
      }
    },
    {
      "type": "Feature",
      "properties": {
        "type": "original_route_stop",
        "stop_code": "21035",
        "stop_name": "ארלוזורוב/דרך נמיר",
        "marker-color": "#2ca02c",
        "marker-symbol": "bus",
        "marker-size": "medium"
      },
      "geometry": {
        "type": "Point",
        "coordinates": [
          34.793207,
          32.08276
        ]
      }
    },
    {
      "type": "Feature",
      "properties": {
        "type": "original_route_stop",
        "stop_code": "21140",
        "stop_name": "ת. רכבת תל אביב סבידור/על פרשת דרכים",
        "marker-color": "#2ca02c",
        "marker-symbol": "bus",
        "marker-size": "medium"
      },
      "geometry": {
        "type": "Point",
        "coordinates": [
          34.795464,
          32.082162
        ]
      }
    },
    {
      "type": "Feature",
      "properties": {
        "type": "original_route_stop",
        "stop_code": "20017",
        "stop_name": "גשר דוד שיפמן /דרך מנחם בגין",
        "marker-color": "#2ca02c",
        "marker-symbol": "bus",
        "marker-size": "medium"
      },
      "geometry": {
        "type": "Point",
        "coordinates": [
          34.797359,
          32.080412
        ]
      }
    },
    {
      "type": "Feature",
      "properties": {
        "type": "original_route_stop",
        "stop_code": "21126",
        "stop_name": "ערבי נחל/בורוכוב",
        "marker-color": "#2ca02c",
        "marker-symbol": "bus",
        "marker-size": "medium"
      },
      "geometry": {
        "type": "Point",
        "coordinates": [
          34.800753,
          32.078332
        ]
      }
    },
    {
      "type": "Feature",
      "properties": {
        "type": "original_route_stop",
        "stop_code": "21095",
        "stop_name": "כצנלסון/עליית הנוער",
        "marker-color": "#2ca02c",
        "marker-symbol": "bus",
        "marker-size": "medium"
      },
      "geometry": {
        "type": "Point",
        "coordinates": [
          34.803357,
          32.075186
        ]
      }
    },
    {
      "type": "Feature",
      "properties": {
        "type": "original_route_stop",
        "stop_code": "22921",
        "stop_name": "כצנלסון/קק''ל",
        "marker-color": "#2ca02c",
        "marker-symbol": "bus",
        "marker-size": "medium"
      },
      "geometry": {
        "type": "Point",
        "coordinates": [
          34.80556,
          32.075105
        ]
      }
    },
    {
      "type": "Feature",
      "properties": {
        "type": "original_route_stop",
        "stop_code": "26127",
        "stop_name": "כצנלסון/ויצמן",
        "marker-color": "#2ca02c",
        "marker-symbol": "bus",
        "marker-size": "medium"
      },
      "geometry": {
        "type": "Point",
        "coordinates": [
          34.807975,
          32.075176
        ]
      }
    },
    {
      "type": "Feature",
      "properties": {
        "type": "original_route_stop",
        "stop_code": "21025",
        "stop_name": "ויצמן/ז'בוטינסקי",
        "marker-color": "#2ca02c",
        "marker-symbol": "bus",
        "marker-size": "medium"
      },
      "geometry": {
        "type": "Point",
        "coordinates": [
          34.808561,
          32.073194
        ]
      }
    },
    {
      "type": "Feature",
      "properties": {
        "type": "original_route_stop",
        "stop_code": "21141",
        "stop_name": "ויצמן/רמב''ם",
        "marker-color": "#2ca02c",
        "marker-symbol": "bus",
        "marker-size": "medium"
      },
      "geometry": {
        "type": "Point",
        "coordinates": [
          34.808479,
          32.069971
        ]
      }
    },
    {
      "type": "Feature",
      "properties": {
        "type": "original_route_stop",
        "stop_code": "21077",
        "stop_name": "ויצמן/ריינס",
        "marker-color": "#2ca02c",
        "marker-symbol": "bus",
        "marker-size": "medium"
      },
      "geometry": {
        "type": "Point",
        "coordinates": [
          34.808458,
          32.068075
        ]
      }
    },
    {
      "type": "Feature",
      "properties": {
        "type": "original_route_stop",
        "stop_code": "21002",
        "stop_name": "אלוף שדה/דרך יצחק רבין",
        "marker-color": "#2ca02c",
        "marker-symbol": "bus",
        "marker-size": "medium"
      },
      "geometry": {
        "type": "Point",
        "coordinates": [
          34.822176,
          32.059551
        ]
      }
    },
    {
      "type": "Feature",
      "properties": {
        "type": "original_route_stop",
        "stop_code": "21041",
        "stop_name": "אלוף שדה/הירדן",
        "marker-color": "#2ca02c",
        "marker-symbol": "bus",
        "marker-size": "medium"
      },
      "geometry": {
        "type": "Point",
        "coordinates": [
          34.828604,
          32.058355
        ]
      }
    },
    {
      "type": "Feature",
      "properties": {
        "type": "original_route_stop",
        "stop_code": "21109",
        "stop_name": "מסוף אלוף שדה",
        "marker-color": "#2ca02c",
        "marker-symbol": "bus",
        "marker-size": "medium"
      },
      "geometry": {
        "type": "Point",
        "coordinates": [
          34.833997,
          32.054928
        ]
      }
    },
    {
      "type": "Feature",
      "properties": {
        "type": "original_route_stop",
        "stop_code": "38130",
        "stop_name": "דרך שיבא/שדרות הארזים",
        "marker-color": "#2ca02c",
        "marker-symbol": "bus",
        "marker-size": "medium"
      },
      "geometry": {
        "type": "Point",
        "coordinates": [
          34.83841,
          32.051687
        ]
      }
    },
    {
      "type": "Feature",
      "properties": {
        "type": "cancelled_stop",
        "stop_code": "22922",
        "stop_name": "ההסתדרות/כ''ג",
        "marker-color": "#ff0000",
        "marker-symbol": "bus",
        "marker-size": "medium"
      },
      "geometry": {
        "type": "Point",
        "coordinates": [
          34.811218,
          32.062849
        ]
      }
    },
    {
      "type": "Feature",
      "properties": {
        "type": "cancelled_stop",
        "stop_code": "21120",
        "stop_name": "גן רבקה/משמר הירדן",
        "marker-color": "#ff0000",
        "marker-symbol": "bus",
        "marker-size": "medium"
      },
      "geometry": {
        "type": "Point",
        "coordinates": [
          34.813749,
          32.06185
        ]
      }
    },
    {
      "type": "Feature",
      "properties": {
        "type": "cancelled_stop",
        "stop_code": "21040",
        "stop_name": "מרכז כורזין ",
        "marker-color": "#ff0000",
        "marker-symbol": "bus",
        "marker-size": "medium"
      },
      "geometry": {
        "type": "Point",
        "coordinates": [
          34.816379,
          32.05996
        ]
      }
    },
    {
      "type": "Feature",
      "properties": {
        "type": "new_stop",
        "stop_code": "26074",
        "stop_name": "המאבק/כ''ג",
        "marker-color": "#1f9ed6",
        "marker-symbol": "bus",
        "marker-size": "medium"
      },
      "geometry": {
        "type": "Point",
        "coordinates": [
          34.810368,
          32.062389
        ]
      }
    },
    {
      "type": "Feature",
      "properties": {
        "type": "new_stop",
        "stop_code": "26072",
        "stop_name": "המאבק/עמישב",
        "marker-color": "#1f9ed6",
        "marker-symbol": "bus",
        "marker-size": "medium"
      },
      "geometry": {
        "type": "Point",
        "coordinates": [
          34.810652,
          32.059565
        ]
      }
    },
    {
      "type": "Feature",
      "properties": {
        "type": "new_stop",
        "stop_code": "21285",
        "stop_name": "אלוף שדה/עודד",
        "marker-color": "#1f9ed6",
        "marker-symbol": "bus",
        "marker-size": "medium"
      },
      "geometry": {
        "type": "Point",
        "coordinates": [
          34.812677,
          32.05839
        ]
      }
    },
    {
      "type": "Feature",
      "properties": {
        "type": "reported_block_stop",
        "stop_code": "22922",
        "stop_name": "ההסתדרות/כ''ג",
        "marker-color": "#ff8800",
        "marker-symbol": "bus",
        "marker-size": "medium"
      },
      "geometry": {
        "type": "Point",
        "coordinates": [
          34.811218,
          32.062849
        ]
      }
    },
    {
      "type": "Feature",
      "properties": {
        "type": "reported_block_stop",
        "stop_code": "21120",
        "stop_name": "גן רבקה/משמר הירדן",
        "marker-color": "#ff8800",
        "marker-symbol": "bus",
        "marker-size": "medium"
      },
      "geometry": {
        "type": "Point",
        "coordinates": [
          34.813749,
          32.06185
        ]
      }
    },
    {
      "type": "Feature",
      "properties": {
        "type": "deviate_from_stop",
        "stop_code": "21044",
        "stop_name": "המאבק/מנורה",
        "marker-color": "#8000ff",
        "marker-symbol": "bus",
        "marker-size": "medium"
      },
      "geometry": {
        "type": "Point",
        "coordinates": [
          34.809773,
          32.063799
        ]
      }
    },
    {
      "type": "Feature",
      "properties": {
        "type": "deviate_to_stop",
        "stop_code": "21004",
        "stop_name": "אלוף שדה/כורזין",
        "marker-color": "#8000ff",
        "marker-symbol": "bus",
        "marker-size": "medium"
      },
      "geometry": {
        "type": "Point",
        "coordinates": [
          34.817616,
          32.058774
        ]
      }
    }
  ]
}