{
  "type": "FeatureCollection",
  "features": [
    {
      "type": "Feature",
      "properties": {
        "type": "deviation_path_edge",
        "from_stop_code": "43115",
        "to_stop_code": "47222",
        "stroke": "#00bcd4",
        "stroke-width": 3,
        "stroke-opacity": 0.95
      },
      "geometry": {
        "type": "LineString",
        "coordinates": [
          [
            35.00875048883166,
            32.80299197881075
          ],
          [
            35.008647,
            32.8031
          ],
          [
            35.008597,
            32.803153
          ],
          [
            35.008331,
            32.803483
          ],
          [
            35.008267,
            32.803555
          ],
          [
            35.008193,
            32.803637
          ],
          [
            35.008142,
            32.803677
          ],
          [
            35.00798,
            32.803855
          ],
          [
            35.007909,
            32.803914
          ],
          [
            35.00781,
            32.803991
          ],
          [
            35.007766,
            32.804023
          ],
          [
            35.007601,
            32.804141
          ],
          [
            35.0073,
            32.804318
          ],
          [
            35.007165,
            32.804379
          ],
          [
            35.007123,
            32.804398
          ],
          [
            35.006977,
            32.804467
          ],
          [
            35.006865,
            32.804511
          ],
          [
            35.006591,
            32.804602
          ],
          [
            35.006142,
            32.804705
          ],
          [
            35.005979,
            32.804727
          ],
          [
            35.005877,
            32.804736
          ],
          [
            35.00583,
            32.80474
          ],
          [
            35.005673,
            32.804736
          ],
          [
            35.005531,
            32.804718
          ],
          [
            35.005411,
            32.804672
          ],
          [
            35.005332,
            32.804638
          ],
          [
            35.005145,
            32.804529
          ],
          [
            35.005026,
            32.804453
          ],
          [
            35.00494,
            32.804403
          ],
          [
            35.004751,
            32.804306
          ],
          [
            35.004739,
            32.8043
          ],
          [
            35.004618,
            32.804267
          ],
          [
            35.004539,
            32.804251
          ],
          [
            35.00441,
            32.804238
          ],
          [
            35.004323,
            32.804238
          ],
          [
            35.004168,
            32.804255
          ],
          [
            35.004024,
            32.804284
          ],
          [
            35.003877,
            32.804335
          ],
          [
            35.003733,
            32.804404
          ],
          [
            35.003639,
            32.804456
          ],
          [
            35.003533,
            32.80453
          ],
          [
            35.003463,
            32.804595
          ],
          [
            35.003423,
            32.804636
          ],
          [
            35.003453,
            32.804653
          ],
          [
            35.003399,
            32.804707
          ],
          [
            35.00329906435643,
            32.804829143564355
          ]
        ]
      }
    },
    {
      "type": "Feature",
      "properties": {
        "type": "deviation_path_edge",
        "from_stop_code": "47222",
        "to_stop_code": "41698",
        "stroke": "#00bcd4",
        "stroke-width": 3,
        "stroke-opacity": 0.95
      },
      "geometry": {
        "type": "LineString",
        "coordinates": [
          [
            35.00329906435643,
            32.804829143564355
          ],
          [
            35.003291,
            32.804839
          ],
          [
            35.003098,
            32.805094
          ],
          [
            35.002912,
            32.805336
          ],
          [
            35.002715,
            32.805619
          ],
          [
            35.002608,
            32.805753
          ],
          [
            35.002557,
            32.805817
          ],
          [
            35.00239,
            32.806037
          ],
          [
            35.002329,
            32.80612
          ],
          [
            35.00214,
            32.806374
          ],
          [
            35.001993,
            32.80657
          ],
          [
            35.0018,
            32.806829
          ],
          [
            35.0017,
            32.806973
          ],
          [
            35.001572,
            32.80713
          ],
          [
            35.001492,
            32.80721
          ],
          [
            35.001434,
            32.807268
          ],
          [
            35.001177,
            32.807492
          ],
          [
            35.000831,
            32.807824
          ],
          [
            35.00078,
            32.807847
          ],
          [
            35.000751,
            32.807853
          ],
          [
            35.000707,
            32.80786
          ],
          [
            35.000669,
            32.807864
          ],
          [
            35.000643,
            32.807861
          ],
          [
            35.000615,
            32.807854
          ],
          [
            35.000599,
            32.807843
          ],
          [
            35.000579,
            32.807825
          ],
          [
            35.000563,
            32.807797
          ],
          [
            35.00061779963066,
            32.80745649744056
          ]
        ]
      }
    },
    {
      "type": "Feature",
      "properties": {
        "type": "deviation_path_edge",
        "from_stop_code": "41698",
        "to_stop_code": "42698",
        "stroke": "#00bcd4",
        "stroke-width": 3,
        "stroke-opacity": 0.95
      },
      "geometry": {
        "type": "LineString",
        "coordinates": [
          [
            35.00061779963066,
            32.80745649744056
          ],
          [
            35.000666,
            32.807157
          ],
          [
            35.000682,
            32.807023
          ],
          [
            35.000689,
            32.806955
          ],
          [
            35.000712,
            32.806744
          ],
          [
            35.000725,
            32.806388
          ],
          [
            35.000743,
            32.806234
          ],
          [
            35.000758,
            32.805922
          ],
          [
            35.000761522214134,
            32.805856839038604
          ]
        ]
      }
    },
    {
      "type": "Feature",
      "properties": {
        "type": "deviation_path_edge",
        "from_stop_code": "42698",
        "to_stop_code": "41250",
        "stroke": "#00bcd4",
        "stroke-width": 3,
        "stroke-opacity": 0.95
      },
      "geometry": {
        "type": "LineString",
        "coordinates": [
          [
            35.000761522214134,
            32.805856839038604
          ],
          [
            35.000762,
            32.805848
          ],
          [
            35.000673,
            32.805334
          ],
          [
            35.000608,
            32.805123
          ],
          [
            35.000567,
            32.805024
          ],
          [
            35.000516,
            32.804944
          ],
          [
            35.000333,
            32.804714
          ],
          [
            35.000242,
            32.804652
          ],
          [
            35.000157,
            32.804617
          ],
          [
            35.000082,
            32.804603
          ],
          [
            34.999952,
            32.804597
          ],
          [
            34.99982,
            32.804596
          ],
          [
            34.999703,
            32.804613
          ],
          [
            34.999539,
            32.804654
          ],
          [
            34.999386,
            32.804685
          ],
          [
            34.99926,
            32.804725
          ],
          [
            34.999033,
            32.8048
          ],
          [
            34.998986,
            32.804883
          ],
          [
            34.998946,
            32.804927
          ],
          [
            34.998899,
            32.80496
          ],
          [
            34.99882,
            32.804999
          ],
          [
            34.998635,
            32.805087
          ],
          [
            34.998518,
            32.805153
          ],
          [
            34.998288,
            32.805311
          ],
          [
            34.998259837915676,
            32.80533679552262
          ]
        ]
      }
    },
    {
      "type": "Feature",
      "properties": {
        "type": "deviation_path_edge",
        "from_stop_code": "41250",
        "to_stop_code": "41251",
        "stroke": "#00bcd4",
        "stroke-width": 3,
        "stroke-opacity": 0.95
      },
      "geometry": {
        "type": "LineString",
        "coordinates": [
          [
            34.998259837915676,
            32.80533679552262
          ],
          [
            34.99805,
            32.805529
          ],
          [
            34.997891,
            32.805689
          ],
          [
            34.997697,
            32.805874
          ],
          [
            34.997565,
            32.806024
          ],
          [
            34.997421,
            32.806129
          ],
          [
            34.997381,
            32.806158
          ],
          [
            34.997213,
            32.806265
          ],
          [
            34.996173,
            32.806862
          ],
          [
            34.995946,
            32.806983
          ],
          [
            34.995818,
            32.807039
          ],
          [
            34.995752,
            32.807069
          ],
          [
            34.99557054225535,
            32.80713353909475
          ]
        ]
      }
    },
    {
      "type": "Feature",
      "properties": {
        "type": "deviation_path_edge",
        "from_stop_code": "41251",
        "to_stop_code": "41565",
        "stroke": "#00bcd4",
        "stroke-width": 3,
        "stroke-opacity": 0.95
      },
      "geometry": {
        "type": "LineString",
        "coordinates": [
          [
            34.99557054225535,
            32.80713353909475
          ],
          [
            34.995558,
            32.807138
          ],
          [
            34.995147,
            32.807304
          ],
          [
            34.995096,
            32.807324
          ],
          [
            34.994956,
            32.807372
          ],
          [
            34.994929,
            32.807379
          ],
          [
            34.994713,
            32.807437
          ],
          [
            34.994683,
            32.807446
          ],
          [
            34.994474,
            32.807503
          ],
          [
            34.994206,
            32.807632
          ],
          [
            34.9940162489465,
            32.80770958709743
          ]
        ]
      }
    },
    {
      "type": "Feature",
      "properties": {
        "type": "original_route_shape",
        "shape_id": "149003",
        "stroke": "#1f2a7a",
        "stroke-width": 3,
        "stroke-opacity": 0.85
      },
      "geometry": {
        "type": "LineString",
        "coordinates": [
          [
            35.03482806242365,
            32.79269589335451
          ],
          [
            35.034851,
            32.792633
          ],
          [
            35.034911,
            32.792499
          ],
          [
            35.034959,
            32.792414
          ],
          [
            35.034994,
            32.792342
          ],
          [
            35.03507,
            32.792206
          ],
          [
            35.035128,
            32.792127
          ],
          [
            35.035179,
            32.792071
          ],
          [
            35.035364,
            32.791954
          ],
          [
            35.035398,
            32.791926
          ],
          [
            35.03541,
            32.791907
          ],
          [
            35.035423,
            32.79187
          ],
          [
            35.035426,
            32.791838
          ],
          [
            35.03542,
            32.791816
          ],
          [
            35.035408,
            32.791794
          ],
          [
            35.035388,
            32.791761
          ],
          [
            35.035353,
            32.791717
          ],
          [
            35.035287,
            32.791691
          ],
          [
            35.035258,
            32.791674
          ],
          [
            35.035087,
            32.791584
          ],
          [
            35.034975,
            32.791521
          ],
          [
            35.03467,
            32.791349
          ],
          [
            35.034068,
            32.791021
          ],
          [
            35.033861,
            32.790918
          ],
          [
            35.033831,
            32.790903
          ],
          [
            35.03319,
            32.790581
          ],
          [
            35.033101,
            32.790541
          ],
          [
            35.032989,
            32.790485
          ],
          [
            35.032782,
            32.790388
          ],
          [
            35.032607,
            32.790319
          ],
          [
            35.032249,
            32.790202
          ],
          [
            35.032222,
            32.790192
          ],
          [
            35.032156,
            32.790178
          ],
          [
            35.032013,
            32.790148
          ],
          [
            35.031174,
            32.789971
          ],
          [
            35.030957,
            32.78992
          ],
          [
            35.030658,
            32.789889
          ],
          [
            35.030523,
            32.789864
          ],
          [
            35.02989,
            32.78972
          ],
          [
            35.029586,
            32.789646
          ],
          [
            35.029193,
            32.78954
          ],
          [
            35.02879,
            32.789421
          ],
          [
            35.028615,
            32.789375
          ],
          [
            35.028451,
            32.789349
          ],
          [
            35.028245,
            32.789322
          ],
          [
            35.028134,
            32.789339
          ],
          [
            35.028018,
            32.789357
          ],
          [
            35.02801,
            32.789359
          ],
          [
            35.027834,
            32.789405
          ],
          [
            35.027694,
            32.789455
          ],
          [
            35.027548,
            32.789517
          ],
          [
            35.027458,
            32.789567
          ],
          [
            35.027351,
            32.789644
          ],
          [
            35.027264,
            32.789725
          ],
          [
            35.027031,
            32.790058
          ],
          [
            35.026915,
            32.790231
          ],
          [
            35.026903,
            32.79025
          ],
          [
            35.026724,
            32.790541
          ],
          [
            35.026642,
            32.790655
          ],
          [
            35.026491,
            32.790873
          ],
          [
            35.026316,
            32.791083
          ],
          [
            35.026276,
            32.791131
          ],
          [
            35.026253,
            32.791162
          ],
          [
            35.026228,
            32.791194
          ],
          [
            35.026154,
            32.791287
          ],
          [
            35.026137,
            32.791309
          ],
          [
            35.026052,
            32.791424
          ],
          [
            35.025803,
            32.791678
          ],
          [
            35.025175,
            32.792305
          ],
          [
            35.024646,
            32.792818
          ],
          [
            35.024238,
            32.793227
          ],
          [
            35.023381,
            32.794037
          ],
          [
            35.023353,
            32.794066
          ],
          [
            35.023111,
            32.794336
          ],
          [
            35.022611,
            32.794811
          ],
          [
            35.022347,
            32.795078
          ],
          [
            35.022287,
            32.795123
          ],
          [
            35.022258,
            32.795162
          ],
          [
            35.022136,
            32.795303
          ],
          [
            35.021169,
            32.796296
          ],
          [
            35.020287,
            32.797212
          ],
          [
            35.019914,
            32.797581
          ],
          [
            35.019737,
            32.797747
          ],
          [
            35.019552,
            32.797894
          ],
          [
            35.019332,
            32.798074
          ],
          [
            35.019235,
            32.79814
          ],
          [
            35.018994,
            32.798295
          ],
          [
            35.01877,
            32.798424
          ],
          [
            35.018725,
            32.798446
          ],
          [
            35.018616,
            32.798512
          ],
          [
            35.018537,
            32.79855
          ],
          [
            35.018479,
            32.798578
          ],
          [
            35.0183,
            32.798652
          ],
          [
            35.017707,
            32.798862
          ],
          [
            35.017394,
            32.79896
          ],
          [
            35.017181,
            32.799035
          ],
          [
            35.017069,
            32.799075
          ],
          [
            35.016964,
            32.799117
          ],
          [
            35.016676,
            32.799221
          ],
          [
            35.016345,
            32.799353
          ],
          [
            35.01619,
            32.799408
          ],
          [
            35.016056,
            32.799439
          ],
          [
            35.015964,
            32.79946
          ],
          [
            35.015927,
            32.799468
          ],
          [
            35.015585,
            32.799538
          ],
          [
            35.015416,
            32.799587
          ],
          [
            35.01459,
            32.799826
          ],
          [
            35.014088,
            32.79997
          ],
          [
            35.013733,
            32.800117
          ],
          [
            35.01343,
            32.800261
          ],
          [
            35.01317,
            32.800367
          ],
          [
            35.012992,
            32.800454
          ],
          [
            35.012767,
            32.800575
          ],
          [
            35.012195,
            32.800918
          ],
          [
            35.011906,
            32.801064
          ],
          [
            35.01142,
            32.801277
          ],
          [
            35.010777,
            32.801602
          ],
          [
            35.010539,
            32.801723
          ],
          [
            35.010427,
            32.801778
          ],
          [
            35.010286,
            32.801852
          ],
          [
            35.009929,
            32.802051
          ],
          [
            35.009472,
            32.802359
          ],
          [
            35.009055,
            32.802683
          ],
          [
            35.008784,
            32.802957
          ],
          [
            35.008647,
            32.8031
          ],
          [
            35.008597,
            32.803153
          ],
          [
            35.008331,
            32.803483
          ],
          [
            35.008267,
            32.803555
          ],
          [
            35.008193,
            32.803637
          ],
          [
            35.008142,
            32.803677
          ],
          [
            35.00798,
            32.803855
          ],
          [
            35.007909,
            32.803914
          ],
          [
            35.00781,
            32.803991
          ],
          [
            35.007766,
            32.804023
          ],
          [
            35.007601,
            32.804141
          ],
          [
            35.0073,
            32.804318
          ],
          [
            35.007165,
            32.804379
          ],
          [
            35.007123,
            32.804398
          ],
          [
            35.006977,
            32.804467
          ],
          [
            35.006865,
            32.804511
          ],
          [
            35.006591,
            32.804602
          ],
          [
            35.006142,
            32.804705
          ],
          [
            35.005979,
            32.804727
          ],
          [
            35.005877,
            32.804736
          ],
          [
            35.00583,
            32.80474
          ],
          [
            35.005673,
            32.804736
          ],
          [
            35.005531,
            32.804718
          ],
          [
            35.005411,
            32.804672
          ],
          [
            35.005332,
            32.804638
          ],
          [
            35.005145,
            32.804529
          ],
          [
            35.005026,
            32.804453
          ],
          [
            35.00494,
            32.804403
          ],
          [
            35.004828,
            32.804385
          ],
          [
            35.004766,
            32.804383
          ],
          [
            35.004713,
            32.804396
          ],
          [
            35.004675,
            32.804421
          ],
          [
            35.004639,
            32.804461
          ],
          [
            35.004571,
            32.80456
          ],
          [
            35.004511,
            32.804653
          ],
          [
            35.00428,
            32.804934
          ],
          [
            35.004134,
            32.805096
          ],
          [
            35.003847,
            32.805498
          ],
          [
            35.003536,
            32.805914
          ],
          [
            35.003173,
            32.806434
          ],
          [
            35.002948,
            32.806714
          ],
          [
            35.002755,
            32.806908
          ],
          [
            35.002636,
            32.807039
          ],
          [
            35.002497,
            32.807175
          ],
          [
            35.002084,
            32.807602
          ],
          [
            35.001911,
            32.807773
          ],
          [
            35.001394,
            32.808291
          ],
          [
            35.001045,
            32.808646
          ],
          [
            35.000926,
            32.808768
          ],
          [
            35.000754,
            32.808899
          ],
          [
            35.000624,
            32.808997
          ],
          [
            35.000481,
            32.809078
          ],
          [
            35.000367,
            32.809144
          ],
          [
            35.00016,
            32.809249
          ],
          [
            34.999943,
            32.809351
          ],
          [
            34.999827,
            32.809406
          ],
          [
            34.99963,
            32.809504
          ],
          [
            34.999486,
            32.809612
          ],
          [
            34.999368,
            32.809747
          ],
          [
            34.999235,
            32.809936
          ],
          [
            34.999211,
            32.809978
          ],
          [
            34.99918,
            32.810043
          ],
          [
            34.999157,
            32.81011
          ],
          [
            34.999132,
            32.810203
          ],
          [
            34.999119,
            32.810313
          ],
          [
            34.999101,
            32.810419
          ],
          [
            34.999056,
            32.8108
          ],
          [
            34.999002,
            32.810971
          ],
          [
            34.99898,
            32.811024
          ],
          [
            34.998958,
            32.811067
          ],
          [
            34.998946,
            32.811089
          ],
          [
            34.998872,
            32.811197
          ],
          [
            34.998777,
            32.811317
          ],
          [
            34.998575,
            32.811523
          ],
          [
            34.998485,
            32.811638
          ],
          [
            34.998348,
            32.811789
          ],
          [
            34.998048,
            32.812124
          ],
          [
            34.99801,
            32.81208
          ],
          [
            34.997747,
            32.811783
          ],
          [
            34.997722,
            32.811753
          ],
          [
            34.997705,
            32.811734
          ],
          [
            34.997674,
            32.811693
          ],
          [
            34.997647,
            32.811652
          ],
          [
            34.997643,
            32.811629
          ],
          [
            34.997642,
            32.811603
          ],
          [
            34.997643,
            32.811589
          ],
          [
            34.997645,
            32.811568
          ],
          [
            34.997661,
            32.811516
          ],
          [
            34.997774,
            32.811404
          ],
          [
            34.997895,
            32.811266
          ],
          [
            34.99796,
            32.811183
          ],
          [
            34.997974,
            32.810952
          ],
          [
            34.997956,
            32.810889
          ],
          [
            34.9979,
            32.810731
          ],
          [
            34.997618,
            32.810442
          ],
          [
            34.997444,
            32.810282
          ],
          [
            34.997166,
            32.809982
          ],
          [
            34.997072,
            32.809873
          ],
          [
            34.996966,
            32.809813
          ],
          [
            34.996861,
            32.809749
          ],
          [
            34.996504,
            32.809579
          ],
          [
            34.996311,
            32.80947
          ],
          [
            34.996236,
            32.80942
          ],
          [
            34.996141,
            32.809344
          ],
          [
            34.996065,
            32.809275
          ],
          [
            34.996016,
            32.809215
          ],
          [
            34.995974,
            32.809152
          ],
          [
            34.995629,
            32.808547
          ],
          [
            34.995524,
            32.808354
          ],
          [
            34.995463,
            32.808242
          ],
          [
            34.995392,
            32.808061
          ],
          [
            34.995257,
            32.807806
          ],
          [
            34.995158,
            32.80765
          ],
          [
            34.995143,
            32.807621
          ],
          [
            34.994987,
            32.807485
          ],
          [
            34.994924,
            32.807454
          ],
          [
            34.994897,
            32.807443
          ],
          [
            34.994841,
            32.807437
          ],
          [
            34.994754,
            32.807439
          ],
          [
            34.994713,
            32.807437
          ],
          [
            34.994683,
            32.807446
          ],
          [
            34.994474,
            32.807503
          ],
          [
            34.994206,
            32.807632
          ],
          [
            34.993981,
            32.807724
          ],
          [
            34.993806,
            32.807807
          ],
          [
            34.99369,
            32.807857
          ],
          [
            34.993304,
            32.808035
          ],
          [
            34.99297,
            32.808168
          ],
          [
            34.992755,
            32.808293
          ],
          [
            34.992743,
            32.808301
          ],
          [
            34.99273,
            32.808307
          ],
          [
            34.992715,
            32.808311
          ],
          [
            34.992705,
            32.808312
          ],
          [
            34.992694,
            32.808312
          ],
          [
            34.992475,
            32.808347
          ],
          [
            34.992299,
            32.808419
          ],
          [
            34.992159,
            32.808474
          ],
          [
            34.992036,
            32.808508
          ],
          [
            34.991966,
            32.808521
          ],
          [
            34.991889,
            32.808526
          ],
          [
            34.991628,
            32.808531
          ],
          [
            34.991528,
            32.808542
          ],
          [
            34.991425,
            32.808564
          ],
          [
            34.99133,
            32.808611
          ],
          [
            34.99123,
            32.808672
          ],
          [
            34.991066,
            32.808803
          ],
          [
            34.990896,
            32.809003
          ],
          [
            34.990642,
            32.809275
          ],
          [
            34.990554,
            32.809373
          ],
          [
            34.990474,
            32.809478
          ],
          [
            34.990361,
            32.809633
          ],
          [
            34.989883,
            32.81014
          ],
          [
            34.989778,
            32.810251
          ],
          [
            34.98963,
            32.810401
          ],
          [
            34.989529,
            32.810501
          ],
          [
            34.989396,
            32.810639
          ],
          [
            34.989227,
            32.810822
          ],
          [
            34.989049,
            32.810975
          ],
          [
            34.988984,
            32.811006
          ],
          [
            34.988923,
            32.81102
          ],
          [
            34.988872,
            32.811026
          ],
          [
            34.988861,
            32.811027
          ],
          [
            34.988786,
            32.811014
          ],
          [
            34.988706,
            32.810983
          ],
          [
            34.988657,
            32.810958
          ],
          [
            34.988617,
            32.810916
          ],
          [
            34.988592,
            32.810878
          ],
          [
            34.988576,
            32.810833
          ],
          [
            34.988564,
            32.810778
          ],
          [
            34.988568,
            32.810719
          ],
          [
            34.98865,
            32.810558
          ],
          [
            34.988741,
            32.810397
          ],
          [
            34.988883,
            32.810151
          ],
          [
            34.988991,
            32.80993
          ],
          [
            34.989068,
            32.809686
          ],
          [
            34.989237,
            32.809227
          ],
          [
            34.989394,
            32.808914
          ],
          [
            34.989514,
            32.808749
          ],
          [
            34.989561,
            32.808684
          ],
          [
            34.989656,
            32.808561
          ],
          [
            34.989794,
            32.808384
          ],
          [
            34.99021,
            32.807856
          ],
          [
            34.990351,
            32.807664
          ],
          [
            34.990617,
            32.807305
          ],
          [
            34.990792,
            32.80709
          ],
          [
            34.99093,
            32.806938
          ],
          [
            34.991056,
            32.806801
          ],
          [
            34.991209,
            32.806636
          ],
          [
            34.991389,
            32.806447
          ],
          [
            34.991448,
            32.806378
          ],
          [
            34.99156,
            32.80627
          ],
          [
            34.991721,
            32.806116
          ],
          [
            34.991808,
            32.806036
          ],
          [
            34.992243,
            32.805598
          ],
          [
            34.992301,
            32.80554
          ],
          [
            34.992513,
            32.805321
          ],
          [
            34.992566,
            32.805276
          ],
          [
            34.992628,
            32.805192
          ],
          [
            34.992643,
            32.805164
          ],
          [
            34.992659,
            32.805112
          ],
          [
            34.992647,
            32.805094
          ],
          [
            34.992641,
            32.805078
          ],
          [
            34.992638,
            32.805061
          ],
          [
            34.99264,
            32.805044
          ],
          [
            34.992644,
            32.805028
          ],
          [
            34.992653,
            32.805013
          ],
          [
            34.992665,
            32.804999
          ],
          [
            34.992622,
            32.804887
          ],
          [
            34.992552,
            32.804772
          ],
          [
            34.992533,
            32.804754
          ],
          [
            34.992371,
            32.804574
          ],
          [
            34.992298,
            32.804467
          ],
          [
            34.992241,
            32.804392
          ],
          [
            34.992206,
            32.804338
          ],
          [
            34.992177,
            32.80427
          ],
          [
            34.99216,
            32.8042
          ],
          [
            34.992151,
            32.804143
          ],
          [
            34.992144,
            32.804085
          ],
          [
            34.992141,
            32.804026
          ],
          [
            34.992148,
            32.803953
          ],
          [
            34.992177,
            32.803809
          ],
          [
            34.992257,
            32.803683
          ],
          [
            34.99235,
            32.803568
          ],
          [
            34.992528,
            32.803387
          ],
          [
            34.992606,
            32.803293
          ],
          [
            34.992643,
            32.803226
          ],
          [
            34.992679,
            32.803125
          ],
          [
            34.992728,
            32.80289
          ],
          [
            34.992753,
            32.802748
          ],
          [
            34.992776,
            32.802679
          ],
          [
            34.992809,
            32.802601
          ],
          [
            34.992857,
            32.802534
          ],
          [
            34.992925,
            32.802458
          ],
          [
            34.992977,
            32.802409
          ],
          [
            34.993036,
            32.802366
          ],
          [
            34.993232,
            32.80225
          ],
          [
            34.993373,
            32.802175
          ],
          [
            34.993443,
            32.802136
          ],
          [
            34.99362,
            32.802038
          ],
          [
            34.99402,
            32.801809
          ],
          [
            34.994199,
            32.801695
          ],
          [
            34.99477,
            32.80133
          ],
          [
            34.994878,
            32.80126
          ],
          [
            34.99539,
            32.800922
          ],
          [
            34.995696,
            32.800719
          ],
          [
            34.995999,
            32.800521
          ],
          [
            34.996138,
            32.800423
          ],
          [
            34.996218,
            32.800334
          ],
          [
            34.996259,
            32.800278
          ],
          [
            34.996286,
            32.800224
          ],
          [
            34.996303,
            32.800176
          ],
          [
            34.996304,
            32.800117
          ],
          [
            34.996288,
            32.800063
          ],
          [
            34.996247,
            32.8
          ],
          [
            34.996191,
            32.799958
          ],
          [
            34.996126,
            32.799928
          ],
          [
            34.996034,
            32.799915
          ],
          [
            34.99597,
            32.799919
          ],
          [
            34.995913,
            32.79993
          ],
          [
            34.995864,
            32.799951
          ],
          [
            34.995779,
            32.799997
          ],
          [
            34.995676,
            32.800064
          ],
          [
            34.995475,
            32.800196
          ],
          [
            34.995397,
            32.800242
          ],
          [
            34.994811,
            32.80058
          ],
          [
            34.994491,
            32.800764
          ],
          [
            34.994243,
            32.800895
          ],
          [
            34.994044,
            32.800979
          ],
          [
            34.993626,
            32.80117
          ],
          [
            34.992615,
            32.801551
          ],
          [
            34.992321,
            32.801676
          ],
          [
            34.992082,
            32.80178
          ],
          [
            34.991819,
            32.801871
          ],
          [
            34.99172,
            32.801918
          ],
          [
            34.991536,
            32.802029
          ],
          [
            34.991302,
            32.80219
          ],
          [
            34.991266,
            32.802235
          ],
          [
            34.991226,
            32.802275
          ],
          [
            34.991076,
            32.802407
          ],
          [
            34.991075,
            32.802416
          ],
          [
            34.991071,
            32.802429
          ],
          [
            34.991066,
            32.802437
          ],
          [
            34.991058,
            32.802448
          ],
          [
            34.991048,
            32.802457
          ],
          [
            34.991035,
            32.802465
          ],
          [
            34.99103,
            32.802467
          ],
          [
            34.990819,
            32.802686
          ],
          [
            34.99073,
            32.802827
          ],
          [
            34.990648,
            32.802973
          ],
          [
            34.99057,
            32.803104
          ],
          [
            34.990464,
            32.80327
          ],
          [
            34.990395,
            32.803362
          ],
          [
            34.990272,
            32.803558
          ],
          [
            34.990243,
            32.803683
          ],
          [
            34.990229,
            32.803743
          ],
          [
            34.990148,
            32.804206
          ],
          [
            34.990111,
            32.804297
          ],
          [
            34.990077,
            32.804353
          ],
          [
            34.989986,
            32.80446
          ],
          [
            34.989736,
            32.804739
          ],
          [
            34.989332,
            32.805151
          ],
          [
            34.989207,
            32.805288
          ],
          [
            34.989084,
            32.805411
          ],
          [
            34.988825,
            32.805669
          ],
          [
            34.988777,
            32.805718
          ],
          [
            34.988678,
            32.805831
          ],
          [
            34.988621,
            32.805857
          ],
          [
            34.988588,
            32.805869
          ],
          [
            34.988536,
            32.805874
          ],
          [
            34.988491,
            32.805866
          ],
          [
            34.988457,
            32.805849
          ],
          [
            34.988419,
            32.805822
          ],
          [
            34.988348,
            32.805764
          ],
          [
            34.988276,
            32.805661
          ],
          [
            34.988151,
            32.80547
          ],
          [
            34.988115,
            32.805425
          ],
          [
            34.988042,
            32.80531
          ],
          [
            34.987949,
            32.805179
          ],
          [
            34.987885,
            32.805097
          ],
          [
            34.98783,
            32.805037
          ],
          [
            34.987752,
            32.804903
          ],
          [
            34.987741,
            32.804789
          ],
          [
            34.987703,
            32.804646
          ],
          [
            34.987609,
            32.8045
          ],
          [
            34.987154,
            32.804001
          ],
          [
            34.987106,
            32.803939
          ],
          [
            34.986993,
            32.803801
          ],
          [
            34.986698,
            32.803427
          ],
          [
            34.986634,
            32.803347
          ],
          [
            34.986591,
            32.803293
          ],
          [
            34.986542,
            32.803225
          ],
          [
            34.98642,
            32.803154
          ],
          [
            34.986333,
            32.80311
          ],
          [
            34.986163,
            32.803046
          ],
          [
            34.986053,
            32.803001
          ],
          [
            34.986042,
            32.802997
          ],
          [
            34.986007,
            32.802985
          ],
          [
            34.985944,
            32.802971
          ],
          [
            34.98584,
            32.802956
          ],
          [
            34.985759,
            32.802948
          ],
          [
            34.98563,
            32.802947
          ],
          [
            34.985525,
            32.802953
          ],
          [
            34.985394,
            32.802965
          ],
          [
            34.985272,
            32.802981
          ],
          [
            34.985187,
            32.802989
          ],
          [
            34.985135,
            32.802991
          ],
          [
            34.985082,
            32.802993
          ],
          [
            34.985027,
            32.802994
          ],
          [
            34.984981,
            32.802992
          ],
          [
            34.984921,
            32.802985
          ],
          [
            34.984864,
            32.802966
          ],
          [
            34.984822,
            32.802948
          ],
          [
            34.98478,
            32.802923
          ],
          [
            34.984734,
            32.80289
          ],
          [
            34.984698,
            32.802856
          ],
          [
            34.984655,
            32.802812
          ],
          [
            34.984436,
            32.802566
          ],
          [
            34.98415,
            32.802249
          ],
          [
            34.98406,
            32.802136
          ],
          [
            34.983973,
            32.802039
          ],
          [
            34.98389,
            32.801938
          ],
          [
            34.983853,
            32.801872
          ],
          [
            34.983819,
            32.801807
          ],
          [
            34.983792,
            32.80174
          ],
          [
            34.983776,
            32.801657
          ],
          [
            34.983765,
            32.801511
          ],
          [
            34.983778,
            32.801308
          ],
          [
            34.983877,
            32.800956
          ],
          [
            34.984217,
            32.800541
          ],
          [
            34.98438,
            32.800311
          ],
          [
            34.984436,
            32.800235
          ],
          [
            34.984547,
            32.800085
          ],
          [
            34.984658,
            32.799816
          ],
          [
            34.984727,
            32.799492
          ],
          [
            34.984741,
            32.799335
          ],
          [
            34.984683,
            32.798933
          ],
          [
            34.98464,
            32.798743
          ],
          [
            34.984512,
            32.798311
          ],
          [
            34.984412,
            32.797998
          ],
          [
            34.98435,
            32.797849
          ],
          [
            34.984263,
            32.79759
          ],
          [
            34.984211,
            32.797431
          ],
          [
            34.984173,
            32.797156
          ],
          [
            34.984173,
            32.797077
          ],
          [
            34.984176,
            32.797029
          ],
          [
            34.984192,
            32.796959
          ],
          [
            34.98421,
            32.796909
          ],
          [
            34.984317,
            32.796598
          ],
          [
            34.984382,
            32.796434
          ],
          [
            34.984412,
            32.796359
          ],
          [
            34.984796,
            32.795457
          ],
          [
            34.984927,
            32.795084
          ],
          [
            34.985084,
            32.794693
          ],
          [
            34.985359,
            32.794063
          ],
          [
            34.986043,
            32.792874
          ],
          [
            34.986092,
            32.792762
          ],
          [
            34.986194,
            32.792358
          ],
          [
            34.986251,
            32.792083
          ],
          [
            34.986317,
            32.79177
          ],
          [
            34.986374,
            32.791499
          ],
          [
            34.986442,
            32.790778
          ],
          [
            34.986498,
            32.790079
          ],
          [
            34.986489,
            32.790066
          ],
          [
            34.986478,
            32.790049
          ],
          [
            34.98647,
            32.79003
          ],
          [
            34.986464,
            32.790011
          ],
          [
            34.986461,
            32.789991
          ],
          [
            34.986461,
            32.78997
          ],
          [
            34.986463,
            32.78995
          ],
          [
            34.986468,
            32.789929
          ],
          [
            34.986474,
            32.789911
          ],
          [
            34.986484,
            32.789893
          ],
          [
            34.986495,
            32.789876
          ],
          [
            34.986502,
            32.789868
          ],
          [
            34.986515,
            32.789855
          ],
          [
            34.98656,
            32.789704
          ],
          [
            34.986603,
            32.789558
          ],
          [
            34.986607,
            32.789464
          ],
          [
            34.986587,
            32.789211
          ],
          [
            34.986613,
            32.788741
          ],
          [
            34.986602,
            32.788655
          ],
          [
            34.986568,
            32.788557
          ],
          [
            34.986519,
            32.788466
          ],
          [
            34.986513,
            32.788453
          ],
          [
            34.986438,
            32.788337
          ],
          [
            34.986308,
            32.788156
          ],
          [
            34.985617,
            32.78749
          ],
          [
            34.985585,
            32.787457
          ],
          [
            34.985551,
            32.787391
          ],
          [
            34.985533,
            32.787298
          ],
          [
            34.985503,
            32.787063
          ],
          [
            34.985511,
            32.786848
          ],
          [
            34.985534,
            32.786637
          ],
          [
            34.98558,
            32.786432
          ],
          [
            34.985652,
            32.786043
          ],
          [
            34.985791,
            32.785649
          ],
          [
            34.985911,
            32.785349
          ],
          [
            34.985976,
            32.785223
          ],
          [
            34.986092,
            32.784999
          ],
          [
            34.986174,
            32.784876
          ],
          [
            34.986407,
            32.784582
          ],
          [
            34.986484,
            32.784474
          ],
          [
            34.986609,
            32.784306
          ],
          [
            34.986847,
            32.783927
          ],
          [
            34.986862,
            32.783869
          ],
          [
            34.986879,
            32.783825
          ],
          [
            34.986935,
            32.783743
          ],
          [
            34.986995,
            32.783645
          ],
          [
            34.987018,
            32.783597
          ],
          [
            34.987029,
            32.783555
          ],
          [
            34.987037,
            32.783526
          ],
          [
            34.987045,
            32.783475
          ],
          [
            34.987047,
            32.783408
          ],
          [
            34.987044,
            32.78337
          ],
          [
            34.987044,
            32.783336
          ],
          [
            34.987049,
            32.783291
          ],
          [
            34.987062,
            32.783236
          ],
          [
            34.987073,
            32.783197
          ],
          [
            34.987101,
            32.783142
          ],
          [
            34.987172,
            32.783014
          ],
          [
            34.987277,
            32.782867
          ],
          [
            34.987381,
            32.782751
          ],
          [
            34.98754,
            32.782561
          ],
          [
            34.987591,
            32.782501
          ],
          [
            34.98772,
            32.782347
          ],
          [
            34.987819,
            32.782172
          ],
          [
            34.987861,
            32.78206
          ],
          [
            34.987883,
            32.781896
          ],
          [
            34.98788,
            32.781754
          ],
          [
            34.987796,
            32.781557
          ],
          [
            34.987638,
            32.78121
          ],
          [
            34.987615,
            32.781149
          ],
          [
            34.987606,
            32.781088
          ],
          [
            34.987603,
            32.781022
          ],
          [
            34.987603,
            32.780969
          ],
          [
            34.987619,
            32.780914
          ],
          [
            34.987655,
            32.780839
          ],
          [
            34.987696,
            32.780788
          ],
          [
            34.987731,
            32.780752
          ],
          [
            34.987787,
            32.780711
          ],
          [
            34.987832,
            32.780681
          ],
          [
            34.987888,
            32.780653
          ],
          [
            34.98797,
            32.780621
          ],
          [
            34.988132,
            32.780573
          ],
          [
            34.98848,
            32.780489
          ],
          [
            34.988664,
            32.780421
          ],
          [
            34.988783,
            32.780332
          ],
          [
            34.988861,
            32.780249
          ],
          [
            34.988893,
            32.780166
          ],
          [
            34.988911,
            32.78008
          ],
          [
            34.988904,
            32.780015
          ],
          [
            34.988872,
            32.779931
          ],
          [
            34.98877,
            32.77983
          ],
          [
            34.988098,
            32.779447
          ],
          [
            34.987765,
            32.779254
          ],
          [
            34.987309,
            32.778887
          ],
          [
            34.987001,
            32.77862
          ],
          [
            34.986821,
            32.778474
          ],
          [
            34.986812,
            32.778466
          ],
          [
            34.986658,
            32.778287
          ],
          [
            34.986429,
            32.77802
          ],
          [
            34.986201,
            32.777741
          ],
          [
            34.985991,
            32.777484
          ],
          [
            34.985495,
            32.776911
          ],
          [
            34.985188,
            32.776559
          ],
          [
            34.984992,
            32.776372
          ],
          [
            34.984805,
            32.776241
          ],
          [
            34.984654,
            32.776175
          ],
          [
            34.984503,
            32.776112
          ],
          [
            34.984359,
            32.776088
          ],
          [
            34.984173,
            32.776079
          ],
          [
            34.984022,
            32.776094
          ],
          [
            34.983824,
            32.776153
          ],
          [
            34.983672,
            32.776229
          ],
          [
            34.983572,
            32.776298
          ],
          [
            34.983487,
            32.776384
          ],
          [
            34.983377,
            32.776526
          ],
          [
            34.983299,
            32.776716
          ],
          [
            34.983282,
            32.776776
          ],
          [
            34.98326,
            32.776891
          ],
          [
            34.983245,
            32.777263
          ],
          [
            34.983241,
            32.777438
          ],
          [
            34.983206,
            32.777655
          ],
          [
            34.983128,
            32.777809
          ],
          [
            34.983033,
            32.777958
          ],
          [
            34.982916,
            32.778088
          ],
          [
            34.982765,
            32.778201
          ],
          [
            34.982543,
            32.778298
          ],
          [
            34.982335,
            32.778336
          ],
          [
            34.980924,
            32.77849
          ],
          [
            34.980752,
            32.778509
          ],
          [
            34.980637,
            32.778524
          ],
          [
            34.980531,
            32.778538
          ],
          [
            34.980341,
            32.778575
          ],
          [
            34.980235,
            32.778606
          ],
          [
            34.980021,
            32.778683
          ],
          [
            34.979908,
            32.778757
          ],
          [
            34.979717,
            32.778926
          ],
          [
            34.97958,
            32.779166
          ],
          [
            34.979484,
            32.779425
          ],
          [
            34.979448,
            32.779635
          ],
          [
            34.979476,
            32.779894
          ],
          [
            34.979495,
            32.779961
          ],
          [
            34.979513,
            32.780013
          ],
          [
            34.979571,
            32.780114
          ],
          [
            34.979771,
            32.780386
          ],
          [
            34.979991,
            32.78071
          ],
          [
            34.98002,
            32.780779
          ],
          [
            34.980054,
            32.780904
          ],
          [
            34.980062,
            32.78098
          ],
          [
            34.980069,
            32.781055
          ],
          [
            34.980066,
            32.78115
          ],
          [
            34.980062,
            32.781218
          ],
          [
            34.980048,
            32.781306
          ],
          [
            34.980023,
            32.781399
          ],
          [
            34.979975,
            32.781519
          ],
          [
            34.979912,
            32.781621
          ],
          [
            34.979819,
            32.781745
          ],
          [
            34.979686,
            32.781871
          ],
          [
            34.979622,
            32.781926
          ],
          [
            34.97946,
            32.782021
          ],
          [
            34.979199,
            32.782151
          ],
          [
            34.978872,
            32.782246
          ],
          [
            34.97852,
            32.782308
          ],
          [
            34.978169,
            32.782319
          ],
          [
            34.978043,
            32.782318
          ],
          [
            34.97787,
            32.782316
          ],
          [
            34.977711,
            32.7823
          ],
          [
            34.977621,
            32.782286
          ],
          [
            34.976509,
            32.78212
          ],
          [
            34.97621,
            32.782077
          ],
          [
            34.975838,
            32.782068
          ],
          [
            34.975433,
            32.782112
          ],
          [
            34.97512,
            32.782185
          ],
          [
            34.974761,
            32.782339
          ],
          [
            34.974465,
            32.782517
          ],
          [
            34.974247,
            32.782662
          ],
          [
            34.973968,
            32.782944
          ],
          [
            34.973753,
            32.783185
          ],
          [
            34.973528,
            32.783526
          ],
          [
            34.973257,
            32.784031
          ],
          [
            34.973198,
            32.784288
          ],
          [
            34.973189,
            32.7852
          ],
          [
            34.97321,
            32.786371
          ],
          [
            34.973199,
            32.786564
          ],
          [
            34.973146,
            32.78676
          ],
          [
            34.973075,
            32.786929
          ],
          [
            34.972987,
            32.787104
          ],
          [
            34.97281,
            32.787294
          ],
          [
            34.972525,
            32.787495
          ],
          [
            34.972275,
            32.787602
          ],
          [
            34.972039,
            32.787667
          ],
          [
            34.971709,
            32.787696
          ],
          [
            34.971297,
            32.787692
          ],
          [
            34.971054,
            32.787683
          ],
          [
            34.970651,
            32.787704
          ],
          [
            34.970634,
            32.787705
          ],
          [
            34.970409,
            32.787751
          ],
          [
            34.97032,
            32.787777
          ],
          [
            34.970171,
            32.787821
          ],
          [
            34.969794,
            32.787988
          ],
          [
            34.969752,
            32.788007
          ],
          [
            34.969452,
            32.788213
          ],
          [
            34.969105,
            32.788557
          ],
          [
            34.968878,
            32.788793
          ],
          [
            34.967738,
            32.789835
          ],
          [
            34.96757,
            32.789976
          ],
          [
            34.967397,
            32.790118
          ],
          [
            34.967273,
            32.790205
          ],
          [
            34.967197,
            32.790253
          ],
          [
            34.967121,
            32.790286
          ],
          [
            34.966974,
            32.790334
          ],
          [
            34.966818,
            32.790367
          ],
          [
            34.966547,
            32.790395
          ],
          [
            34.96643,
            32.790398
          ],
          [
            34.965698,
            32.790398
          ],
          [
            34.965357,
            32.790398
          ],
          [
            34.965281,
            32.790398
          ],
          [
            34.964922,
            32.790402
          ],
          [
            34.964611,
            32.790395
          ],
          [
            34.964453,
            32.790395
          ],
          [
            34.964173,
            32.790397
          ],
          [
            34.963185,
            32.790383
          ],
          [
            34.963063,
            32.790373
          ],
          [
            34.962273,
            32.790356
          ],
          [
            34.962185,
            32.790362
          ],
          [
            34.962103,
            32.790363
          ],
          [
            34.961669,
            32.790356
          ],
          [
            34.961396,
            32.790343
          ],
          [
            34.961088,
            32.790327
          ],
          [
            34.960794,
            32.790305
          ],
          [
            34.960338,
            32.790255
          ],
          [
            34.960274,
            32.790247
          ],
          [
            34.960217,
            32.790243
          ],
          [
            34.959962,
            32.790247
          ],
          [
            34.959612,
            32.790236
          ],
          [
            34.959414,
            32.790239
          ],
          [
            34.959322,
            32.790248
          ],
          [
            34.959243,
            32.790258
          ],
          [
            34.959171,
            32.790277
          ],
          [
            34.959118,
            32.790296
          ],
          [
            34.959033,
            32.790338
          ],
          [
            34.958971,
            32.790371
          ],
          [
            34.958922,
            32.790415
          ],
          [
            34.958872,
            32.790467
          ],
          [
            34.958832,
            32.790513
          ],
          [
            34.958777,
            32.790613
          ],
          [
            34.958733,
            32.790701
          ],
          [
            34.958583,
            32.791034
          ],
          [
            34.958562,
            32.791109
          ],
          [
            34.958551,
            32.791147
          ],
          [
            34.9585,
            32.791279
          ],
          [
            34.958441,
            32.791394
          ],
          [
            34.958366,
            32.791488
          ],
          [
            34.958188,
            32.791677
          ],
          [
            34.95813,
            32.791728
          ],
          [
            34.958065,
            32.79179
          ],
          [
            34.957999,
            32.791836
          ],
          [
            34.95792,
            32.791913
          ],
          [
            34.957881,
            32.791961
          ],
          [
            34.957831,
            32.792024
          ],
          [
            34.957783,
            32.792098
          ],
          [
            34.957737,
            32.792185
          ],
          [
            34.957721,
            32.792231
          ],
          [
            34.957707,
            32.792282
          ],
          [
            34.957701,
            32.792308
          ],
          [
            34.957687,
            32.792386
          ],
          [
            34.95768,
            32.792433
          ],
          [
            34.957683,
            32.792558
          ],
          [
            34.957723,
            32.792638
          ],
          [
            34.957743,
            32.79267
          ],
          [
            34.957763,
            32.792695
          ],
          [
            34.957802,
            32.792736
          ],
          [
            34.957842,
            32.792766
          ],
          [
            34.957879,
            32.792788
          ],
          [
            34.95792,
            32.792805
          ],
          [
            34.957965,
            32.792813
          ],
          [
            34.958019,
            32.792819
          ],
          [
            34.958096,
            32.792817
          ],
          [
            34.958198,
            32.792808
          ],
          [
            34.958668,
            32.792745
          ],
          [
            34.958816,
            32.792743
          ],
          [
            34.958936,
            32.792752
          ],
          [
            34.958996,
            32.792763
          ],
          [
            34.959026,
            32.792768
          ],
          [
            34.959115,
            32.792788
          ],
          [
            34.959214,
            32.792815
          ],
          [
            34.959336,
            32.792864
          ],
          [
            34.959465,
            32.792924
          ],
          [
            34.959578,
            32.79298
          ],
          [
            34.959664,
            32.793026
          ],
          [
            34.959738,
            32.793094
          ],
          [
            34.959762,
            32.79312
          ],
          [
            34.959784,
            32.79315
          ],
          [
            34.959798,
            32.793181
          ],
          [
            34.959801,
            32.793196
          ],
          [
            34.959805,
            32.793213
          ],
          [
            34.959804,
            32.79324
          ],
          [
            34.959793,
            32.793265
          ],
          [
            34.959774,
            32.793286
          ],
          [
            34.959742,
            32.793305
          ],
          [
            34.959702,
            32.793323
          ],
          [
            34.959587,
            32.793323
          ]
        ]
      }
    },
    {
      "type": "Feature",
      "properties": {
        "type": "original_route_stop",
        "stop_code": "41533",
        "stop_name": "ת. מרכזית המפרץ/רציפים עירוני",
        "marker-color": "#2ca02c",
        "marker-symbol": "bus",
        "marker-size": "medium"
      },
      "geometry": {
        "type": "Point",
        "coordinates": [
          35.034779,
          32.792678
        ]
      }
    },
    {
      "type": "Feature",
      "properties": {
        "type": "original_route_stop",
        "stop_code": "47409",
        "stop_name": "שדרות ההסתדרות/צומת הקריות",
        "marker-color": "#2ca02c",
        "marker-symbol": "bus",
        "marker-size": "medium"
      },
      "geometry": {
        "type": "Point",
        "coordinates": [
          35.028864,
          32.789491
        ]
      }
    },
    {
      "type": "Feature",
      "properties": {
        "type": "original_route_stop",
        "stop_code": "41260",
        "stop_name": "בר יהודה/גשר גדוד 21",
        "marker-color": "#2ca02c",
        "marker-symbol": "bus",
        "marker-size": "medium"
      },
      "geometry": {
        "type": "Point",
        "coordinates": [
          35.022022,
          32.795491
        ]
      }
    },
    {
      "type": "Feature",
      "properties": {
        "type": "original_route_stop",
        "stop_code": "47490",
        "stop_name": "גשר פז",
        "marker-color": "#2ca02c",
        "marker-symbol": "bus",
        "marker-size": "medium"
      },
      "geometry": {
        "type": "Point",
        "coordinates": [
          35.018137,
          32.798759
        ]
      }
    },
    {
      "type": "Feature",
      "properties": {
        "type": "original_route_stop",
        "stop_code": "47577",
        "stop_name": "הגיבורים",
        "marker-color": "#2ca02c",
        "marker-symbol": "bus",
        "marker-size": "medium"
      },
      "geometry": {
        "type": "Point",
        "coordinates": [
          35.012629,
          32.800713
        ]
      }
    },
    {
      "type": "Feature",
      "properties": {
        "type": "original_route_stop",
        "stop_code": "41630",
        "stop_name": "ארלוזורוב/בר גיורא",
        "marker-color": "#2ca02c",
        "marker-symbol": "bus",
        "marker-size": "medium"
      },
      "geometry": {
        "type": "Point",
        "coordinates": [
          34.992432,
          32.808415
        ]
      }
    },
    {
      "type": "Feature",
      "properties": {
        "type": "original_route_stop",
        "stop_code": "41695",
        "stop_name": "גולומב/ראובן",
        "marker-color": "#2ca02c",
        "marker-symbol": "bus",
        "marker-size": "medium"
      },
      "geometry": {
        "type": "Point",
        "coordinates": [
          34.99006,
          32.810024
        ]
      }
    },
    {
      "type": "Feature",
      "properties": {
        "type": "original_route_stop",
        "stop_code": "41124",
        "stop_name": "תחנת כרמלית/גולומב",
        "marker-color": "#2ca02c",
        "marker-symbol": "bus",
        "marker-size": "medium"
      },
      "geometry": {
        "type": "Point",
        "coordinates": [
          34.989778,
          32.808323
        ]
      }
    },
    {
      "type": "Feature",
      "properties": {
        "type": "original_route_stop",
        "stop_code": "42166",
        "stop_name": "בית חולים בני ציון/גולומב",
        "marker-color": "#2ca02c",
        "marker-symbol": "bus",
        "marker-size": "medium"
      },
      "geometry": {
        "type": "Point",
        "coordinates": [
          34.991901,
          32.805872
        ]
      }
    },
    {
      "type": "Feature",
      "properties": {
        "type": "original_route_stop",
        "stop_code": "41125",
        "stop_name": "מרפאות חוץ/וינגייט",
        "marker-color": "#2ca02c",
        "marker-symbol": "bus",
        "marker-size": "medium"
      },
      "geometry": {
        "type": "Point",
        "coordinates": [
          34.992401,
          32.804682
        ]
      }
    },
    {
      "type": "Feature",
      "properties": {
        "type": "original_route_stop",
        "stop_code": "41076",
        "stop_name": "וינגייט/חנה סנש",
        "marker-color": "#2ca02c",
        "marker-symbol": "bus",
        "marker-size": "medium"
      },
      "geometry": {
        "type": "Point",
        "coordinates": [
          34.99388,
          32.801835
        ]
      }
    },
    {
      "type": "Feature",
      "properties": {
        "type": "original_route_stop",
        "stop_code": "41559",
        "stop_name": "קיש/האסיף",
        "marker-color": "#2ca02c",
        "marker-symbol": "bus",
        "marker-size": "medium"
      },
      "geometry": {
        "type": "Point",
        "coordinates": [
          34.994715,
          32.80069
        ]
      }
    },
    {
      "type": "Feature",
      "properties": {
        "type": "original_route_stop",
        "stop_code": "41560",
        "stop_name": "קיש/הנרייטה סאלד",
        "marker-color": "#2ca02c",
        "marker-symbol": "bus",
        "marker-size": "medium"
      },
      "geometry": {
        "type": "Point",
        "coordinates": [
          34.993051,
          32.801436
        ]
      }
    },
    {
      "type": "Feature",
      "properties": {
        "type": "original_route_stop",
        "stop_code": "42223",
        "stop_name": "קיש/יפה נוף",
        "marker-color": "#2ca02c",
        "marker-symbol": "bus",
        "marker-size": "medium"
      },
      "geometry": {
        "type": "Point",
        "coordinates": [
          34.991337,
          32.802226
        ]
      }
    },
    {
      "type": "Feature",
      "properties": {
        "type": "original_route_stop",
        "stop_code": "41558",
        "stop_name": "יפה נוף/גדרה",
        "marker-color": "#2ca02c",
        "marker-symbol": "bus",
        "marker-size": "medium"
      },
      "geometry": {
        "type": "Point",
        "coordinates": [
          34.989501,
          32.805049
        ]
      }
    },
    {
      "type": "Feature",
      "properties": {
        "type": "original_route_stop",
        "stop_code": "42368",
        "stop_name": "תחנת כרמלית/מרכז הכרמל",
        "marker-color": "#2ca02c",
        "marker-symbol": "bus",
        "marker-size": "medium"
      },
      "geometry": {
        "type": "Point",
        "coordinates": [
          34.98744,
          32.804389
        ]
      }
    },
    {
      "type": "Feature",
      "properties": {
        "type": "original_route_stop",
        "stop_code": "43091",
        "stop_name": "מרכז הכרמל/אודיטוריום",
        "marker-color": "#2ca02c",
        "marker-symbol": "bus",
        "marker-size": "medium"
      },
      "geometry": {
        "type": "Point",
        "coordinates": [
          34.986717,
          32.803532
        ]
      }
    },
    {
      "type": "Feature",
      "properties": {
        "type": "original_route_stop",
        "stop_code": "41786",
        "stop_name": "שדרות מוריה/הברושים",
        "marker-color": "#2ca02c",
        "marker-symbol": "bus",
        "marker-size": "medium"
      },
      "geometry": {
        "type": "Point",
        "coordinates": [
          34.983813,
          32.801906
        ]
      }
    },
    {
      "type": "Feature",
      "properties": {
        "type": "original_route_stop",
        "stop_code": "41031",
        "stop_name": "מוריה/צפרירים",
        "marker-color": "#2ca02c",
        "marker-symbol": "bus",
        "marker-size": "medium"
      },
      "geometry": {
        "type": "Point",
        "coordinates": [
          34.984206,
          32.797583
        ]
      }
    },
    {
      "type": "Feature",
      "properties": {
        "type": "original_route_stop",
        "stop_code": "41009",
        "stop_name": "מוריה/זרובבל",
        "marker-color": "#2ca02c",
        "marker-symbol": "bus",
        "marker-size": "medium"
      },
      "geometry": {
        "type": "Point",
        "coordinates": [
          34.985212,
          32.79427
        ]
      }
    },
    {
      "type": "Feature",
      "properties": {
        "type": "original_route_stop",
        "stop_code": "41010",
        "stop_name": "מוריה/נחשון",
        "marker-color": "#2ca02c",
        "marker-symbol": "bus",
        "marker-size": "medium"
      },
      "geometry": {
        "type": "Point",
        "coordinates": [
          34.986255,
          32.791805
        ]
      }
    },
    {
      "type": "Feature",
      "properties": {
        "type": "original_route_stop",
        "stop_code": "40986",
        "stop_name": "מוריה/קרית ספר",
        "marker-color": "#2ca02c",
        "marker-symbol": "bus",
        "marker-size": "medium"
      },
      "geometry": {
        "type": "Point",
        "coordinates": [
          34.986546,
          32.788997
        ]
      }
    },
    {
      "type": "Feature",
      "properties": {
        "type": "original_route_stop",
        "stop_code": "40979",
        "stop_name": "חורב/מאפו",
        "marker-color": "#2ca02c",
        "marker-symbol": "bus",
        "marker-size": "medium"
      },
      "geometry": {
        "type": "Point",
        "coordinates": [
          34.985451,
          32.787024
        ]
      }
    },
    {
      "type": "Feature",
      "properties": {
        "type": "original_route_stop",
        "stop_code": "40976",
        "stop_name": "מרכז חורב/חורב",
        "marker-color": "#2ca02c",
        "marker-symbol": "bus",
        "marker-size": "medium"
      },
      "geometry": {
        "type": "Point",
        "coordinates": [
          34.986637,
          32.784166
        ]
      }
    },
    {
      "type": "Feature",
      "properties": {
        "type": "original_route_stop",
        "stop_code": "42367",
        "stop_name": "פרויד/ויתקין",
        "marker-color": "#2ca02c",
        "marker-symbol": "bus",
        "marker-size": "medium"
      },
      "geometry": {
        "type": "Point",
        "coordinates": [
          34.987604,
          32.782407
        ]
      }
    },
    {
      "type": "Feature",
      "properties": {
        "type": "original_route_stop",
        "stop_code": "42661",
        "stop_name": "וינשל/ולנברג",
        "marker-color": "#2ca02c",
        "marker-symbol": "bus",
        "marker-size": "medium"
      },
      "geometry": {
        "type": "Point",
        "coordinates": [
          34.986316,
          32.777961
        ]
      }
    },
    {
      "type": "Feature",
      "properties": {
        "type": "original_route_stop",
        "stop_code": "42388",
        "stop_name": "פלימן/ולנברג",
        "marker-color": "#2ca02c",
        "marker-symbol": "bus",
        "marker-size": "medium"
      },
      "geometry": {
        "type": "Point",
        "coordinates": [
          34.980137,
          32.77869
        ]
      }
    },
    {
      "type": "Feature",
      "properties": {
        "type": "original_route_stop",
        "stop_code": "42825",
        "stop_name": "קניון קסטרא/פלימן",
        "marker-color": "#2ca02c",
        "marker-symbol": "bus",
        "marker-size": "medium"
      },
      "geometry": {
        "type": "Point",
        "coordinates": [
          34.970601,
          32.787758
        ]
      }
    },
    {
      "type": "Feature",
      "properties": {
        "type": "original_route_stop",
        "stop_code": "42506",
        "stop_name": "מרכז הקונגרסים/פלימן",
        "marker-color": "#2ca02c",
        "marker-symbol": "bus",
        "marker-size": "medium"
      },
      "geometry": {
        "type": "Point",
        "coordinates": [
          34.965229,
          32.790444
        ]
      }
    },
    {
      "type": "Feature",
      "properties": {
        "type": "original_route_stop",
        "stop_code": "42656",
        "stop_name": "מת''מ",
        "marker-color": "#2ca02c",
        "marker-symbol": "bus",
        "marker-size": "medium"
      },
      "geometry": {
        "type": "Point",
        "coordinates": [
          34.96134,
          32.790385
        ]
      }
    },
    {
      "type": "Feature",
      "properties": {
        "type": "original_route_stop",
        "stop_code": "42501",
        "stop_name": "סחרוב",
        "marker-color": "#2ca02c",
        "marker-symbol": "bus",
        "marker-size": "medium"
      },
      "geometry": {
        "type": "Point",
        "coordinates": [
          34.958675,
          32.790898
        ]
      }
    },
    {
      "type": "Feature",
      "properties": {
        "type": "original_route_stop",
        "stop_code": "42657",
        "stop_name": "ת. מרכזית חוף הכרמל/הורדה",
        "marker-color": "#2ca02c",
        "marker-symbol": "bus",
        "marker-size": "medium"
      },
      "geometry": {
        "type": "Point",
        "coordinates": [
          34.959587,
          32.793368
        ]
      }
    },
    {
      "type": "Feature",
      "properties": {
        "type": "cancelled_stop",
        "stop_code": "43095",
        "stop_name": "יל''ג/הקישון",
        "marker-color": "#ff0000",
        "marker-symbol": "bus",
        "marker-size": "medium"
      },
      "geometry": {
        "type": "Point",
        "coordinates": [
          35.004505,
          32.80474
        ]
      }
    },
    {
      "type": "Feature",
      "properties": {
        "type": "cancelled_stop",
        "stop_code": "43092",
        "stop_name": "שוק תלפיות",
        "marker-color": "#ff0000",
        "marker-symbol": "bus",
        "marker-size": "medium"
      },
      "geometry": {
        "type": "Point",
        "coordinates": [
          35.001589,
          32.808165
        ]
      }
    },
    {
      "type": "Feature",
      "properties": {
        "type": "cancelled_stop",
        "stop_code": "41281",
        "stop_name": "החלוץ/דבורה",
        "marker-color": "#ff0000",
        "marker-symbol": "bus",
        "marker-size": "medium"
      },
      "geometry": {
        "type": "Point",
        "coordinates": [
          34.999164,
          32.810365
        ]
      }
    },
    {
      "type": "Feature",
      "properties": {
        "type": "cancelled_stop",
        "stop_code": "41163",
        "stop_name": "מדעטק/בלפור",
        "marker-color": "#ff0000",
        "marker-symbol": "bus",
        "marker-size": "medium"
      },
      "geometry": {
        "type": "Point",
        "coordinates": [
          34.996176,
          32.809435
        ]
      }
    },
    {
      "type": "Feature",
      "properties": {
        "type": "new_stop",
        "stop_code": "47222",
        "stop_name": "בית התעשייה",
        "marker-color": "#1f9ed6",
        "marker-symbol": "bus",
        "marker-size": "medium"
      },
      "geometry": {
        "type": "Point",
        "coordinates": [
          35.003338,
          32.804861
        ]
      }
    },
    {
      "type": "Feature",
      "properties": {
        "type": "new_stop",
        "stop_code": "41698",
        "stop_name": "שוק תלפיות/ארלוזורוב",
        "marker-color": "#1f9ed6",
        "marker-symbol": "bus",
        "marker-size": "medium"
      },
      "geometry": {
        "type": "Point",
        "coordinates": [
          35.000565,
          32.807448
        ]
      }
    },
    {
      "type": "Feature",
      "properties": {
        "type": "new_stop",
        "stop_code": "42698",
        "stop_name": "ארלוזורוב/מיכאל",
        "marker-color": "#1f9ed6",
        "marker-symbol": "bus",
        "marker-size": "medium"
      },
      "geometry": {
        "type": "Point",
        "coordinates": [
          35.000709,
          32.805854
        ]
      }
    },
    {
      "type": "Feature",
      "properties": {
        "type": "new_stop",
        "stop_code": "41250",
        "stop_name": "ארלוזורוב/גאולה",
        "marker-color": "#1f9ed6",
        "marker-symbol": "bus",
        "marker-size": "medium"
      },
      "geometry": {
        "type": "Point",
        "coordinates": [
          34.998293,
          32.805373
        ]
      }
    },
    {
      "type": "Feature",
      "properties": {
        "type": "new_stop",
        "stop_code": "41251",
        "stop_name": "ארלוזורוב/בלפור",
        "marker-color": "#1f9ed6",
        "marker-symbol": "bus",
        "marker-size": "medium"
      },
      "geometry": {
        "type": "Point",
        "coordinates": [
          34.995586,
          32.807177
        ]
      }
    },
    {
      "type": "Feature",
      "properties": {
        "type": "reported_block_stop",
        "stop_code": "43095",
        "stop_name": "יל''ג/הקישון",
        "marker-color": "#ff8800",
        "marker-symbol": "bus",
        "marker-size": "medium"
      },
      "geometry": {
        "type": "Point",
        "coordinates": [
          35.004505,
          32.80474
        ]
      }
    },
    {
      "type": "Feature",
      "properties": {
        "type": "reported_block_stop",
        "stop_code": "43092",
        "stop_name": "שוק תלפיות",
        "marker-color": "#ff8800",
        "marker-symbol": "bus",
        "marker-size": "medium"
      },
      "geometry": {
        "type": "Point",
        "coordinates": [
          35.001589,
          32.808165
        ]
      }
    },
    {
      "type": "Feature",
      "properties": {
        "type": "deviate_from_stop",
        "stop_code": "43115",
        "stop_name": "חליסה",
        "marker-color": "#8000ff",
        "marker-symbol": "bus",
        "marker-size": "medium"
      },
      "geometry": {
        "type": "Point",
        "coordinates": [
          35.008786,
          32.803026
        ]
      }
    },
    {
      "type": "Feature",
      "properties": {
        "type": "deviate_to_stop",
        "stop_code": "41565",
        "stop_name": "ארלוזורוב/בלפור",
        "marker-color": "#8000ff",
        "marker-symbol": "bus",
        "marker-size": "medium"
      },
      "geometry": {
        "type": "Point",
        "coordinates": [
          34.994034,
          32.807753
        ]
      }
    }
  ]
}