{
  "type": "FeatureCollection",
  "features": [
    {
      "type": "Feature",
      "properties": {
        "type": "deviation_path_edge",
        "from_stop_code": "36171",
        "to_stop_code": "36164",
        "stroke": "#00bcd4",
        "stroke-width": 3,
        "stroke-opacity": 0.95
      },
      "geometry": {
        "type": "LineString",
        "coordinates": [
          [
            34.75662103860354,
            32.00927385682485
          ],
          [
            34.756177,
            32.009364
          ],
          [
            34.755231,
            32.009518
          ],
          [
            34.755227,
            32.009523
          ],
          [
            34.755214,
            32.009535
          ],
          [
            34.755199,
            32.009545
          ],
          [
            34.755182,
            32.009552
          ],
          [
            34.755164,
            32.009556
          ],
          [
            34.755151,
            32.009558
          ],
          [
            34.755138,
            32.009558
          ],
          [
            34.75512,
            32.009556
          ],
          [
            34.755104,
            32.009551
          ],
          [
            34.754508,
            32.009946
          ],
          [
            34.75382624213775,
            32.01034656426802
          ]
        ]
      }
    },
    {
      "type": "Feature",
      "properties": {
        "type": "deviation_path_edge",
        "from_stop_code": "36164",
        "to_stop_code": "34458",
        "stroke": "#00bcd4",
        "stroke-width": 3,
        "stroke-opacity": 0.95
      },
      "geometry": {
        "type": "LineString",
        "coordinates": [
          [
            34.75382624213775,
            32.01034656426802
          ],
          [
            34.752886,
            32.010899
          ],
          [
            34.752699,
            32.01098
          ],
          [
            34.752459,
            32.011084
          ],
          [
            34.75202,
            32.011246
          ],
          [
            34.751968,
            32.011266
          ],
          [
            34.751846,
            32.011313
          ],
          [
            34.751765,
            32.011344
          ],
          [
            34.751662,
            32.011383
          ],
          [
            34.75161,
            32.01129
          ],
          [
            34.75151169199839,
            32.011095862349755
          ]
        ]
      }
    },
    {
      "type": "Feature",
      "properties": {
        "type": "deviation_path_edge",
        "from_stop_code": "34458",
        "to_stop_code": "36135",
        "stroke": "#00bcd4",
        "stroke-width": 3,
        "stroke-opacity": 0.95
      },
      "geometry": {
        "type": "LineString",
        "coordinates": [
          [
            34.75151169199839,
            32.011095862349755
          ],
          [
            34.750063,
            32.008235
          ],
          [
            34.74980047295254,
            32.007728433725326
          ]
        ]
      }
    },
    {
      "type": "Feature",
      "properties": {
        "type": "deviation_path_edge",
        "from_stop_code": "36135",
        "to_stop_code": "36120",
        "stroke": "#00bcd4",
        "stroke-width": 3,
        "stroke-opacity": 0.95
      },
      "geometry": {
        "type": "LineString",
        "coordinates": [
          [
            34.74980047295254,
            32.007728433725326
          ],
          [
            34.749424,
            32.007002
          ],
          [
            34.748779,
            32.005715
          ],
          [
            34.748604,
            32.005389
          ],
          [
            34.748569,
            32.005312
          ],
          [
            34.748613,
            32.005295
          ],
          [
            34.748671,
            32.005277
          ],
          [
            34.748778,
            32.005252
          ],
          [
            34.748852,
            32.005234
          ],
          [
            34.748957,
            32.005214
          ],
          [
            34.7493069160757,
            32.005168153577756
          ]
        ]
      }
    },
    {
      "type": "Feature",
      "properties": {
        "type": "deviation_path_edge",
        "from_stop_code": "36120",
        "to_stop_code": "36152",
        "stroke": "#00bcd4",
        "stroke-width": 3,
        "stroke-opacity": 0.95
      },
      "geometry": {
        "type": "LineString",
        "coordinates": [
          [
            34.7493069160757,
            32.005168153577756
          ],
          [
            34.749476,
            32.005146
          ],
          [
            34.749781,
            32.005077
          ],
          [
            34.750529,
            32.004925
          ],
          [
            34.75083205684947,
            32.00486398378317
          ]
        ]
      }
    },
    {
      "type": "Feature",
      "properties": {
        "type": "deviation_path_edge",
        "from_stop_code": "36152",
        "to_stop_code": "36155",
        "stroke": "#00bcd4",
        "stroke-width": 3,
        "stroke-opacity": 0.95
      },
      "geometry": {
        "type": "LineString",
        "coordinates": [
          [
            34.75083205684947,
            32.00486398378317
          ],
          [
            34.751577,
            32.004714
          ],
          [
            34.752541,
            32.004519
          ],
          [
            34.752833,
            32.004455
          ],
          [
            34.753555,
            32.004313
          ],
          [
            34.753553,
            32.004306
          ],
          [
            34.753552,
            32.004294
          ],
          [
            34.753554,
            32.004277
          ],
          [
            34.753559,
            32.00426
          ],
          [
            34.753567,
            32.004244
          ],
          [
            34.753579,
            32.00423
          ],
          [
            34.753589,
            32.004222
          ],
          [
            34.753596,
            32.004217
          ],
          [
            34.75343412959623,
            32.003650671740985
          ]
        ]
      }
    },
    {
      "type": "Feature",
      "properties": {
        "type": "original_route_shape",
        "shape_id": "151014",
        "stroke": "#1f2a7a",
        "stroke-width": 3,
        "stroke-opacity": 0.85
      },
      "geometry": {
        "type": "LineString",
        "coordinates": [
          [
            34.750205819983236,
            32.03794282653761
          ],
          [
            34.750148,
            32.037857
          ],
          [
            34.750097,
            32.037782
          ],
          [
            34.749919,
            32.037497
          ],
          [
            34.749901,
            32.037468
          ],
          [
            34.749863,
            32.037409
          ],
          [
            34.749825,
            32.037359
          ],
          [
            34.74966,
            32.037144
          ],
          [
            34.74963,
            32.03711
          ],
          [
            34.74958,
            32.03706
          ],
          [
            34.749403,
            32.03688
          ],
          [
            34.749028,
            32.036518
          ],
          [
            34.748859,
            32.03635
          ],
          [
            34.748834,
            32.036325
          ],
          [
            34.748334,
            32.035852
          ],
          [
            34.748005,
            32.03554
          ],
          [
            34.747971,
            32.035507
          ],
          [
            34.747987,
            32.035495
          ],
          [
            34.748059,
            32.035421
          ],
          [
            34.748326,
            32.035166
          ],
          [
            34.748437,
            32.035035
          ],
          [
            34.748579,
            32.034771
          ],
          [
            34.748644,
            32.034565
          ],
          [
            34.748695,
            32.03445
          ],
          [
            34.748775,
            32.034372
          ],
          [
            34.749169,
            32.034389
          ],
          [
            34.749227,
            32.034372
          ],
          [
            34.749222,
            32.034363
          ],
          [
            34.749219,
            32.034353
          ],
          [
            34.749218,
            32.034344
          ],
          [
            34.749217,
            32.034334
          ],
          [
            34.749218,
            32.034325
          ],
          [
            34.749221,
            32.034315
          ],
          [
            34.749225,
            32.034306
          ],
          [
            34.74923,
            32.034298
          ],
          [
            34.749236,
            32.03429
          ],
          [
            34.749243,
            32.034283
          ],
          [
            34.749252,
            32.034276
          ],
          [
            34.749261,
            32.034271
          ],
          [
            34.749271,
            32.034266
          ],
          [
            34.749282,
            32.034263
          ],
          [
            34.749293,
            32.034261
          ],
          [
            34.749305,
            32.03426
          ],
          [
            34.749321,
            32.034261
          ],
          [
            34.749332,
            32.034263
          ],
          [
            34.749342,
            32.034266
          ],
          [
            34.749352,
            32.03427
          ],
          [
            34.749362,
            32.034275
          ],
          [
            34.74937,
            32.034281
          ],
          [
            34.749378,
            32.034289
          ],
          [
            34.749385,
            32.034296
          ],
          [
            34.74939,
            32.034305
          ],
          [
            34.749394,
            32.034314
          ],
          [
            34.749397,
            32.034323
          ],
          [
            34.749398,
            32.034333
          ],
          [
            34.749398,
            32.034342
          ],
          [
            34.749396,
            32.034352
          ],
          [
            34.749394,
            32.034361
          ],
          [
            34.74939,
            32.034369
          ],
          [
            34.749731,
            32.034438
          ],
          [
            34.749835,
            32.034455
          ],
          [
            34.749945,
            32.034465
          ],
          [
            34.750188,
            32.034472
          ],
          [
            34.751028,
            32.034223
          ],
          [
            34.751634,
            32.034065
          ],
          [
            34.751611,
            32.033964
          ],
          [
            34.751551,
            32.033696
          ],
          [
            34.751491,
            32.033358
          ],
          [
            34.751403,
            32.033009
          ],
          [
            34.751322,
            32.032583
          ],
          [
            34.751253,
            32.032245
          ],
          [
            34.751178,
            32.031923
          ],
          [
            34.751059,
            32.031372
          ],
          [
            34.750983,
            32.03117
          ],
          [
            34.750924,
            32.031041
          ],
          [
            34.750847,
            32.030861
          ],
          [
            34.750786,
            32.03075
          ],
          [
            34.750771,
            32.030722
          ],
          [
            34.750727,
            32.030656
          ],
          [
            34.750688,
            32.030599
          ],
          [
            34.750251,
            32.029978
          ],
          [
            34.750001,
            32.029699
          ],
          [
            34.74977,
            32.029421
          ],
          [
            34.749728,
            32.029387
          ],
          [
            34.749259,
            32.028738
          ],
          [
            34.748799,
            32.028028
          ],
          [
            34.748702,
            32.027878
          ],
          [
            34.748377,
            32.027444
          ],
          [
            34.748344,
            32.02739
          ],
          [
            34.748311,
            32.027308
          ],
          [
            34.748274,
            32.027173
          ],
          [
            34.748238,
            32.027017
          ],
          [
            34.748116,
            32.026498
          ],
          [
            34.747959,
            32.026016
          ],
          [
            34.747484,
            32.024461
          ],
          [
            34.747345,
            32.024108
          ],
          [
            34.747285,
            32.023966
          ],
          [
            34.747094,
            32.023693
          ],
          [
            34.747012,
            32.023581
          ],
          [
            34.746865,
            32.023415
          ],
          [
            34.746989,
            32.023332
          ],
          [
            34.747105,
            32.023254
          ],
          [
            34.747225,
            32.023174
          ],
          [
            34.747503,
            32.022959
          ],
          [
            34.747541,
            32.02293
          ],
          [
            34.748464,
            32.022277
          ],
          [
            34.748662,
            32.022174
          ],
          [
            34.748816,
            32.022126
          ],
          [
            34.748989,
            32.022102
          ],
          [
            34.749151,
            32.022092
          ],
          [
            34.749256,
            32.022084
          ],
          [
            34.749761,
            32.022065
          ],
          [
            34.750081,
            32.022055
          ],
          [
            34.751195,
            32.021985
          ],
          [
            34.751884,
            32.022001
          ],
          [
            34.75253,
            32.021988
          ],
          [
            34.752892,
            32.021977
          ],
          [
            34.753554,
            32.021958
          ],
          [
            34.754529,
            32.021922
          ],
          [
            34.755987,
            32.02189
          ],
          [
            34.756568,
            32.021791
          ],
          [
            34.757154,
            32.021634
          ],
          [
            34.75746,
            32.021518
          ],
          [
            34.75774,
            32.02139
          ],
          [
            34.75813,
            32.021149
          ],
          [
            34.758432,
            32.020885
          ],
          [
            34.758538,
            32.020768
          ],
          [
            34.758735,
            32.020549
          ],
          [
            34.758835,
            32.020402
          ],
          [
            34.758941,
            32.02022
          ],
          [
            34.75898,
            32.02013
          ],
          [
            34.759115,
            32.019813
          ],
          [
            34.759124,
            32.019776
          ],
          [
            34.759173,
            32.019548
          ],
          [
            34.759222,
            32.019148
          ],
          [
            34.759235,
            32.018665
          ],
          [
            34.759249,
            32.018306
          ],
          [
            34.759256,
            32.018119
          ],
          [
            34.759299,
            32.017474
          ],
          [
            34.759318,
            32.017122
          ],
          [
            34.759355,
            32.016287
          ],
          [
            34.759349,
            32.016205
          ],
          [
            34.759322,
            32.016023
          ],
          [
            34.759299,
            32.015681
          ],
          [
            34.759279,
            32.015575
          ],
          [
            34.759233,
            32.015273
          ],
          [
            34.75917,
            32.014957
          ],
          [
            34.758929,
            32.014087
          ],
          [
            34.758852,
            32.013797
          ],
          [
            34.758711,
            32.013302
          ],
          [
            34.758571,
            32.012811
          ],
          [
            34.758513,
            32.012625
          ],
          [
            34.7584,
            32.012257
          ],
          [
            34.758212,
            32.011517
          ],
          [
            34.758159,
            32.011305
          ],
          [
            34.758136,
            32.011206
          ],
          [
            34.757838,
            32.010225
          ],
          [
            34.757779,
            32.009939
          ],
          [
            34.757582,
            32.009189
          ],
          [
            34.75756,
            32.009186
          ],
          [
            34.757544,
            32.009182
          ],
          [
            34.757529,
            32.009176
          ],
          [
            34.757514,
            32.009169
          ],
          [
            34.757501,
            32.00916
          ],
          [
            34.757484,
            32.009144
          ],
          [
            34.757479,
            32.009138
          ],
          [
            34.757241,
            32.009148
          ],
          [
            34.756177,
            32.009364
          ],
          [
            34.755231,
            32.009518
          ],
          [
            34.755227,
            32.009523
          ],
          [
            34.755214,
            32.009535
          ],
          [
            34.755199,
            32.009545
          ],
          [
            34.755182,
            32.009552
          ],
          [
            34.755164,
            32.009556
          ],
          [
            34.755151,
            32.009558
          ],
          [
            34.755138,
            32.009558
          ],
          [
            34.75512,
            32.009556
          ],
          [
            34.755104,
            32.009551
          ],
          [
            34.75509,
            32.009546
          ],
          [
            34.755075,
            32.009536
          ],
          [
            34.755065,
            32.009528
          ],
          [
            34.755058,
            32.00952
          ],
          [
            34.755052,
            32.009511
          ],
          [
            34.755047,
            32.009501
          ],
          [
            34.755043,
            32.009491
          ],
          [
            34.755042,
            32.009484
          ],
          [
            34.755041,
            32.00947
          ],
          [
            34.755042,
            32.00946
          ],
          [
            34.755045,
            32.009449
          ],
          [
            34.75505,
            32.00944
          ],
          [
            34.755054,
            32.009433
          ],
          [
            34.754869,
            32.00873
          ],
          [
            34.754652,
            32.007939
          ],
          [
            34.754566,
            32.007618
          ],
          [
            34.754474,
            32.007307
          ],
          [
            34.754164,
            32.00626
          ],
          [
            34.753989,
            32.005633
          ],
          [
            34.753642,
            32.004384
          ],
          [
            34.753623,
            32.004379
          ],
          [
            34.753605,
            32.004372
          ],
          [
            34.753588,
            32.004361
          ],
          [
            34.753574,
            32.004349
          ],
          [
            34.753564,
            32.004334
          ],
          [
            34.753558,
            32.004323
          ],
          [
            34.753555,
            32.004313
          ],
          [
            34.753553,
            32.004306
          ],
          [
            34.753552,
            32.004294
          ],
          [
            34.753554,
            32.004277
          ],
          [
            34.753559,
            32.00426
          ],
          [
            34.753567,
            32.004244
          ],
          [
            34.753579,
            32.00423
          ],
          [
            34.753589,
            32.004222
          ],
          [
            34.753596,
            32.004217
          ],
          [
            34.753225,
            32.002919
          ],
          [
            34.753143,
            32.002581
          ],
          [
            34.753112,
            32.002469
          ],
          [
            34.752982,
            32.002306
          ],
          [
            34.75291337744641,
            32.0023210111836
          ]
        ]
      }
    },
    {
      "type": "Feature",
      "properties": {
        "type": "original_route_stop",
        "stop_code": "25204",
        "stop_name": "יפת/הבעש''ט",
        "marker-color": "#2ca02c",
        "marker-symbol": "bus",
        "marker-size": "medium"
      },
      "geometry": {
        "type": "Point",
        "coordinates": [
          34.750164,
          32.037971
        ]
      }
    },
    {
      "type": "Feature",
      "properties": {
        "type": "original_route_stop",
        "stop_code": "20116",
        "stop_name": "יפת/נגיב מחפוז",
        "marker-color": "#2ca02c",
        "marker-symbol": "bus",
        "marker-size": "medium"
      },
      "geometry": {
        "type": "Point",
        "coordinates": [
          34.749216,
          32.036768
        ]
      }
    },
    {
      "type": "Feature",
      "properties": {
        "type": "original_route_stop",
        "stop_code": "20465",
        "stop_name": "ת.רק''ל מחרוזת/סהרון",
        "marker-color": "#2ca02c",
        "marker-symbol": "bus",
        "marker-size": "medium"
      },
      "geometry": {
        "type": "Point",
        "coordinates": [
          34.751208,
          32.034129
        ]
      }
    },
    {
      "type": "Feature",
      "properties": {
        "type": "original_route_stop",
        "stop_code": "20538",
        "stop_name": "ת.רק''ל מחרוזת/שד' ירושלים",
        "marker-color": "#2ca02c",
        "marker-symbol": "bus",
        "marker-size": "medium"
      },
      "geometry": {
        "type": "Point",
        "coordinates": [
          34.75122,
          32.032344
        ]
      }
    },
    {
      "type": "Feature",
      "properties": {
        "type": "original_route_stop",
        "stop_code": "36231",
        "stop_name": "שד' ירושלים/שמחה הולצברג",
        "marker-color": "#2ca02c",
        "marker-symbol": "bus",
        "marker-size": "medium"
      },
      "geometry": {
        "type": "Point",
        "coordinates": [
          34.75029,
          32.03012
        ]
      }
    },
    {
      "type": "Feature",
      "properties": {
        "type": "original_route_stop",
        "stop_code": "39736",
        "stop_name": "שדרות העצמאות/רוטשילד",
        "marker-color": "#2ca02c",
        "marker-symbol": "bus",
        "marker-size": "medium"
      },
      "geometry": {
        "type": "Point",
        "coordinates": [
          34.748079,
          32.026569
        ]
      }
    },
    {
      "type": "Feature",
      "properties": {
        "type": "original_route_stop",
        "stop_code": "36224",
        "stop_name": "הרב עוזיאל/שדרות העצמאות",
        "marker-color": "#2ca02c",
        "marker-symbol": "bus",
        "marker-size": "medium"
      },
      "geometry": {
        "type": "Point",
        "coordinates": [
          34.747715,
          32.022748
        ]
      }
    },
    {
      "type": "Feature",
      "properties": {
        "type": "original_route_stop",
        "stop_code": "36240",
        "stop_name": "אנילביץ'/דניאל",
        "marker-color": "#2ca02c",
        "marker-symbol": "bus",
        "marker-size": "medium"
      },
      "geometry": {
        "type": "Point",
        "coordinates": [
          34.750804,
          32.021964
        ]
      }
    },
    {
      "type": "Feature",
      "properties": {
        "type": "original_route_stop",
        "stop_code": "36247",
        "stop_name": "מבצע סיני/כצנלסון",
        "marker-color": "#2ca02c",
        "marker-symbol": "bus",
        "marker-size": "medium"
      },
      "geometry": {
        "type": "Point",
        "coordinates": [
          34.755397,
          32.021858
        ]
      }
    },
    {
      "type": "Feature",
      "properties": {
        "type": "original_route_stop",
        "stop_code": "36249",
        "stop_name": "היכל התרבות/מבצע סיני",
        "marker-color": "#2ca02c",
        "marker-symbol": "bus",
        "marker-size": "medium"
      },
      "geometry": {
        "type": "Point",
        "coordinates": [
          34.758196,
          32.021027
        ]
      }
    },
    {
      "type": "Feature",
      "properties": {
        "type": "original_route_stop",
        "stop_code": "36267",
        "stop_name": "מבצע סיני/יוספטל",
        "marker-color": "#2ca02c",
        "marker-symbol": "bus",
        "marker-size": "medium"
      },
      "geometry": {
        "type": "Point",
        "coordinates": [
          34.759275,
          32.016884
        ]
      }
    },
    {
      "type": "Feature",
      "properties": {
        "type": "original_route_stop",
        "stop_code": "36179",
        "stop_name": "אלי כהן/יוספטל",
        "marker-color": "#2ca02c",
        "marker-symbol": "bus",
        "marker-size": "medium"
      },
      "geometry": {
        "type": "Point",
        "coordinates": [
          34.758943,
          32.014335
        ]
      }
    },
    {
      "type": "Feature",
      "properties": {
        "type": "original_route_stop",
        "stop_code": "36175",
        "stop_name": "אלי כהן/מצדה",
        "marker-color": "#2ca02c",
        "marker-symbol": "bus",
        "marker-size": "medium"
      },
      "geometry": {
        "type": "Point",
        "coordinates": [
          34.758479,
          32.012692
        ]
      }
    },
    {
      "type": "Feature",
      "properties": {
        "type": "original_route_stop",
        "stop_code": "36173",
        "stop_name": "אלי כהן/חצור",
        "marker-color": "#2ca02c",
        "marker-symbol": "bus",
        "marker-size": "medium"
      },
      "geometry": {
        "type": "Point",
        "coordinates": [
          34.757893,
          32.010584
        ]
      }
    },
    {
      "type": "Feature",
      "properties": {
        "type": "original_route_stop",
        "stop_code": "37109",
        "stop_name": "מסוף בית העלמין/הורדה",
        "marker-color": "#2ca02c",
        "marker-symbol": "bus",
        "marker-size": "medium"
      },
      "geometry": {
        "type": "Point",
        "coordinates": [
          34.752923,
          32.002365
        ]
      }
    },
    {
      "type": "Feature",
      "properties": {
        "type": "cancelled_stop",
        "stop_code": "36169",
        "stop_name": "אנה פרנק/כ''ט בנובמבר",
        "marker-color": "#ff0000",
        "marker-symbol": "bus",
        "marker-size": "medium"
      },
      "geometry": {
        "type": "Point",
        "coordinates": [
          34.754873,
          32.008954
        ]
      }
    },
    {
      "type": "Feature",
      "properties": {
        "type": "cancelled_stop",
        "stop_code": "36158",
        "stop_name": "אנה פרנק/הרב מיימון",
        "marker-color": "#ff0000",
        "marker-symbol": "bus",
        "marker-size": "medium"
      },
      "geometry": {
        "type": "Point",
        "coordinates": [
          34.754302,
          32.006909
        ]
      }
    },
    {
      "type": "Feature",
      "properties": {
        "type": "new_stop",
        "stop_code": "36164",
        "stop_name": "כ''ט בנובמבר/אנה פרנק",
        "marker-color": "#1f9ed6",
        "marker-symbol": "bus",
        "marker-size": "medium"
      },
      "geometry": {
        "type": "Point",
        "coordinates": [
          34.75385,
          32.010387
        ]
      }
    },
    {
      "type": "Feature",
      "properties": {
        "type": "new_stop",
        "stop_code": "34458",
        "stop_name": "ת.רק''ל כ''ט בנובמבר/הרב ניסנבאום",
        "marker-color": "#1f9ed6",
        "marker-symbol": "bus",
        "marker-size": "medium"
      },
      "geometry": {
        "type": "Point",
        "coordinates": [
          34.751466,
          32.011119
        ]
      }
    },
    {
      "type": "Feature",
      "properties": {
        "type": "new_stop",
        "stop_code": "36135",
        "stop_name": "הרב ניסנבאום/הרב מיימון",
        "marker-color": "#1f9ed6",
        "marker-symbol": "bus",
        "marker-size": "medium"
      },
      "geometry": {
        "type": "Point",
        "coordinates": [
          34.749755,
          32.007752
        ]
      }
    },
    {
      "type": "Feature",
      "properties": {
        "type": "new_stop",
        "stop_code": "36120",
        "stop_name": "ת.רק''ל העמל/קרן היסוד",
        "marker-color": "#1f9ed6",
        "marker-symbol": "bus",
        "marker-size": "medium"
      },
      "geometry": {
        "type": "Point",
        "coordinates": [
          34.749301,
          32.005123
        ]
      }
    },
    {
      "type": "Feature",
      "properties": {
        "type": "new_stop",
        "stop_code": "36152",
        "stop_name": "ביה''ס מקיף רמות/קרן היסוד",
        "marker-color": "#1f9ed6",
        "marker-symbol": "bus",
        "marker-size": "medium"
      },
      "geometry": {
        "type": "Point",
        "coordinates": [
          34.750823,
          32.004819
        ]
      }
    },
    {
      "type": "Feature",
      "properties": {
        "type": "reported_block_stop",
        "stop_code": "36169",
        "stop_name": "אנה פרנק/כ''ט בנובמבר",
        "marker-color": "#ff8800",
        "marker-symbol": "bus",
        "marker-size": "medium"
      },
      "geometry": {
        "type": "Point",
        "coordinates": [
          34.754873,
          32.008954
        ]
      }
    },
    {
      "type": "Feature",
      "properties": {
        "type": "reported_block_stop",
        "stop_code": "36158",
        "stop_name": "אנה פרנק/הרב מיימון",
        "marker-color": "#ff8800",
        "marker-symbol": "bus",
        "marker-size": "medium"
      },
      "geometry": {
        "type": "Point",
        "coordinates": [
          34.754302,
          32.006909
        ]
      }
    },
    {
      "type": "Feature",
      "properties": {
        "type": "deviate_from_stop",
        "stop_code": "36171",
        "stop_name": "כ''ט בנובמבר/אלי כהן",
        "marker-color": "#8000ff",
        "marker-symbol": "bus",
        "marker-size": "medium"
      },
      "geometry": {
        "type": "Point",
        "coordinates": [
          34.75663,
          32.009318
        ]
      }
    },
    {
      "type": "Feature",
      "properties": {
        "type": "deviate_to_stop",
        "stop_code": "36155",
        "stop_name": "אנה פרנק/הקוממיות",
        "marker-color": "#8000ff",
        "marker-symbol": "bus",
        "marker-size": "medium"
      },
      "geometry": {
        "type": "Point",
        "coordinates": [
          34.753384,
          32.003665
        ]
      }
    }
  ]
}