{
  "type": "FeatureCollection",
  "features": [
    {
      "type": "Feature",
      "properties": {
        "type": "deviation_path",
        "trip_id": "36095712_020826",
        "shape_id": "152402",
        "stroke": "#00bcd4",
        "stroke-width": 3,
        "stroke-opacity": 0.95
      },
      "geometry": {
        "type": "LineString",
        "coordinates": [
          [
            34.822145227014154,
            32.0933526210576
          ],
          [
            34.822277,
            32.092651
          ],
          [
            34.822331,
            32.092346
          ],
          [
            34.822358,
            32.092224
          ],
          [
            34.822419,
            32.091922
          ],
          [
            34.822581,
            32.091064
          ],
          [
            34.822581,
            32.09083
          ],
          [
            34.822581,
            32.090719
          ],
          [
            34.822585,
            32.090634
          ],
          [
            34.82259,
            32.090407
          ],
          [
            34.822582,
            32.090095
          ],
          [
            34.822593,
            32.089762
          ],
          [
            34.822593,
            32.089491
          ],
          [
            34.822574,
            32.089119
          ],
          [
            34.822591,
            32.088631
          ],
          [
            34.822579,
            32.088078
          ],
          [
            34.822584,
            32.087816
          ],
          [
            34.822583,
            32.087808
          ],
          [
            34.822427,
            32.086705
          ],
          [
            34.82219,
            32.085534
          ],
          [
            34.822151,
            32.085314
          ],
          [
            34.82208,
            32.084889
          ],
          [
            34.821738,
            32.084269
          ],
          [
            34.821427,
            32.083744
          ],
          [
            34.821364,
            32.083633
          ],
          [
            34.821131,
            32.083199
          ],
          [
            34.820596,
            32.082251
          ],
          [
            34.82037,
            32.08175
          ],
          [
            34.819694,
            32.081855
          ],
          [
            34.818977,
            32.081981
          ],
          [
            34.818917,
            32.081713
          ],
          [
            34.818839,
            32.08147
          ],
          [
            34.818728,
            32.081269
          ],
          [
            34.81859,
            32.081002
          ],
          [
            34.818455,
            32.08086
          ],
          [
            34.818252,
            32.080648
          ],
          [
            34.817862,
            32.080397
          ],
          [
            34.817335,
            32.080087
          ],
          [
            34.817002,
            32.07989
          ],
          [
            34.816663,
            32.079703
          ],
          [
            34.816007,
            32.079463
          ],
          [
            34.815888,
            32.079408
          ],
          [
            34.815701,
            32.079324
          ],
          [
            34.814856,
            32.079217
          ],
          [
            34.814838,
            32.079118
          ],
          [
            34.814835,
            32.079102
          ],
          [
            34.814838,
            32.079048
          ],
          [
            34.814934,
            32.078748
          ],
          [
            34.815068,
            32.078386
          ],
          [
            34.815076,
            32.078344
          ],
          [
            34.815067,
            32.078281
          ],
          [
            34.815013,
            32.078195
          ],
          [
            34.814826,
            32.077995
          ],
          [
            34.814800617469444,
            32.077968229362305
          ]
        ]
      }
    },
    {
      "type": "Feature",
      "properties": {
        "type": "original_route_shape",
        "shape_id": "163150",
        "stroke": "#1f2a7a",
        "stroke-width": 3,
        "stroke-opacity": 0.85
      },
      "geometry": {
        "type": "LineString",
        "coordinates": [
          [
            34.82769541665365,
            32.10361866770817
          ],
          [
            34.827697,
            32.103492
          ],
          [
            34.827703,
            32.103338
          ],
          [
            34.82771,
            32.103209
          ],
          [
            34.827735,
            32.102779
          ],
          [
            34.827754,
            32.102473
          ],
          [
            34.827759,
            32.102395
          ],
          [
            34.827777,
            32.102182
          ],
          [
            34.827809,
            32.10183
          ],
          [
            34.827819,
            32.10174
          ],
          [
            34.827857,
            32.1015
          ],
          [
            34.827894,
            32.10127
          ],
          [
            34.827975,
            32.100796
          ],
          [
            34.828029,
            32.100474
          ],
          [
            34.828049,
            32.100355
          ],
          [
            34.8281,
            32.100112
          ],
          [
            34.828337,
            32.099407
          ],
          [
            34.828324,
            32.09918
          ],
          [
            34.828304,
            32.099108
          ],
          [
            34.828257,
            32.099024
          ],
          [
            34.828233,
            32.099019
          ],
          [
            34.828042,
            32.098911
          ],
          [
            34.827055,
            32.098654
          ],
          [
            34.826576,
            32.09853
          ],
          [
            34.826249,
            32.098435
          ],
          [
            34.826112,
            32.098392
          ],
          [
            34.825824,
            32.098311
          ],
          [
            34.825488,
            32.098205
          ],
          [
            34.824714,
            32.097974
          ],
          [
            34.823564,
            32.097601
          ],
          [
            34.823116,
            32.097472
          ],
          [
            34.822185,
            32.097225
          ],
          [
            34.822045,
            32.097187
          ],
          [
            34.821851,
            32.097105
          ],
          [
            34.821705,
            32.097028
          ],
          [
            34.821588,
            32.096957
          ],
          [
            34.821386,
            32.096807
          ],
          [
            34.821463,
            32.096636
          ],
          [
            34.821631,
            32.096267
          ],
          [
            34.821734,
            32.095946
          ],
          [
            34.821751,
            32.09547
          ],
          [
            34.821796,
            32.095221
          ],
          [
            34.821807,
            32.095156
          ],
          [
            34.821964,
            32.094393
          ],
          [
            34.822025,
            32.094073
          ],
          [
            34.822077,
            32.093771
          ],
          [
            34.822089,
            32.093652
          ],
          [
            34.822277,
            32.092651
          ],
          [
            34.822331,
            32.092346
          ],
          [
            34.822358,
            32.092224
          ],
          [
            34.822419,
            32.091922
          ],
          [
            34.822581,
            32.091064
          ],
          [
            34.822488,
            32.090931
          ],
          [
            34.822445,
            32.090885
          ],
          [
            34.822293,
            32.090781
          ],
          [
            34.82162,
            32.090628
          ],
          [
            34.820694,
            32.090443
          ],
          [
            34.820681,
            32.090439
          ],
          [
            34.820079,
            32.090309
          ],
          [
            34.819812,
            32.090228
          ],
          [
            34.819181,
            32.089924
          ],
          [
            34.819034,
            32.089859
          ],
          [
            34.818775,
            32.089744
          ],
          [
            34.818624,
            32.089677
          ],
          [
            34.818258,
            32.089502
          ],
          [
            34.817905,
            32.089394
          ],
          [
            34.817277,
            32.089245
          ],
          [
            34.816966,
            32.089173
          ],
          [
            34.816285,
            32.089013
          ],
          [
            34.815533,
            32.088844
          ],
          [
            34.815355,
            32.088804
          ],
          [
            34.815323,
            32.088796
          ],
          [
            34.815124,
            32.088725
          ],
          [
            34.814613,
            32.088472
          ],
          [
            34.814601,
            32.088465
          ],
          [
            34.814445,
            32.088366
          ],
          [
            34.813951,
            32.088053
          ],
          [
            34.813735,
            32.087917
          ],
          [
            34.813579,
            32.087751
          ],
          [
            34.813403,
            32.087603
          ],
          [
            34.813166,
            32.087435
          ],
          [
            34.812713,
            32.087147
          ],
          [
            34.812093,
            32.086757
          ],
          [
            34.811935,
            32.086692
          ],
          [
            34.811563,
            32.086499
          ],
          [
            34.811255,
            32.086287
          ],
          [
            34.811244,
            32.086279
          ],
          [
            34.810735,
            32.08583
          ],
          [
            34.810616,
            32.085725
          ],
          [
            34.810812,
            32.085699
          ],
          [
            34.811054,
            32.085573
          ],
          [
            34.811351,
            32.085409
          ],
          [
            34.81169,
            32.085224
          ],
          [
            34.812103,
            32.08501
          ],
          [
            34.81219,
            32.084969
          ],
          [
            34.8127,
            32.084715
          ],
          [
            34.813393,
            32.084351
          ],
          [
            34.813528,
            32.08428
          ],
          [
            34.813818,
            32.084142
          ],
          [
            34.813964,
            32.084032
          ],
          [
            34.814123,
            32.083891
          ],
          [
            34.814237,
            32.083768
          ],
          [
            34.814372,
            32.083559
          ],
          [
            34.814432,
            32.083438
          ],
          [
            34.814514,
            32.083187
          ],
          [
            34.814586,
            32.08297
          ],
          [
            34.814645,
            32.08279
          ],
          [
            34.814669,
            32.08272
          ],
          [
            34.814833,
            32.082135
          ],
          [
            34.814851,
            32.081992
          ],
          [
            34.814868,
            32.081849
          ],
          [
            34.814904,
            32.081557
          ],
          [
            34.814897,
            32.081058
          ],
          [
            34.814889,
            32.080939
          ],
          [
            34.814879,
            32.080724
          ],
          [
            34.814876,
            32.080245
          ],
          [
            34.814856,
            32.079217
          ],
          [
            34.814838,
            32.079118
          ],
          [
            34.814835,
            32.079102
          ],
          [
            34.814838,
            32.079048
          ],
          [
            34.814934,
            32.078748
          ],
          [
            34.815068,
            32.078386
          ],
          [
            34.815076,
            32.078344
          ],
          [
            34.815067,
            32.078281
          ],
          [
            34.815013,
            32.078195
          ],
          [
            34.814826,
            32.077995
          ],
          [
            34.814698,
            32.07786
          ],
          [
            34.81459,
            32.077735
          ],
          [
            34.814495,
            32.077619
          ],
          [
            34.814406,
            32.07751
          ],
          [
            34.814235,
            32.07737
          ],
          [
            34.814013,
            32.077199
          ],
          [
            34.813852,
            32.077067
          ],
          [
            34.813783,
            32.077011
          ],
          [
            34.813687,
            32.076923
          ],
          [
            34.813058,
            32.076374
          ],
          [
            34.812747,
            32.076102
          ],
          [
            34.812593,
            32.075981
          ],
          [
            34.812448,
            32.075878
          ],
          [
            34.812205,
            32.075758
          ],
          [
            34.812073,
            32.075713
          ],
          [
            34.811986,
            32.075696
          ],
          [
            34.811875,
            32.075687
          ],
          [
            34.811547,
            32.07568
          ],
          [
            34.810608,
            32.075668
          ],
          [
            34.810577,
            32.075665
          ],
          [
            34.810224,
            32.075681
          ],
          [
            34.810021,
            32.075678
          ],
          [
            34.809872,
            32.075667
          ],
          [
            34.809746,
            32.075637
          ],
          [
            34.809581,
            32.075582
          ],
          [
            34.809416,
            32.075527
          ],
          [
            34.808996,
            32.075394
          ],
          [
            34.808843,
            32.075344
          ],
          [
            34.808739,
            32.075327
          ],
          [
            34.808602,
            32.075319
          ],
          [
            34.808582,
            32.075238
          ],
          [
            34.808573,
            32.075117
          ],
          [
            34.808567,
            32.07474
          ],
          [
            34.808587,
            32.074582
          ],
          [
            34.80856,
            32.074527
          ],
          [
            34.808552,
            32.074501
          ],
          [
            34.808546,
            32.074472
          ],
          [
            34.808545,
            32.074292
          ],
          [
            34.808567,
            32.074041
          ],
          [
            34.808586,
            32.073884
          ],
          [
            34.808591,
            32.073681
          ],
          [
            34.808587,
            32.073554
          ],
          [
            34.808635,
            32.07293
          ],
          [
            34.808627,
            32.072131
          ],
          [
            34.808614,
            32.071871
          ],
          [
            34.8086,
            32.071636
          ],
          [
            34.808573,
            32.07126
          ],
          [
            34.80857,
            32.071199
          ],
          [
            34.808545,
            32.071145
          ],
          [
            34.808524,
            32.070947
          ],
          [
            34.808508,
            32.070651
          ],
          [
            34.808535,
            32.070389
          ],
          [
            34.808532,
            32.070255
          ],
          [
            34.808532,
            32.069747
          ],
          [
            34.808533,
            32.069155
          ],
          [
            34.808509,
            32.068453
          ],
          [
            34.808509,
            32.068409
          ],
          [
            34.808512,
            32.068006
          ],
          [
            34.808492,
            32.067762
          ],
          [
            34.808491,
            32.067749
          ],
          [
            34.808492,
            32.067437
          ],
          [
            34.80851,
            32.067162
          ],
          [
            34.808533,
            32.067009
          ],
          [
            34.80853,
            32.066764
          ],
          [
            34.808523,
            32.06656
          ],
          [
            34.808533,
            32.066443
          ],
          [
            34.808565,
            32.066098
          ],
          [
            34.808596,
            32.06594
          ],
          [
            34.808645,
            32.065773
          ],
          [
            34.808706,
            32.065612
          ],
          [
            34.808808,
            32.065422
          ],
          [
            34.808916,
            32.065227
          ],
          [
            34.809023,
            32.065093
          ],
          [
            34.80916,
            32.064937
          ],
          [
            34.809276,
            32.064807
          ],
          [
            34.809497,
            32.064481
          ],
          [
            34.81011,
            32.063226
          ],
          [
            34.810975,
            32.063538
          ],
          [
            34.811135,
            32.063206
          ],
          [
            34.811281,
            32.06283
          ],
          [
            34.811487,
            32.062572
          ],
          [
            34.811578,
            32.062519
          ],
          [
            34.811709,
            32.062458
          ],
          [
            34.811756,
            32.062439
          ],
          [
            34.812327,
            32.062289
          ],
          [
            34.812643,
            32.062202
          ],
          [
            34.813388,
            32.061996
          ],
          [
            34.813553,
            32.06195
          ],
          [
            34.813779,
            32.061889
          ],
          [
            34.814166,
            32.061784
          ],
          [
            34.814346,
            32.061732
          ],
          [
            34.814632,
            32.061657
          ],
          [
            34.814803,
            32.061611
          ],
          [
            34.815202,
            32.061504
          ],
          [
            34.815296,
            32.061485
          ],
          [
            34.81537,
            32.061478
          ],
          [
            34.815414,
            32.06148
          ],
          [
            34.815544,
            32.061506
          ],
          [
            34.815541,
            32.061496
          ],
          [
            34.815539,
            32.061482
          ],
          [
            34.815538,
            32.061469
          ],
          [
            34.81554,
            32.061455
          ],
          [
            34.815546,
            32.061436
          ],
          [
            34.815552,
            32.061423
          ],
          [
            34.81556,
            32.061412
          ],
          [
            34.815575,
            32.061396
          ],
          [
            34.815587,
            32.061387
          ],
          [
            34.8156,
            32.061379
          ],
          [
            34.815614,
            32.061373
          ],
          [
            34.815629,
            32.061368
          ],
          [
            34.815645,
            32.061365
          ],
          [
            34.81566,
            32.061364
          ],
          [
            34.815677,
            32.061364
          ],
          [
            34.815692,
            32.061366
          ],
          [
            34.815708,
            32.06137
          ],
          [
            34.815722,
            32.061375
          ],
          [
            34.815736,
            32.061381
          ],
          [
            34.815749,
            32.061389
          ],
          [
            34.81576,
            32.061399
          ],
          [
            34.815767,
            32.061406
          ],
          [
            34.81625,
            32.061332
          ],
          [
            34.816263,
            32.06133
          ],
          [
            34.816409,
            32.061315
          ],
          [
            34.816399,
            32.061067
          ],
          [
            34.816394,
            32.06085
          ],
          [
            34.81639,
            32.06068
          ],
          [
            34.816407,
            32.060255
          ],
          [
            34.816416,
            32.060101
          ],
          [
            34.816464,
            32.059686
          ],
          [
            34.816536,
            32.059337
          ],
          [
            34.816562,
            32.059223
          ],
          [
            34.816603,
            32.0591
          ],
          [
            34.816722,
            32.05872
          ],
          [
            34.816751,
            32.058625
          ],
          [
            34.817406,
            32.05877
          ],
          [
            34.818675,
            32.059074
          ],
          [
            34.820074,
            32.059287
          ],
          [
            34.821143,
            32.059533
          ],
          [
            34.821187,
            32.059403
          ],
          [
            34.82125,
            32.059214
          ],
          [
            34.821298,
            32.059033
          ],
          [
            34.821335,
            32.058917
          ],
          [
            34.821349,
            32.058887
          ],
          [
            34.821459,
            32.058673
          ],
          [
            34.821578,
            32.058268
          ],
          [
            34.821985,
            32.057045
          ],
          [
            34.822008,
            32.056975
          ],
          [
            34.822152,
            32.056595
          ],
          [
            34.82234,
            32.056136
          ],
          [
            34.822322,
            32.056128
          ],
          [
            34.82231,
            32.056121
          ],
          [
            34.822299,
            32.056114
          ],
          [
            34.822288,
            32.056105
          ],
          [
            34.822278,
            32.056095
          ],
          [
            34.822268,
            32.056085
          ],
          [
            34.822259,
            32.056073
          ],
          [
            34.822246,
            32.056053
          ],
          [
            34.822236,
            32.056034
          ],
          [
            34.82223,
            32.05602
          ],
          [
            34.822225,
            32.056005
          ],
          [
            34.822216,
            32.055973
          ],
          [
            34.822211,
            32.055939
          ],
          [
            34.822209,
            32.055904
          ],
          [
            34.82221,
            32.055886
          ],
          [
            34.822213,
            32.05585
          ],
          [
            34.82222,
            32.055814
          ],
          [
            34.822224,
            32.055797
          ],
          [
            34.82223,
            32.055779
          ],
          [
            34.822243,
            32.055745
          ],
          [
            34.82225,
            32.055729
          ],
          [
            34.82226,
            32.05571
          ],
          [
            34.822277,
            32.055683
          ],
          [
            34.822298,
            32.055655
          ],
          [
            34.82231,
            32.055643
          ],
          [
            34.822334,
            32.05562
          ],
          [
            34.822346,
            32.05561
          ],
          [
            34.822359,
            32.055601
          ],
          [
            34.822372,
            32.055593
          ],
          [
            34.822386,
            32.055586
          ],
          [
            34.822399,
            32.05558
          ],
          [
            34.822418,
            32.055574
          ],
          [
            34.82244,
            32.055569
          ],
          [
            34.822454,
            32.055567
          ],
          [
            34.822468,
            32.055567
          ],
          [
            34.822481,
            32.055567
          ],
          [
            34.822494,
            32.055569
          ],
          [
            34.822507,
            32.055572
          ],
          [
            34.822528,
            32.055579
          ],
          [
            34.822947,
            32.054299
          ],
          [
            34.822965,
            32.054235
          ],
          [
            34.823226,
            32.053842
          ],
          [
            34.823376,
            32.053548
          ],
          [
            34.823419,
            32.05347
          ],
          [
            34.823415,
            32.053459
          ],
          [
            34.823412,
            32.053439
          ],
          [
            34.823413,
            32.053429
          ],
          [
            34.822963,
            32.05316
          ],
          [
            34.822826,
            32.053089
          ],
          [
            34.822618,
            32.052981
          ],
          [
            34.821442,
            32.052297
          ],
          [
            34.821428,
            32.052304
          ],
          [
            34.821411,
            32.05231
          ],
          [
            34.821398,
            32.052312
          ],
          [
            34.82138,
            32.052313
          ],
          [
            34.821361,
            32.05231
          ],
          [
            34.821343,
            32.052305
          ],
          [
            34.821327,
            32.052297
          ],
          [
            34.821316,
            32.05229
          ],
          [
            34.821202,
            32.052336
          ],
          [
            34.82109,
            32.052413
          ],
          [
            34.821025,
            32.052448
          ],
          [
            34.820888,
            32.052496
          ],
          [
            34.820779,
            32.052553
          ],
          [
            34.820666,
            32.05259
          ],
          [
            34.820532,
            32.052629
          ],
          [
            34.820429,
            32.052658
          ],
          [
            34.82025,
            32.052685
          ],
          [
            34.819922,
            32.052678
          ],
          [
            34.819214,
            32.052631
          ],
          [
            34.818927,
            32.052612
          ],
          [
            34.819065,
            32.052355
          ],
          [
            34.819386,
            32.051889
          ],
          [
            34.81964,
            32.051496
          ],
          [
            34.819635,
            32.051444
          ],
          [
            34.81962,
            32.051407
          ],
          [
            34.819574,
            32.051374
          ],
          [
            34.819525,
            32.051346
          ],
          [
            34.819298,
            32.051231
          ],
          [
            34.81921,
            32.051186
          ],
          [
            34.819002,
            32.051095
          ],
          [
            34.81882,
            32.051016
          ],
          [
            34.817534,
            32.050558
          ],
          [
            34.81732,
            32.05052
          ],
          [
            34.816954,
            32.05045
          ],
          [
            34.816291,
            32.050323
          ],
          [
            34.816069,
            32.050193
          ],
          [
            34.815862,
            32.050073
          ],
          [
            34.81565,
            32.049973
          ],
          [
            34.815578,
            32.049929
          ],
          [
            34.815549,
            32.049913
          ],
          [
            34.815517,
            32.049902
          ],
          [
            34.815502,
            32.049901
          ],
          [
            34.815342,
            32.049883
          ],
          [
            34.815009,
            32.049883
          ],
          [
            34.814818,
            32.049817
          ],
          [
            34.814823,
            32.049748
          ],
          [
            34.81482,
            32.049693
          ],
          [
            34.814826,
            32.049555
          ],
          [
            34.814844,
            32.049227
          ],
          [
            34.814849,
            32.048984
          ],
          [
            34.81486,
            32.048504
          ],
          [
            34.814861,
            32.048491
          ],
          [
            34.814871,
            32.048397
          ],
          [
            34.814884,
            32.048335
          ],
          [
            34.814916,
            32.048254
          ],
          [
            34.814968,
            32.048149
          ],
          [
            34.815024,
            32.048073
          ],
          [
            34.815133,
            32.047955
          ],
          [
            34.815192,
            32.047907
          ],
          [
            34.815222,
            32.047883
          ],
          [
            34.815316,
            32.047814
          ],
          [
            34.815422,
            32.047766
          ],
          [
            34.815579,
            32.047729
          ],
          [
            34.815706,
            32.047727
          ],
          [
            34.815885,
            32.04776
          ],
          [
            34.816352,
            32.047915
          ],
          [
            34.816495,
            32.047424
          ],
          [
            34.816401,
            32.047409
          ],
          [
            34.816292,
            32.047377
          ],
          [
            34.816164,
            32.047333
          ],
          [
            34.815751,
            32.047214
          ],
          [
            34.815645,
            32.047138
          ],
          [
            34.815636,
            32.047131
          ],
          [
            34.815588,
            32.047041
          ],
          [
            34.815467,
            32.046483
          ],
          [
            34.815322,
            32.045974
          ],
          [
            34.81461134322499,
            32.046127206525526
          ]
        ]
      }
    },
    {
      "type": "Feature",
      "properties": {
        "type": "original_route_stop",
        "stop_code": "21390",
        "stop_name": "ת. רכבת בני ברק/מבצע קדש",
        "marker-color": "#2ca02c",
        "marker-symbol": "bus",
        "marker-size": "medium"
      },
      "geometry": {
        "type": "Point",
        "coordinates": [
          34.827642,
          32.103618
        ]
      }
    },
    {
      "type": "Feature",
      "properties": {
        "type": "original_route_stop",
        "stop_code": "21452",
        "stop_name": "קניון איילון/מבצע קדש",
        "marker-color": "#2ca02c",
        "marker-symbol": "bus",
        "marker-size": "medium"
      },
      "geometry": {
        "type": "Point",
        "coordinates": [
          34.827845,
          32.101244
        ]
      }
    },
    {
      "type": "Feature",
      "properties": {
        "type": "original_route_stop",
        "stop_code": "21666",
        "stop_name": "קניון איילון/דרך אבא הלל",
        "marker-color": "#2ca02c",
        "marker-symbol": "bus",
        "marker-size": "medium"
      },
      "geometry": {
        "type": "Point",
        "coordinates": [
          34.827472,
          32.098809
        ]
      }
    },
    {
      "type": "Feature",
      "properties": {
        "type": "original_route_stop",
        "stop_code": "21817",
        "stop_name": "דרך בן גוריון /דרך ששת הימים",
        "marker-color": "#2ca02c",
        "marker-symbol": "bus",
        "marker-size": "medium"
      },
      "geometry": {
        "type": "Point",
        "coordinates": [
          34.821682,
          32.095915
        ]
      }
    },
    {
      "type": "Feature",
      "properties": {
        "type": "original_route_stop",
        "stop_code": "26133",
        "stop_name": "כיכר נח/כצנלסון",
        "marker-color": "#2ca02c",
        "marker-symbol": "bus",
        "marker-size": "medium"
      },
      "geometry": {
        "type": "Point",
        "coordinates": [
          34.81372,
          32.07702
        ]
      }
    },
    {
      "type": "Feature",
      "properties": {
        "type": "original_route_stop",
        "stop_code": "26129",
        "stop_name": "כצנלסון/ויצמן",
        "marker-color": "#2ca02c",
        "marker-symbol": "bus",
        "marker-size": "medium"
      },
      "geometry": {
        "type": "Point",
        "coordinates": [
          34.80926,
          32.075525
        ]
      }
    },
    {
      "type": "Feature",
      "properties": {
        "type": "original_route_stop",
        "stop_code": "21025",
        "stop_name": "ויצמן/ז'בוטינסקי",
        "marker-color": "#2ca02c",
        "marker-symbol": "bus",
        "marker-size": "medium"
      },
      "geometry": {
        "type": "Point",
        "coordinates": [
          34.808561,
          32.073194
        ]
      }
    },
    {
      "type": "Feature",
      "properties": {
        "type": "original_route_stop",
        "stop_code": "26119",
        "stop_name": "ויצמן/רמב''ם",
        "marker-color": "#2ca02c",
        "marker-symbol": "bus",
        "marker-size": "medium"
      },
      "geometry": {
        "type": "Point",
        "coordinates": [
          34.808535,
          32.07147
        ]
      }
    },
    {
      "type": "Feature",
      "properties": {
        "type": "original_route_stop",
        "stop_code": "21141",
        "stop_name": "ויצמן/רמב''ם",
        "marker-color": "#2ca02c",
        "marker-symbol": "bus",
        "marker-size": "medium"
      },
      "geometry": {
        "type": "Point",
        "coordinates": [
          34.808479,
          32.069971
        ]
      }
    },
    {
      "type": "Feature",
      "properties": {
        "type": "original_route_stop",
        "stop_code": "21077",
        "stop_name": "ויצמן/ריינס",
        "marker-color": "#2ca02c",
        "marker-symbol": "bus",
        "marker-size": "medium"
      },
      "geometry": {
        "type": "Point",
        "coordinates": [
          34.808458,
          32.068075
        ]
      }
    },
    {
      "type": "Feature",
      "properties": {
        "type": "original_route_stop",
        "stop_code": "21044",
        "stop_name": "המאבק/מנורה",
        "marker-color": "#2ca02c",
        "marker-symbol": "bus",
        "marker-size": "medium"
      },
      "geometry": {
        "type": "Point",
        "coordinates": [
          34.809773,
          32.063799
        ]
      }
    },
    {
      "type": "Feature",
      "properties": {
        "type": "original_route_stop",
        "stop_code": "22922",
        "stop_name": "ההסתדרות/כ''ג",
        "marker-color": "#2ca02c",
        "marker-symbol": "bus",
        "marker-size": "medium"
      },
      "geometry": {
        "type": "Point",
        "coordinates": [
          34.811218,
          32.062849
        ]
      }
    },
    {
      "type": "Feature",
      "properties": {
        "type": "original_route_stop",
        "stop_code": "21120",
        "stop_name": "גן רבקה/משמר הירדן",
        "marker-color": "#2ca02c",
        "marker-symbol": "bus",
        "marker-size": "medium"
      },
      "geometry": {
        "type": "Point",
        "coordinates": [
          34.813749,
          32.06185
        ]
      }
    },
    {
      "type": "Feature",
      "properties": {
        "type": "original_route_stop",
        "stop_code": "21040",
        "stop_name": "מרכז כורזין ",
        "marker-color": "#2ca02c",
        "marker-symbol": "bus",
        "marker-size": "medium"
      },
      "geometry": {
        "type": "Point",
        "coordinates": [
          34.816379,
          32.05996
        ]
      }
    },
    {
      "type": "Feature",
      "properties": {
        "type": "original_route_stop",
        "stop_code": "21004",
        "stop_name": "אלוף שדה/כורזין",
        "marker-color": "#2ca02c",
        "marker-symbol": "bus",
        "marker-size": "medium"
      },
      "geometry": {
        "type": "Point",
        "coordinates": [
          34.817616,
          32.058774
        ]
      }
    },
    {
      "type": "Feature",
      "properties": {
        "type": "original_route_stop",
        "stop_code": "28628",
        "stop_name": "רזיאל/המאה ואחד",
        "marker-color": "#2ca02c",
        "marker-symbol": "bus",
        "marker-size": "medium"
      },
      "geometry": {
        "type": "Point",
        "coordinates": [
          34.822549,
          32.055347
        ]
      }
    },
    {
      "type": "Feature",
      "properties": {
        "type": "original_route_stop",
        "stop_code": "28632",
        "stop_name": "הפארק הלאומי/סן מרטין",
        "marker-color": "#2ca02c",
        "marker-symbol": "bus",
        "marker-size": "medium"
      },
      "geometry": {
        "type": "Point",
        "coordinates": [
          34.821581,
          32.052433
        ]
      }
    },
    {
      "type": "Feature",
      "properties": {
        "type": "original_route_stop",
        "stop_code": "26147",
        "stop_name": "יהדות פילדלפיה/עזריאל",
        "marker-color": "#2ca02c",
        "marker-symbol": "bus",
        "marker-size": "medium"
      },
      "geometry": {
        "type": "Point",
        "coordinates": [
          34.819463,
          32.051677
        ]
      }
    },
    {
      "type": "Feature",
      "properties": {
        "type": "original_route_stop",
        "stop_code": "26143",
        "stop_name": "עזריאל/גבעתי",
        "marker-color": "#2ca02c",
        "marker-symbol": "bus",
        "marker-size": "medium"
      },
      "geometry": {
        "type": "Point",
        "coordinates": [
          34.816379,
          32.050386
        ]
      }
    },
    {
      "type": "Feature",
      "properties": {
        "type": "original_route_stop",
        "stop_code": "26066",
        "stop_name": "כיכר הרב פרדס/שלם",
        "marker-color": "#2ca02c",
        "marker-symbol": "bus",
        "marker-size": "medium"
      },
      "geometry": {
        "type": "Point",
        "coordinates": [
          34.815069,
          32.049928
        ]
      }
    },
    {
      "type": "Feature",
      "properties": {
        "type": "original_route_stop",
        "stop_code": "26142",
        "stop_name": "אצטדיון וינטר",
        "marker-color": "#2ca02c",
        "marker-symbol": "bus",
        "marker-size": "medium"
      },
      "geometry": {
        "type": "Point",
        "coordinates": [
          34.816389,
          32.0476
        ]
      }
    },
    {
      "type": "Feature",
      "properties": {
        "type": "original_route_stop",
        "stop_code": "26014",
        "stop_name": "איצטדיון וינטר",
        "marker-color": "#2ca02c",
        "marker-symbol": "bus",
        "marker-size": "medium"
      },
      "geometry": {
        "type": "Point",
        "coordinates": [
          34.814621,
          32.046172
        ]
      }
    },
    {
      "type": "Feature",
      "properties": {
        "type": "cancelled_stop",
        "stop_code": "28500",
        "stop_name": "ת.רק''ל בן גוריון/דרך ז'בוטינסקי",
        "marker-color": "#ff0000",
        "marker-symbol": "bus",
        "marker-size": "medium"
      },
      "geometry": {
        "type": "Point",
        "coordinates": [
          34.821723,
          32.090698
        ]
      }
    },
    {
      "type": "Feature",
      "properties": {
        "type": "cancelled_stop",
        "stop_code": "21470",
        "stop_name": "דרך ז'בוטינסקי/רש''י",
        "marker-color": "#ff0000",
        "marker-symbol": "bus",
        "marker-size": "medium"
      },
      "geometry": {
        "type": "Point",
        "coordinates": [
          34.818457,
          32.089649
        ]
      }
    },
    {
      "type": "Feature",
      "properties": {
        "type": "cancelled_stop",
        "stop_code": "20036",
        "stop_name": "דרך ז'בוטינסקי/הרצל",
        "marker-color": "#ff0000",
        "marker-symbol": "bus",
        "marker-size": "medium"
      },
      "geometry": {
        "type": "Point",
        "coordinates": [
          34.816021,
          32.089
        ]
      }
    },
    {
      "type": "Feature",
      "properties": {
        "type": "cancelled_stop",
        "stop_code": "21354",
        "stop_name": "ת.רק''ל ביאליק/דרך ז'בוטינסקי",
        "marker-color": "#ff0000",
        "marker-symbol": "bus",
        "marker-size": "medium"
      },
      "geometry": {
        "type": "Point",
        "coordinates": [
          34.8128,
          32.087259
        ]
      }
    },
    {
      "type": "Feature",
      "properties": {
        "type": "cancelled_stop",
        "stop_code": "26278",
        "stop_name": "ביאליק/נורדאו",
        "marker-color": "#ff0000",
        "marker-symbol": "bus",
        "marker-size": "medium"
      },
      "geometry": {
        "type": "Point",
        "coordinates": [
          34.812421,
          32.084802
        ]
      }
    },
    {
      "type": "Feature",
      "properties": {
        "type": "cancelled_stop",
        "stop_code": "26275",
        "stop_name": "עיריית ר''ג/ביאליק",
        "marker-color": "#ff0000",
        "marker-symbol": "bus",
        "marker-size": "medium"
      },
      "geometry": {
        "type": "Point",
        "coordinates": [
          34.814746,
          32.08225
        ]
      }
    },
    {
      "type": "Feature",
      "properties": {
        "type": "cancelled_stop",
        "stop_code": "26274",
        "stop_name": "ביאליק/השוטרת",
        "marker-color": "#ff0000",
        "marker-symbol": "bus",
        "marker-size": "medium"
      },
      "geometry": {
        "type": "Point",
        "coordinates": [
          34.814843,
          32.081044
        ]
      }
    },
    {
      "type": "Feature",
      "properties": {
        "type": "new_stop",
        "stop_code": "21231",
        "stop_name": "דרך בן גוריון/דרך ז'בוטינסקי",
        "marker-color": "#1f9ed6",
        "marker-symbol": "bus",
        "marker-size": "medium"
      },
      "geometry": {
        "type": "Point",
        "coordinates": [
          34.822531,
          32.090189
        ]
      }
    },
    {
      "type": "Feature",
      "properties": {
        "type": "new_stop",
        "stop_code": "26342",
        "stop_name": "דרך בן גוריון/מגדים",
        "marker-color": "#1f9ed6",
        "marker-symbol": "bus",
        "marker-size": "medium"
      },
      "geometry": {
        "type": "Point",
        "coordinates": [
          34.822517,
          32.087723
        ]
      }
    },
    {
      "type": "Feature",
      "properties": {
        "type": "new_stop",
        "stop_code": "20168",
        "stop_name": "דרך בן גוריון/שלישות",
        "marker-color": "#1f9ed6",
        "marker-symbol": "bus",
        "marker-size": "medium"
      },
      "geometry": {
        "type": "Point",
        "coordinates": [
          34.822243,
          32.086062
        ]
      }
    },
    {
      "type": "Feature",
      "properties": {
        "type": "new_stop",
        "stop_code": "21229",
        "stop_name": "בן גוריון/ הרא''ה",
        "marker-color": "#1f9ed6",
        "marker-symbol": "bus",
        "marker-size": "medium"
      },
      "geometry": {
        "type": "Point",
        "coordinates": [
          34.821066,
          32.083188
        ]
      }
    },
    {
      "type": "Feature",
      "properties": {
        "type": "new_stop",
        "stop_code": "26333",
        "stop_name": "קריניצי/הרצל",
        "marker-color": "#1f9ed6",
        "marker-symbol": "bus",
        "marker-size": "medium"
      },
      "geometry": {
        "type": "Point",
        "coordinates": [
          34.818367,
          32.080839
        ]
      }
    },
    {
      "type": "Feature",
      "properties": {
        "type": "reported_block_stop",
        "stop_code": "26278",
        "stop_name": "ביאליק/נורדאו",
        "marker-color": "#ff8800",
        "marker-symbol": "bus",
        "marker-size": "medium"
      },
      "geometry": {
        "type": "Point",
        "coordinates": [
          34.812421,
          32.084802
        ]
      }
    },
    {
      "type": "Feature",
      "properties": {
        "type": "reported_block_stop",
        "stop_code": "26275",
        "stop_name": "עיריית ר''ג/ביאליק",
        "marker-color": "#ff8800",
        "marker-symbol": "bus",
        "marker-size": "medium"
      },
      "geometry": {
        "type": "Point",
        "coordinates": [
          34.814746,
          32.08225
        ]
      }
    },
    {
      "type": "Feature",
      "properties": {
        "type": "deviate_from_stop",
        "stop_code": "22273",
        "stop_name": "מגדל קונקורד/דרך בן גוריון",
        "marker-color": "#8000ff",
        "marker-symbol": "bus",
        "marker-size": "medium"
      },
      "geometry": {
        "type": "Point",
        "coordinates": [
          34.822094,
          32.093343
        ]
      }
    },
    {
      "type": "Feature",
      "properties": {
        "type": "deviate_to_stop",
        "stop_code": "26137",
        "stop_name": "סירקין/ביאליק",
        "marker-color": "#8000ff",
        "marker-symbol": "bus",
        "marker-size": "medium"
      },
      "geometry": {
        "type": "Point",
        "coordinates": [
          34.814765,
          32.078002
        ]
      }
    }
  ]
}