{
  "type": "FeatureCollection",
  "features": [
    {
      "type": "Feature",
      "properties": {
        "type": "deviation_path",
        "trip_id": "10698509_020826",
        "shape_id": "165108",
        "stroke": "#00bcd4",
        "stroke-width": 3,
        "stroke-opacity": 0.95
      },
      "geometry": {
        "type": "LineString",
        "coordinates": [
          [
            34.801817667661986,
            32.11905200567333
          ],
          [
            34.802051,
            32.120382
          ],
          [
            34.802168,
            32.121048
          ],
          [
            34.802193,
            32.121161
          ],
          [
            34.802236,
            32.121356
          ],
          [
            34.802244,
            32.121394
          ],
          [
            34.802265,
            32.121488
          ],
          [
            34.802152,
            32.121508
          ],
          [
            34.802145,
            32.121511
          ],
          [
            34.801715,
            32.121574
          ],
          [
            34.801497,
            32.121605
          ],
          [
            34.801463,
            32.12161
          ],
          [
            34.800926,
            32.121689
          ],
          [
            34.80052,
            32.121757
          ],
          [
            34.80032,
            32.121791
          ],
          [
            34.797777,
            32.12222
          ],
          [
            34.797571,
            32.122256
          ],
          [
            34.797464,
            32.122273
          ],
          [
            34.7972,
            32.122317
          ],
          [
            34.796649,
            32.12241
          ],
          [
            34.79658671508755,
            32.12242010718926
          ]
        ]
      }
    },
    {
      "type": "Feature",
      "properties": {
        "type": "original_route_shape",
        "shape_id": "161817",
        "stroke": "#1f2a7a",
        "stroke-width": 3,
        "stroke-opacity": 0.85
      },
      "geometry": {
        "type": "LineString",
        "coordinates": [
          [
            34.79515431122557,
            32.09200076760321
          ],
          [
            34.795079,
            32.092319
          ],
          [
            34.794876,
            32.093202
          ],
          [
            34.794555,
            32.094563
          ],
          [
            34.794163,
            32.096185
          ],
          [
            34.793999,
            32.096927
          ],
          [
            34.793949,
            32.097114
          ],
          [
            34.793933,
            32.097175
          ],
          [
            34.793886,
            32.097387
          ],
          [
            34.793868,
            32.097471
          ],
          [
            34.793848,
            32.097541
          ],
          [
            34.79376,
            32.09804
          ],
          [
            34.793728,
            32.098275
          ],
          [
            34.793703,
            32.098534
          ],
          [
            34.793645,
            32.099032
          ],
          [
            34.793597,
            32.099417
          ],
          [
            34.793539,
            32.099743
          ],
          [
            34.793531,
            32.099781
          ],
          [
            34.793516,
            32.099846
          ],
          [
            34.793508,
            32.099881
          ],
          [
            34.79349,
            32.099965
          ],
          [
            34.793426,
            32.100253
          ],
          [
            34.793404,
            32.100372
          ],
          [
            34.792922,
            32.102349
          ],
          [
            34.792964,
            32.102473
          ],
          [
            34.792993,
            32.102561
          ],
          [
            34.793054,
            32.102646
          ],
          [
            34.793166,
            32.102722
          ],
          [
            34.793314,
            32.102768
          ],
          [
            34.793632,
            32.102824
          ],
          [
            34.793866,
            32.102866
          ],
          [
            34.794189,
            32.102934
          ],
          [
            34.794471,
            32.102994
          ],
          [
            34.794545,
            32.103044
          ],
          [
            34.794542,
            32.103098
          ],
          [
            34.794534,
            32.103339
          ],
          [
            34.794549,
            32.103981
          ],
          [
            34.794566,
            32.10454
          ],
          [
            34.794584,
            32.104824
          ],
          [
            34.794595,
            32.104827
          ],
          [
            34.794606,
            32.104831
          ],
          [
            34.794622,
            32.104839
          ],
          [
            34.794636,
            32.10485
          ],
          [
            34.794644,
            32.104858
          ],
          [
            34.794651,
            32.104867
          ],
          [
            34.794656,
            32.104877
          ],
          [
            34.79466,
            32.104887
          ],
          [
            34.794663,
            32.104903
          ],
          [
            34.794662,
            32.104919
          ],
          [
            34.79466,
            32.104929
          ],
          [
            34.794656,
            32.104938
          ],
          [
            34.794999,
            32.104996
          ],
          [
            34.795271,
            32.105071
          ],
          [
            34.795556,
            32.105167
          ],
          [
            34.796049,
            32.105379
          ],
          [
            34.79634,
            32.105523
          ],
          [
            34.796555,
            32.105667
          ],
          [
            34.796707,
            32.105757
          ],
          [
            34.796915,
            32.105908
          ],
          [
            34.79723,
            32.106169
          ],
          [
            34.797284,
            32.106202
          ],
          [
            34.797501,
            32.106378
          ],
          [
            34.797653,
            32.106554
          ],
          [
            34.797751,
            32.106675
          ],
          [
            34.797854,
            32.106831
          ],
          [
            34.797969,
            32.107019
          ],
          [
            34.79805,
            32.107168
          ],
          [
            34.798132,
            32.107322
          ],
          [
            34.798203,
            32.107471
          ],
          [
            34.798281,
            32.107654
          ],
          [
            34.79834,
            32.107799
          ],
          [
            34.798382,
            32.107926
          ],
          [
            34.798393,
            32.107993
          ],
          [
            34.798401,
            32.108049
          ],
          [
            34.798396,
            32.108159
          ],
          [
            34.798411,
            32.10828
          ],
          [
            34.798435,
            32.10843
          ],
          [
            34.79847,
            32.108801
          ],
          [
            34.798477,
            32.109103
          ],
          [
            34.798381,
            32.109684
          ],
          [
            34.798317,
            32.109931
          ],
          [
            34.798337,
            32.109938
          ],
          [
            34.79835,
            32.109947
          ],
          [
            34.798362,
            32.109957
          ],
          [
            34.798373,
            32.109974
          ],
          [
            34.798381,
            32.110002
          ],
          [
            34.798381,
            32.110016
          ],
          [
            34.798376,
            32.110031
          ],
          [
            34.798361,
            32.110056
          ],
          [
            34.798345,
            32.110069
          ],
          [
            34.798321,
            32.11008
          ],
          [
            34.79825,
            32.110359
          ],
          [
            34.798149,
            32.110863
          ],
          [
            34.798006,
            32.111592
          ],
          [
            34.797948,
            32.111886
          ],
          [
            34.797783,
            32.112769
          ],
          [
            34.797862,
            32.112909
          ],
          [
            34.797919,
            32.112961
          ],
          [
            34.798056,
            32.113012
          ],
          [
            34.799104,
            32.113113
          ],
          [
            34.800481,
            32.113233
          ],
          [
            34.800732,
            32.113254
          ],
          [
            34.801129,
            32.113299
          ],
          [
            34.801371,
            32.113317
          ],
          [
            34.801538,
            32.113325
          ],
          [
            34.801529,
            32.113421
          ],
          [
            34.801529,
            32.113454
          ],
          [
            34.801429,
            32.114697
          ],
          [
            34.801375,
            32.115211
          ],
          [
            34.801361,
            32.115847
          ],
          [
            34.801419,
            32.116581
          ],
          [
            34.801477,
            32.117306
          ],
          [
            34.801505,
            32.117486
          ],
          [
            34.801512,
            32.117519
          ],
          [
            34.801612,
            32.117987
          ],
          [
            34.801637,
            32.118121
          ],
          [
            34.801648,
            32.118176
          ],
          [
            34.801657,
            32.118216
          ],
          [
            34.801741,
            32.118615
          ],
          [
            34.802051,
            32.120382
          ],
          [
            34.802168,
            32.121048
          ],
          [
            34.802193,
            32.121161
          ],
          [
            34.802236,
            32.121356
          ],
          [
            34.802244,
            32.121394
          ],
          [
            34.802265,
            32.121488
          ],
          [
            34.802315,
            32.121718
          ],
          [
            34.802411,
            32.122158
          ],
          [
            34.802526,
            32.122755
          ],
          [
            34.802546,
            32.122861
          ],
          [
            34.802762,
            32.123984
          ],
          [
            34.802844,
            32.124413
          ],
          [
            34.802869,
            32.124543
          ],
          [
            34.802878,
            32.124589
          ],
          [
            34.802895,
            32.124596
          ],
          [
            34.802905,
            32.124602
          ],
          [
            34.802916,
            32.12461
          ],
          [
            34.802924,
            32.124617
          ],
          [
            34.802932,
            32.124627
          ],
          [
            34.80294,
            32.124642
          ],
          [
            34.802944,
            32.124652
          ],
          [
            34.802947,
            32.124665
          ],
          [
            34.802947,
            32.124674
          ],
          [
            34.802946,
            32.124686
          ],
          [
            34.802942,
            32.124702
          ],
          [
            34.802933,
            32.124719
          ],
          [
            34.802924,
            32.124731
          ],
          [
            34.802915,
            32.124739
          ],
          [
            34.802905,
            32.124747
          ],
          [
            34.802888,
            32.124755
          ],
          [
            34.80287,
            32.124761
          ],
          [
            34.802857,
            32.124763
          ],
          [
            34.802849,
            32.124764
          ],
          [
            34.802831,
            32.124763
          ],
          [
            34.802813,
            32.12476
          ],
          [
            34.802795,
            32.124754
          ],
          [
            34.802778,
            32.124744
          ],
          [
            34.802765,
            32.124733
          ],
          [
            34.802396,
            32.124802
          ],
          [
            34.801829,
            32.124849
          ],
          [
            34.80104,
            32.124897
          ],
          [
            34.801036,
            32.124913
          ],
          [
            34.801007,
            32.12495
          ],
          [
            34.800958,
            32.124978
          ],
          [
            34.800915,
            32.12499
          ],
          [
            34.800857,
            32.124988
          ],
          [
            34.80082,
            32.124979
          ],
          [
            34.800777,
            32.124953
          ],
          [
            34.800746,
            32.124921
          ],
          [
            34.800742,
            32.124906
          ],
          [
            34.799115,
            32.124981
          ],
          [
            34.798851,
            32.124995
          ],
          [
            34.798157,
            32.125032
          ],
          [
            34.79815,
            32.125049
          ],
          [
            34.79814,
            32.12506
          ],
          [
            34.798127,
            32.125072
          ],
          [
            34.798105,
            32.125081
          ],
          [
            34.798086,
            32.125084
          ],
          [
            34.798079,
            32.125085
          ],
          [
            34.798053,
            32.125081
          ],
          [
            34.798029,
            32.125071
          ],
          [
            34.798017,
            32.125062
          ],
          [
            34.798002,
            32.125042
          ],
          [
            34.797994,
            32.125019
          ],
          [
            34.797995,
            32.12499
          ],
          [
            34.798005,
            32.124968
          ],
          [
            34.798022,
            32.124949
          ],
          [
            34.798044,
            32.124936
          ],
          [
            34.798056,
            32.124933
          ],
          [
            34.798002,
            32.124695
          ],
          [
            34.797915,
            32.124361
          ],
          [
            34.797874,
            32.124119
          ],
          [
            34.797804,
            32.123807
          ],
          [
            34.797741,
            32.123468
          ],
          [
            34.797722,
            32.123317
          ],
          [
            34.797658,
            32.123144
          ],
          [
            34.797644,
            32.123085
          ],
          [
            34.797611,
            32.122909
          ],
          [
            34.797524,
            32.122519
          ],
          [
            34.797455,
            32.122399
          ],
          [
            34.79741,
            32.122356
          ],
          [
            34.797357,
            32.122333
          ],
          [
            34.797297,
            32.122322
          ],
          [
            34.7972,
            32.122317
          ],
          [
            34.796649,
            32.12241
          ],
          [
            34.795435,
            32.122607
          ],
          [
            34.794726,
            32.122722
          ],
          [
            34.794542,
            32.122751
          ],
          [
            34.794341,
            32.122783
          ],
          [
            34.793169,
            32.122968
          ],
          [
            34.79305,
            32.123002
          ],
          [
            34.792488,
            32.123081
          ],
          [
            34.791997,
            32.123163
          ],
          [
            34.791845,
            32.123228
          ],
          [
            34.791804,
            32.123275
          ],
          [
            34.791781,
            32.123319
          ],
          [
            34.791775,
            32.12333
          ],
          [
            34.791764,
            32.123601
          ],
          [
            34.792016,
            32.124984
          ],
          [
            34.792044,
            32.124993
          ],
          [
            34.792069,
            32.12501
          ],
          [
            34.79209,
            32.125032
          ],
          [
            34.792105,
            32.125059
          ],
          [
            34.792111,
            32.125083
          ],
          [
            34.792113,
            32.125095
          ],
          [
            34.792112,
            32.125118
          ],
          [
            34.792107,
            32.12514
          ],
          [
            34.792101,
            32.125154
          ],
          [
            34.792085,
            32.12518
          ],
          [
            34.792077,
            32.125188
          ],
          [
            34.792321,
            32.126532
          ],
          [
            34.792327,
            32.126566
          ],
          [
            34.792438,
            32.127177
          ],
          [
            34.792468,
            32.127187
          ],
          [
            34.7925,
            32.127208
          ],
          [
            34.792515,
            32.127226
          ],
          [
            34.792526,
            32.127245
          ],
          [
            34.792534,
            32.127266
          ],
          [
            34.792536,
            32.127275
          ],
          [
            34.79254,
            32.127292
          ],
          [
            34.792534,
            32.127326
          ],
          [
            34.792519,
            32.127361
          ],
          [
            34.792493,
            32.127389
          ],
          [
            34.792645,
            32.128194
          ],
          [
            34.792762,
            32.128822
          ],
          [
            34.792779,
            32.128831
          ],
          [
            34.792795,
            32.128844
          ],
          [
            34.792808,
            32.128859
          ],
          [
            34.792814,
            32.128871
          ],
          [
            34.792821,
            32.128889
          ],
          [
            34.792824,
            32.128901
          ],
          [
            34.792824,
            32.12892
          ],
          [
            34.792822,
            32.128935
          ],
          [
            34.792819,
            32.128945
          ],
          [
            34.792814,
            32.128957
          ],
          [
            34.792803,
            32.128973
          ],
          [
            34.792789,
            32.128987
          ],
          [
            34.792779,
            32.128996
          ],
          [
            34.792767,
            32.129003
          ],
          [
            34.792748,
            32.12901
          ],
          [
            34.792734,
            32.129013
          ],
          [
            34.792725,
            32.129015
          ],
          [
            34.792699,
            32.129015
          ],
          [
            34.792686,
            32.129013
          ],
          [
            34.792666,
            32.129006
          ],
          [
            34.792653,
            32.129001
          ],
          [
            34.792642,
            32.128993
          ],
          [
            34.792632,
            32.128985
          ],
          [
            34.792622,
            32.128975
          ],
          [
            34.792615,
            32.128965
          ],
          [
            34.792608,
            32.128953
          ],
          [
            34.792603,
            32.12894
          ],
          [
            34.79248,
            32.128927
          ],
          [
            34.79235,
            32.128913
          ],
          [
            34.792292,
            32.128631
          ],
          [
            34.792268542688646,
            32.1284997856646
          ]
        ]
      }
    },
    {
      "type": "Feature",
      "properties": {
        "type": "original_route_stop",
        "stop_code": "21615",
        "stop_name": "דרך נמיר/פנקס",
        "marker-color": "#2ca02c",
        "marker-symbol": "bus",
        "marker-size": "medium"
      },
      "geometry": {
        "type": "Point",
        "coordinates": [
          34.795206,
          32.092013
        ]
      }
    },
    {
      "type": "Feature",
      "properties": {
        "type": "original_route_stop",
        "stop_code": "21415",
        "stop_name": "דרך נמיר/יהודה המכבי",
        "marker-color": "#2ca02c",
        "marker-symbol": "bus",
        "marker-size": "medium"
      },
      "geometry": {
        "type": "Point",
        "coordinates": [
          34.794466,
          32.095157
        ]
      }
    },
    {
      "type": "Feature",
      "properties": {
        "type": "original_route_stop",
        "stop_code": "21613",
        "stop_name": "סמינר הקיבוצים/חיים לבנון",
        "marker-color": "#2ca02c",
        "marker-symbol": "bus",
        "marker-size": "medium"
      },
      "geometry": {
        "type": "Point",
        "coordinates": [
          34.793726,
          32.102795
        ]
      }
    },
    {
      "type": "Feature",
      "properties": {
        "type": "original_route_stop",
        "stop_code": "21698",
        "stop_name": "רדינג/ברודצקי",
        "marker-color": "#2ca02c",
        "marker-symbol": "bus",
        "marker-size": "medium"
      },
      "geometry": {
        "type": "Point",
        "coordinates": [
          34.794623,
          32.104603
        ]
      }
    },
    {
      "type": "Feature",
      "properties": {
        "type": "original_route_stop",
        "stop_code": "25989",
        "stop_name": "בית ברודצקי/ברודצקי",
        "marker-color": "#2ca02c",
        "marker-symbol": "bus",
        "marker-size": "medium"
      },
      "geometry": {
        "type": "Point",
        "coordinates": [
          34.79843,
          32.107905
        ]
      }
    },
    {
      "type": "Feature",
      "properties": {
        "type": "original_route_stop",
        "stop_code": "25992",
        "stop_name": "ברודצקי/רדינג",
        "marker-color": "#2ca02c",
        "marker-symbol": "bus",
        "marker-size": "medium"
      },
      "geometry": {
        "type": "Point",
        "coordinates": [
          34.798459,
          32.109531
        ]
      }
    },
    {
      "type": "Feature",
      "properties": {
        "type": "original_route_stop",
        "stop_code": "21199",
        "stop_name": "קניון רמת אביב/ברודצקי",
        "marker-color": "#2ca02c",
        "marker-symbol": "bus",
        "marker-size": "medium"
      },
      "geometry": {
        "type": "Point",
        "coordinates": [
          34.797919,
          32.112327
        ]
      }
    },
    {
      "type": "Feature",
      "properties": {
        "type": "original_route_stop",
        "stop_code": "27065",
        "stop_name": "האוניברסיטה/חיים לבנון",
        "marker-color": "#2ca02c",
        "marker-symbol": "bus",
        "marker-size": "medium"
      },
      "geometry": {
        "type": "Point",
        "coordinates": [
          34.801548,
          32.113879
        ]
      }
    },
    {
      "type": "Feature",
      "properties": {
        "type": "original_route_stop",
        "stop_code": "26642",
        "stop_name": "קדושי השואה/צבי פרופס",
        "marker-color": "#2ca02c",
        "marker-symbol": "bus",
        "marker-size": "medium"
      },
      "geometry": {
        "type": "Point",
        "coordinates": [
          34.792227,
          32.125722
        ]
      }
    },
    {
      "type": "Feature",
      "properties": {
        "type": "original_route_stop",
        "stop_code": "26643",
        "stop_name": "מסוף אזורי חן",
        "marker-color": "#2ca02c",
        "marker-symbol": "bus",
        "marker-size": "medium"
      },
      "geometry": {
        "type": "Point",
        "coordinates": [
          34.792217,
          32.128509
        ]
      }
    },
    {
      "type": "Feature",
      "properties": {
        "type": "cancelled_stop",
        "stop_code": "26691",
        "stop_name": "רקנאטי/שד' קק''ל",
        "marker-color": "#ff0000",
        "marker-symbol": "bus",
        "marker-size": "medium"
      },
      "geometry": {
        "type": "Point",
        "coordinates": [
          34.802615,
          32.122942
        ]
      }
    },
    {
      "type": "Feature",
      "properties": {
        "type": "cancelled_stop",
        "stop_code": "26692",
        "stop_name": "מרכז שוסטר/אבא אחימאיר",
        "marker-color": "#ff0000",
        "marker-symbol": "bus",
        "marker-size": "medium"
      },
      "geometry": {
        "type": "Point",
        "coordinates": [
          34.802224,
          32.124862
        ]
      }
    },
    {
      "type": "Feature",
      "properties": {
        "type": "cancelled_stop",
        "stop_code": "26650",
        "stop_name": "אבא אחימאיר/שלמה בן יוסף",
        "marker-color": "#ff0000",
        "marker-symbol": "bus",
        "marker-size": "medium"
      },
      "geometry": {
        "type": "Point",
        "coordinates": [
          34.798707,
          32.125048
        ]
      }
    },
    {
      "type": "Feature",
      "properties": {
        "type": "cancelled_stop",
        "stop_code": "26648",
        "stop_name": "שלמה בן יוסף/שד' קק''ל",
        "marker-color": "#ff0000",
        "marker-symbol": "bus",
        "marker-size": "medium"
      },
      "geometry": {
        "type": "Point",
        "coordinates": [
          34.797671,
          32.123339
        ]
      }
    },
    {
      "type": "Feature",
      "properties": {
        "type": "new_stop",
        "stop_code": "21234",
        "stop_name": "שד' קק''ל/שלמה בן יוסף",
        "marker-color": "#1f9ed6",
        "marker-symbol": "bus",
        "marker-size": "medium"
      },
      "geometry": {
        "type": "Point",
        "coordinates": [
          34.798889,
          32.122078
        ]
      }
    },
    {
      "type": "Feature",
      "properties": {
        "type": "reported_block_stop",
        "stop_code": "26691",
        "stop_name": "רקנאטי/שד' קק''ל",
        "marker-color": "#ff8800",
        "marker-symbol": "bus",
        "marker-size": "medium"
      },
      "geometry": {
        "type": "Point",
        "coordinates": [
          34.802615,
          32.122942
        ]
      }
    },
    {
      "type": "Feature",
      "properties": {
        "type": "reported_block_stop",
        "stop_code": "26692",
        "stop_name": "מרכז שוסטר/אבא אחימאיר",
        "marker-color": "#ff8800",
        "marker-symbol": "bus",
        "marker-size": "medium"
      },
      "geometry": {
        "type": "Point",
        "coordinates": [
          34.802224,
          32.124862
        ]
      }
    },
    {
      "type": "Feature",
      "properties": {
        "type": "deviate_from_stop",
        "stop_code": "21394",
        "stop_name": "חיים לבנון/קלצ'קין",
        "marker-color": "#8000ff",
        "marker-symbol": "bus",
        "marker-size": "medium"
      },
      "geometry": {
        "type": "Point",
        "coordinates": [
          34.801869,
          32.119043
        ]
      }
    },
    {
      "type": "Feature",
      "properties": {
        "type": "deviate_to_stop",
        "stop_code": "20104",
        "stop_name": "שד' קק''ל/שלמה בן יוסף",
        "marker-color": "#8000ff",
        "marker-symbol": "bus",
        "marker-size": "medium"
      },
      "geometry": {
        "type": "Point",
        "coordinates": [
          34.796594,
          32.122465
        ]
      }
    }
  ]
}