{
  "type": "FeatureCollection",
  "features": [
    {
      "type": "Feature",
      "properties": {
        "type": "deviation_path_edge",
        "from_stop_code": "26333",
        "to_stop_code": "26137",
        "stroke": "#00bcd4",
        "stroke-width": 3,
        "stroke-opacity": 0.95
      },
      "geometry": {
        "type": "LineString",
        "coordinates": [
          [
            34.818402417408564,
            32.080805086160666
          ],
          [
            34.818252,
            32.080648
          ],
          [
            34.817862,
            32.080397
          ],
          [
            34.817335,
            32.080087
          ],
          [
            34.817002,
            32.07989
          ],
          [
            34.816663,
            32.079703
          ],
          [
            34.816007,
            32.079463
          ],
          [
            34.815888,
            32.079408
          ],
          [
            34.815701,
            32.079324
          ],
          [
            34.814856,
            32.079217
          ],
          [
            34.814838,
            32.079118
          ],
          [
            34.814835,
            32.079102
          ],
          [
            34.814838,
            32.079048
          ],
          [
            34.814934,
            32.078748
          ],
          [
            34.815068,
            32.078386
          ],
          [
            34.815076,
            32.078344
          ],
          [
            34.815067,
            32.078281
          ],
          [
            34.815013,
            32.078195
          ],
          [
            34.814826,
            32.077995
          ],
          [
            34.814800617469444,
            32.077968229362305
          ]
        ]
      }
    },
    {
      "type": "Feature",
      "properties": {
        "type": "deviation_path_edge",
        "from_stop_code": "26137",
        "to_stop_code": "26133",
        "stroke": "#00bcd4",
        "stroke-width": 3,
        "stroke-opacity": 0.95
      },
      "geometry": {
        "type": "LineString",
        "coordinates": [
          [
            34.814800617469444,
            32.077968229362305
          ],
          [
            34.814698,
            32.07786
          ],
          [
            34.81459,
            32.077735
          ],
          [
            34.814495,
            32.077619
          ],
          [
            34.814406,
            32.07751
          ],
          [
            34.814235,
            32.07737
          ],
          [
            34.814013,
            32.077199
          ],
          [
            34.813852,
            32.077067
          ],
          [
            34.813783,
            32.077011
          ],
          [
            34.8137532490566,
            32.07698372830188
          ]
        ]
      }
    },
    {
      "type": "Feature",
      "properties": {
        "type": "deviation_path_edge",
        "from_stop_code": "26133",
        "to_stop_code": "26129",
        "stroke": "#00bcd4",
        "stroke-width": 3,
        "stroke-opacity": 0.95
      },
      "geometry": {
        "type": "LineString",
        "coordinates": [
          [
            34.8137532490566,
            32.07698372830188
          ],
          [
            34.813687,
            32.076923
          ],
          [
            34.813058,
            32.076374
          ],
          [
            34.812747,
            32.076102
          ],
          [
            34.812593,
            32.075981
          ],
          [
            34.812448,
            32.075878
          ],
          [
            34.812205,
            32.075758
          ],
          [
            34.812073,
            32.075713
          ],
          [
            34.811986,
            32.075696
          ],
          [
            34.811875,
            32.075687
          ],
          [
            34.811547,
            32.07568
          ],
          [
            34.810608,
            32.075668
          ],
          [
            34.810577,
            32.075665
          ],
          [
            34.810224,
            32.075681
          ],
          [
            34.810021,
            32.075678
          ],
          [
            34.809872,
            32.075667
          ],
          [
            34.809746,
            32.075637
          ],
          [
            34.809581,
            32.075582
          ],
          [
            34.809416,
            32.075527
          ],
          [
            34.80927364200959,
            32.075481919969704
          ]
        ]
      }
    },
    {
      "type": "Feature",
      "properties": {
        "type": "deviation_path_edge",
        "from_stop_code": "26129",
        "to_stop_code": "21096",
        "stroke": "#00bcd4",
        "stroke-width": 3,
        "stroke-opacity": 0.95
      },
      "geometry": {
        "type": "LineString",
        "coordinates": [
          [
            34.80927364200959,
            32.075481919969704
          ],
          [
            34.808996,
            32.075394
          ],
          [
            34.808843,
            32.075344
          ],
          [
            34.808739,
            32.075327
          ],
          [
            34.808602,
            32.075319
          ],
          [
            34.808464,
            32.07531
          ],
          [
            34.808105,
            32.075306
          ],
          [
            34.807664,
            32.075288
          ],
          [
            34.807522,
            32.075279
          ],
          [
            34.80694690211667,
            32.07524195123445
          ]
        ]
      }
    },
    {
      "type": "Feature",
      "properties": {
        "type": "deviation_path_edge",
        "from_stop_code": "21096",
        "to_stop_code": "21093",
        "stroke": "#00bcd4",
        "stroke-width": 3,
        "stroke-opacity": 0.95
      },
      "geometry": {
        "type": "LineString",
        "coordinates": [
          [
            34.80694690211667,
            32.07524195123445
          ],
          [
            34.806839,
            32.075235
          ],
          [
            34.806456,
            32.075209
          ],
          [
            34.806435,
            32.075209
          ],
          [
            34.806142,
            32.075211
          ],
          [
            34.805518,
            32.075226
          ],
          [
            34.804781,
            32.075235
          ],
          [
            34.804716,
            32.075239
          ],
          [
            34.804521,
            32.075249
          ],
          [
            34.804458,
            32.075253
          ],
          [
            34.803519,
            32.075294
          ],
          [
            34.80321948881653,
            32.0753105475792
          ]
        ]
      }
    },
    {
      "type": "Feature",
      "properties": {
        "type": "deviation_path_edge",
        "from_stop_code": "21093",
        "to_stop_code": "21125",
        "stroke": "#00bcd4",
        "stroke-width": 3,
        "stroke-opacity": 0.95
      },
      "geometry": {
        "type": "LineString",
        "coordinates": [
          [
            34.80321948881653,
            32.0753105475792
          ],
          [
            34.802976,
            32.075324
          ],
          [
            34.80251,
            32.07535
          ],
          [
            34.802319,
            32.075359
          ],
          [
            34.802255,
            32.075362
          ],
          [
            34.801937,
            32.075367
          ],
          [
            34.801735,
            32.075378
          ],
          [
            34.802029,
            32.076108
          ],
          [
            34.802156,
            32.076457
          ],
          [
            34.802195,
            32.076627
          ],
          [
            34.802211,
            32.076734
          ],
          [
            34.802221,
            32.076854
          ],
          [
            34.802213,
            32.07702
          ],
          [
            34.802205,
            32.077085
          ],
          [
            34.802165,
            32.077237
          ],
          [
            34.802114,
            32.077392
          ],
          [
            34.802046,
            32.077544
          ],
          [
            34.801973,
            32.077688
          ],
          [
            34.801815,
            32.077876
          ],
          [
            34.801633,
            32.078
          ],
          [
            34.801279,
            32.078191
          ],
          [
            34.80119431149356,
            32.07824034232308
          ]
        ]
      }
    },
    {
      "type": "Feature",
      "properties": {
        "type": "deviation_path_edge",
        "from_stop_code": "21125",
        "to_stop_code": "20024",
        "stroke": "#00bcd4",
        "stroke-width": 3,
        "stroke-opacity": 0.95
      },
      "geometry": {
        "type": "LineString",
        "coordinates": [
          [
            34.80119431149356,
            32.07824034232308
          ],
          [
            34.800922,
            32.078399
          ],
          [
            34.800701,
            32.078558
          ],
          [
            34.800415,
            32.078709
          ],
          [
            34.800334,
            32.078756
          ],
          [
            34.800052,
            32.078906
          ],
          [
            34.799871,
            32.078981
          ],
          [
            34.799621,
            32.079086
          ],
          [
            34.799187,
            32.079322
          ],
          [
            34.79895,
            32.079467
          ],
          [
            34.79888,
            32.07953
          ],
          [
            34.798585,
            32.07974
          ],
          [
            34.797985,
            32.080158
          ],
          [
            34.7978,
            32.080299
          ],
          [
            34.79774993367536,
            32.08033546449077
          ]
        ]
      }
    },
    {
      "type": "Feature",
      "properties": {
        "type": "deviation_path_edge",
        "from_stop_code": "20024",
        "to_stop_code": "21139",
        "stroke": "#00bcd4",
        "stroke-width": 3,
        "stroke-opacity": 0.95
      },
      "geometry": {
        "type": "LineString",
        "coordinates": [
          [
            34.79774993367536,
            32.08033546449077
          ],
          [
            34.797627,
            32.080425
          ],
          [
            34.797309,
            32.080657
          ],
          [
            34.797183,
            32.080766
          ],
          [
            34.79707,
            32.080866
          ],
          [
            34.79701,
            32.080942
          ],
          [
            34.796969,
            32.080994
          ],
          [
            34.796704,
            32.081251
          ],
          [
            34.796461,
            32.081486
          ],
          [
            34.796393,
            32.081552
          ],
          [
            34.796335,
            32.081608
          ],
          [
            34.796093,
            32.081901
          ],
          [
            34.796041,
            32.081964
          ],
          [
            34.795997,
            32.082001
          ],
          [
            34.795867,
            32.08212
          ],
          [
            34.795858,
            32.082127
          ],
          [
            34.795692,
            32.082254
          ],
          [
            34.79554,
            32.082377
          ],
          [
            34.79543136718806,
            32.08243313910416
          ]
        ]
      }
    },
    {
      "type": "Feature",
      "properties": {
        "type": "original_route_shape",
        "shape_id": "151012",
        "stroke": "#1f2a7a",
        "stroke-width": 3,
        "stroke-opacity": 0.85
      },
      "geometry": {
        "type": "LineString",
        "coordinates": [
          [
            34.839012532560766,
            32.06918916941775
          ],
          [
            34.838905,
            32.06897
          ],
          [
            34.838865,
            32.068889
          ],
          [
            34.838857,
            32.068874
          ],
          [
            34.838696,
            32.068527
          ],
          [
            34.8386,
            32.068367
          ],
          [
            34.83856,
            32.06829
          ],
          [
            34.838443,
            32.068064
          ],
          [
            34.838404,
            32.067991
          ],
          [
            34.838292,
            32.067779
          ],
          [
            34.838263,
            32.067722
          ],
          [
            34.83811,
            32.067422
          ],
          [
            34.838028,
            32.067262
          ],
          [
            34.837868,
            32.0673
          ],
          [
            34.837627,
            32.067384
          ],
          [
            34.837495,
            32.067433
          ],
          [
            34.837387,
            32.067472
          ],
          [
            34.836985,
            32.067624
          ],
          [
            34.836662,
            32.067759
          ],
          [
            34.836543,
            32.067527
          ],
          [
            34.836493,
            32.067441
          ],
          [
            34.836327,
            32.067173
          ],
          [
            34.836299,
            32.067129
          ],
          [
            34.836055,
            32.066905
          ],
          [
            34.835786,
            32.06671
          ],
          [
            34.835512,
            32.066573
          ],
          [
            34.835434,
            32.066534
          ],
          [
            34.835171,
            32.066456
          ],
          [
            34.834795,
            32.066366
          ],
          [
            34.834483,
            32.066311
          ],
          [
            34.834098,
            32.066273
          ],
          [
            34.833742,
            32.066238
          ],
          [
            34.833297,
            32.066191
          ],
          [
            34.833025,
            32.066192
          ],
          [
            34.832946,
            32.066197
          ],
          [
            34.832976,
            32.065983
          ],
          [
            34.833012,
            32.065556
          ],
          [
            34.833017,
            32.065252
          ],
          [
            34.833023,
            32.064953
          ],
          [
            34.833001,
            32.064675
          ],
          [
            34.832994,
            32.064643
          ],
          [
            34.832953,
            32.064439
          ],
          [
            34.832911,
            32.064185
          ],
          [
            34.832838,
            32.063889
          ],
          [
            34.832776,
            32.063571
          ],
          [
            34.832434,
            32.063503
          ],
          [
            34.832394,
            32.063501
          ],
          [
            34.832325,
            32.063493
          ],
          [
            34.831919,
            32.063447
          ],
          [
            34.831788,
            32.063432
          ],
          [
            34.831749,
            32.063431
          ],
          [
            34.831565,
            32.063425
          ],
          [
            34.8314,
            32.063419
          ],
          [
            34.830317,
            32.06344
          ],
          [
            34.829803,
            32.063469
          ],
          [
            34.829672,
            32.063462
          ],
          [
            34.829282,
            32.063461
          ],
          [
            34.829053,
            32.06346
          ],
          [
            34.82848,
            32.063449
          ],
          [
            34.82848,
            32.063518
          ],
          [
            34.828468,
            32.063667
          ],
          [
            34.82843,
            32.063923
          ],
          [
            34.828402,
            32.064296
          ],
          [
            34.82841,
            32.064545
          ],
          [
            34.82843,
            32.064986
          ],
          [
            34.828434,
            32.065062
          ],
          [
            34.828446,
            32.065501
          ],
          [
            34.82848,
            32.06638
          ],
          [
            34.828484,
            32.066819
          ],
          [
            34.82848,
            32.067047
          ],
          [
            34.828486,
            32.06712
          ],
          [
            34.828518,
            32.067535
          ],
          [
            34.828525,
            32.067608
          ],
          [
            34.828567,
            32.068077
          ],
          [
            34.828595,
            32.068306
          ],
          [
            34.828598,
            32.068333
          ],
          [
            34.828609,
            32.068464
          ],
          [
            34.828668,
            32.06915
          ],
          [
            34.828685,
            32.069536
          ],
          [
            34.82873,
            32.070105
          ],
          [
            34.828614,
            32.070106
          ],
          [
            34.827448,
            32.070199
          ],
          [
            34.82686,
            32.070254
          ],
          [
            34.826712,
            32.070257
          ],
          [
            34.82606,
            32.070297
          ],
          [
            34.825442,
            32.070343
          ],
          [
            34.824735,
            32.070365
          ],
          [
            34.824834,
            32.070953
          ],
          [
            34.824878,
            32.071551
          ],
          [
            34.824938,
            32.072062
          ],
          [
            34.824939,
            32.072372
          ],
          [
            34.824918,
            32.0729
          ],
          [
            34.824958,
            32.073426
          ],
          [
            34.82502,
            32.074531
          ],
          [
            34.825023,
            32.074595
          ],
          [
            34.825077,
            32.075113
          ],
          [
            34.825141,
            32.076366
          ],
          [
            34.825174,
            32.07664
          ],
          [
            34.825204,
            32.077003
          ],
          [
            34.825213,
            32.077564
          ],
          [
            34.825216,
            32.077597
          ],
          [
            34.825264,
            32.077947
          ],
          [
            34.825348,
            32.078274
          ],
          [
            34.825377,
            32.078443
          ],
          [
            34.825474,
            32.07899
          ],
          [
            34.825496,
            32.079162
          ],
          [
            34.825404,
            32.07917
          ],
          [
            34.825167,
            32.079181
          ],
          [
            34.824774,
            32.079204
          ],
          [
            34.823629,
            32.079243
          ],
          [
            34.823325,
            32.079255
          ],
          [
            34.821811,
            32.0793
          ],
          [
            34.821768,
            32.079301
          ],
          [
            34.821356,
            32.079316
          ],
          [
            34.820033,
            32.079369
          ],
          [
            34.819772,
            32.079406
          ],
          [
            34.819997,
            32.080148
          ],
          [
            34.82006,
            32.080354
          ],
          [
            34.819946,
            32.080381
          ],
          [
            34.81859,
            32.081002
          ],
          [
            34.818455,
            32.08086
          ],
          [
            34.818252,
            32.080648
          ],
          [
            34.817862,
            32.080397
          ],
          [
            34.817335,
            32.080087
          ],
          [
            34.817002,
            32.07989
          ],
          [
            34.816663,
            32.079703
          ],
          [
            34.816007,
            32.079463
          ],
          [
            34.815888,
            32.079408
          ],
          [
            34.815701,
            32.079324
          ],
          [
            34.814856,
            32.079217
          ],
          [
            34.814636,
            32.079224
          ],
          [
            34.8144,
            32.079248
          ],
          [
            34.814112,
            32.079287
          ],
          [
            34.813778,
            32.079337
          ],
          [
            34.813559,
            32.079427
          ],
          [
            34.813447,
            32.079509
          ],
          [
            34.813171,
            32.079726
          ],
          [
            34.813035,
            32.079849
          ],
          [
            34.812995,
            32.079892
          ],
          [
            34.812458,
            32.080453
          ],
          [
            34.812222,
            32.08068
          ],
          [
            34.811952,
            32.080898
          ],
          [
            34.811883,
            32.080953
          ],
          [
            34.811842,
            32.080976
          ],
          [
            34.811808,
            32.080991
          ],
          [
            34.811764,
            32.081004
          ],
          [
            34.811684,
            32.081013
          ],
          [
            34.811621,
            32.081017
          ],
          [
            34.811547,
            32.081016
          ],
          [
            34.811486,
            32.081015
          ],
          [
            34.811376,
            32.081004
          ],
          [
            34.811011,
            32.080956
          ],
          [
            34.810752,
            32.080932
          ],
          [
            34.810608,
            32.080941
          ],
          [
            34.81052,
            32.080945
          ],
          [
            34.810399,
            32.080968
          ],
          [
            34.810305,
            32.080998
          ],
          [
            34.810197,
            32.08104
          ],
          [
            34.81014,
            32.081071
          ],
          [
            34.810068,
            32.081125
          ],
          [
            34.809992,
            32.081194
          ],
          [
            34.809939,
            32.081258
          ],
          [
            34.809856,
            32.081365
          ],
          [
            34.80979,
            32.081452
          ],
          [
            34.809747,
            32.081497
          ],
          [
            34.809707,
            32.081516
          ],
          [
            34.809711,
            32.081533
          ],
          [
            34.80971,
            32.08155
          ],
          [
            34.809708,
            32.08156
          ],
          [
            34.809704,
            32.081571
          ],
          [
            34.809695,
            32.081585
          ],
          [
            34.809683,
            32.081598
          ],
          [
            34.809674,
            32.081605
          ],
          [
            34.809664,
            32.081612
          ],
          [
            34.809647,
            32.081619
          ],
          [
            34.809635,
            32.081623
          ],
          [
            34.809623,
            32.081625
          ],
          [
            34.809603,
            32.081626
          ],
          [
            34.809584,
            32.081623
          ],
          [
            34.809572,
            32.08162
          ],
          [
            34.80956,
            32.081616
          ],
          [
            34.809544,
            32.081607
          ],
          [
            34.809531,
            32.081595
          ],
          [
            34.809519,
            32.081582
          ],
          [
            34.809511,
            32.081567
          ],
          [
            34.809508,
            32.081557
          ],
          [
            34.809506,
            32.081547
          ],
          [
            34.809483,
            32.081546
          ],
          [
            34.809356,
            32.081522
          ],
          [
            34.809296,
            32.081501
          ],
          [
            34.80923,
            32.08146
          ],
          [
            34.809054,
            32.081285
          ],
          [
            34.809012,
            32.081225
          ],
          [
            34.808805,
            32.081006
          ],
          [
            34.808719,
            32.080952
          ],
          [
            34.808636,
            32.080918
          ],
          [
            34.808558,
            32.080907
          ],
          [
            34.808459,
            32.08091
          ],
          [
            34.808327,
            32.080951
          ],
          [
            34.808228,
            32.081004
          ],
          [
            34.80814,
            32.081076
          ],
          [
            34.808044,
            32.081175
          ],
          [
            34.807988,
            32.081251
          ],
          [
            34.807792,
            32.081347
          ],
          [
            34.807646,
            32.081398
          ],
          [
            34.807441,
            32.081454
          ],
          [
            34.806316,
            32.081689
          ],
          [
            34.806021,
            32.081755
          ],
          [
            34.805684,
            32.081814
          ],
          [
            34.805071,
            32.081979
          ],
          [
            34.804785,
            32.082075
          ],
          [
            34.804324,
            32.082292
          ],
          [
            34.804154,
            32.082367
          ],
          [
            34.804004,
            32.082429
          ],
          [
            34.803688,
            32.082602
          ],
          [
            34.803554,
            32.082673
          ],
          [
            34.803523,
            32.082701
          ],
          [
            34.803513,
            32.082712
          ],
          [
            34.803435,
            32.082907
          ],
          [
            34.803442,
            32.082966
          ],
          [
            34.80326,
            32.082964
          ],
          [
            34.803134,
            32.082961
          ],
          [
            34.80301,
            32.08296
          ],
          [
            34.802863,
            32.082955
          ],
          [
            34.80256,
            32.082957
          ],
          [
            34.801709,
            32.082967
          ],
          [
            34.801401,
            32.082944
          ],
          [
            34.801136,
            32.082903
          ],
          [
            34.801082,
            32.082888
          ],
          [
            34.800902,
            32.082836
          ],
          [
            34.800855,
            32.082817
          ],
          [
            34.800783,
            32.082788
          ],
          [
            34.800385,
            32.082629
          ],
          [
            34.800143,
            32.08253
          ],
          [
            34.799929,
            32.082433
          ],
          [
            34.799743,
            32.08235
          ],
          [
            34.799165,
            32.082118
          ],
          [
            34.798855,
            32.081989
          ],
          [
            34.798277,
            32.081713
          ],
          [
            34.797551,
            32.081324
          ],
          [
            34.797357,
            32.081221
          ],
          [
            34.797289,
            32.081178
          ],
          [
            34.797119,
            32.081126
          ],
          [
            34.797059,
            32.081115
          ],
          [
            34.79701,
            32.081118
          ],
          [
            34.796704,
            32.081251
          ],
          [
            34.796463,
            32.081484
          ],
          [
            34.796393,
            32.081552
          ],
          [
            34.796335,
            32.081608
          ],
          [
            34.796093,
            32.081901
          ],
          [
            34.796041,
            32.081964
          ],
          [
            34.795997,
            32.082001
          ],
          [
            34.795867,
            32.08212
          ],
          [
            34.795692,
            32.082254
          ],
          [
            34.79554,
            32.082377
          ],
          [
            34.795391,
            32.082454
          ],
          [
            34.795206,
            32.082533
          ],
          [
            34.795064,
            32.082577
          ],
          [
            34.794942,
            32.082608
          ],
          [
            34.794686,
            32.082658
          ],
          [
            34.794544,
            32.082683
          ],
          [
            34.794211,
            32.082737
          ],
          [
            34.792915078597886,
            32.08293976321258
          ]
        ]
      }
    },
    {
      "type": "Feature",
      "properties": {
        "type": "original_route_stop",
        "stop_code": "26472",
        "stop_name": "מסוף עמידר",
        "marker-color": "#2ca02c",
        "marker-symbol": "bus",
        "marker-size": "medium"
      },
      "geometry": {
        "type": "Point",
        "coordinates": [
          34.838966,
          32.069212
        ]
      }
    },
    {
      "type": "Feature",
      "properties": {
        "type": "original_route_stop",
        "stop_code": "26466",
        "stop_name": "התפוצות/קוממיות",
        "marker-color": "#2ca02c",
        "marker-symbol": "bus",
        "marker-size": "medium"
      },
      "geometry": {
        "type": "Point",
        "coordinates": [
          34.838128,
          32.067572
        ]
      }
    },
    {
      "type": "Feature",
      "properties": {
        "type": "original_route_stop",
        "stop_code": "26465",
        "stop_name": "אצ''ל/המחתרת",
        "marker-color": "#2ca02c",
        "marker-symbol": "bus",
        "marker-size": "medium"
      },
      "geometry": {
        "type": "Point",
        "coordinates": [
          34.836374,
          32.067346
        ]
      }
    },
    {
      "type": "Feature",
      "properties": {
        "type": "original_route_stop",
        "stop_code": "26464",
        "stop_name": "אצ''ל/בן אליעזר",
        "marker-color": "#2ca02c",
        "marker-symbol": "bus",
        "marker-size": "medium"
      },
      "geometry": {
        "type": "Point",
        "coordinates": [
          34.83368,
          32.066277
        ]
      }
    },
    {
      "type": "Feature",
      "properties": {
        "type": "original_route_stop",
        "stop_code": "26462",
        "stop_name": "בן אליעזר/אצ''ל",
        "marker-color": "#2ca02c",
        "marker-symbol": "bus",
        "marker-size": "medium"
      },
      "geometry": {
        "type": "Point",
        "coordinates": [
          34.832938,
          32.065799
        ]
      }
    },
    {
      "type": "Feature",
      "properties": {
        "type": "original_route_stop",
        "stop_code": "26182",
        "stop_name": "פנחס רוטנברג/בן אליעזר",
        "marker-color": "#2ca02c",
        "marker-symbol": "bus",
        "marker-size": "medium"
      },
      "geometry": {
        "type": "Point",
        "coordinates": [
          34.832247,
          32.06353
        ]
      }
    },
    {
      "type": "Feature",
      "properties": {
        "type": "original_route_stop",
        "stop_code": "21321",
        "stop_name": "הירדן/ פנחס",
        "marker-color": "#2ca02c",
        "marker-symbol": "bus",
        "marker-size": "medium"
      },
      "geometry": {
        "type": "Point",
        "coordinates": [
          34.828494,
          32.063857
        ]
      }
    },
    {
      "type": "Feature",
      "properties": {
        "type": "original_route_stop",
        "stop_code": "21242",
        "stop_name": "הירדן/אצ''ל",
        "marker-color": "#2ca02c",
        "marker-symbol": "bus",
        "marker-size": "medium"
      },
      "geometry": {
        "type": "Point",
        "coordinates": [
          34.828521,
          32.066062
        ]
      }
    },
    {
      "type": "Feature",
      "properties": {
        "type": "original_route_stop",
        "stop_code": "21568",
        "stop_name": "נגבה/ הירדן",
        "marker-color": "#2ca02c",
        "marker-symbol": "bus",
        "marker-size": "medium"
      },
      "geometry": {
        "type": "Point",
        "coordinates": [
          34.827992,
          32.070201
        ]
      }
    },
    {
      "type": "Feature",
      "properties": {
        "type": "original_route_stop",
        "stop_code": "21566",
        "stop_name": "נגבה/ הרא''ה",
        "marker-color": "#2ca02c",
        "marker-symbol": "bus",
        "marker-size": "medium"
      },
      "geometry": {
        "type": "Point",
        "coordinates": [
          34.825556,
          32.07038
        ]
      }
    },
    {
      "type": "Feature",
      "properties": {
        "type": "original_route_stop",
        "stop_code": "21715",
        "stop_name": "הרא''ה/ שד. ירושלים",
        "marker-color": "#2ca02c",
        "marker-symbol": "bus",
        "marker-size": "medium"
      },
      "geometry": {
        "type": "Point",
        "coordinates": [
          34.825028,
          32.073724
        ]
      }
    },
    {
      "type": "Feature",
      "properties": {
        "type": "original_route_stop",
        "stop_code": "26230",
        "stop_name": "הרא''ה/ברקאי",
        "marker-color": "#2ca02c",
        "marker-symbol": "bus",
        "marker-size": "medium"
      },
      "geometry": {
        "type": "Point",
        "coordinates": [
          34.825261,
          32.077271
        ]
      }
    },
    {
      "type": "Feature",
      "properties": {
        "type": "original_route_stop",
        "stop_code": "21384",
        "stop_name": "חיבת ציון/הרא''ה",
        "marker-color": "#2ca02c",
        "marker-symbol": "bus",
        "marker-size": "medium"
      },
      "geometry": {
        "type": "Point",
        "coordinates": [
          34.825057,
          32.079233
        ]
      }
    },
    {
      "type": "Feature",
      "properties": {
        "type": "original_route_stop",
        "stop_code": "21220",
        "stop_name": "חיבת ציון/דרך בן גוריון",
        "marker-color": "#2ca02c",
        "marker-symbol": "bus",
        "marker-size": "medium"
      },
      "geometry": {
        "type": "Point",
        "coordinates": [
          34.821279,
          32.079364
        ]
      }
    },
    {
      "type": "Feature",
      "properties": {
        "type": "original_route_stop",
        "stop_code": "25903",
        "stop_name": "ארלוזורוב/דרך נמיר",
        "marker-color": "#2ca02c",
        "marker-symbol": "bus",
        "marker-size": "medium"
      },
      "geometry": {
        "type": "Point",
        "coordinates": [
          34.792922,
          32.082984
        ]
      }
    },
    {
      "type": "Feature",
      "properties": {
        "type": "cancelled_stop",
        "stop_code": "26138",
        "stop_name": "ארלוזורוב/ביאליק",
        "marker-color": "#ff0000",
        "marker-symbol": "bus",
        "marker-size": "medium"
      },
      "geometry": {
        "type": "Point",
        "coordinates": [
          34.814189,
          32.079323
        ]
      }
    },
    {
      "type": "Feature",
      "properties": {
        "type": "cancelled_stop",
        "stop_code": "26272",
        "stop_name": "גן הקופים/ארלוזורוב",
        "marker-color": "#ff0000",
        "marker-symbol": "bus",
        "marker-size": "medium"
      },
      "geometry": {
        "type": "Point",
        "coordinates": [
          34.812015,
          32.080909
        ]
      }
    },
    {
      "type": "Feature",
      "properties": {
        "type": "cancelled_stop",
        "stop_code": "26260",
        "stop_name": "ארלוזורוב/החשמונאים",
        "marker-color": "#ff0000",
        "marker-symbol": "bus",
        "marker-size": "medium"
      },
      "geometry": {
        "type": "Point",
        "coordinates": [
          34.809175,
          32.081474
        ]
      }
    },
    {
      "type": "Feature",
      "properties": {
        "type": "cancelled_stop",
        "stop_code": "26250",
        "stop_name": "צומת עלית/ארלוזורוב",
        "marker-color": "#ff0000",
        "marker-symbol": "bus",
        "marker-size": "medium"
      },
      "geometry": {
        "type": "Point",
        "coordinates": [
          34.805378,
          32.081944
        ]
      }
    },
    {
      "type": "Feature",
      "properties": {
        "type": "cancelled_stop",
        "stop_code": "20801",
        "stop_name": "ת.רק''ל אבא הלל/דרך ז'בוטינסקי",
        "marker-color": "#ff0000",
        "marker-symbol": "bus",
        "marker-size": "medium"
      },
      "geometry": {
        "type": "Point",
        "coordinates": [
          34.802159,
          32.083007
        ]
      }
    },
    {
      "type": "Feature",
      "properties": {
        "type": "new_stop",
        "stop_code": "26137",
        "stop_name": "סירקין/ביאליק",
        "marker-color": "#1f9ed6",
        "marker-symbol": "bus",
        "marker-size": "medium"
      },
      "geometry": {
        "type": "Point",
        "coordinates": [
          34.814765,
          32.078002
        ]
      }
    },
    {
      "type": "Feature",
      "properties": {
        "type": "new_stop",
        "stop_code": "26133",
        "stop_name": "כיכר נח/כצנלסון",
        "marker-color": "#1f9ed6",
        "marker-symbol": "bus",
        "marker-size": "medium"
      },
      "geometry": {
        "type": "Point",
        "coordinates": [
          34.81372,
          32.07702
        ]
      }
    },
    {
      "type": "Feature",
      "properties": {
        "type": "new_stop",
        "stop_code": "26129",
        "stop_name": "כצנלסון/ויצמן",
        "marker-color": "#1f9ed6",
        "marker-symbol": "bus",
        "marker-size": "medium"
      },
      "geometry": {
        "type": "Point",
        "coordinates": [
          34.80926,
          32.075525
        ]
      }
    },
    {
      "type": "Feature",
      "properties": {
        "type": "new_stop",
        "stop_code": "21096",
        "stop_name": "כצנלסון/קק''ל",
        "marker-color": "#1f9ed6",
        "marker-symbol": "bus",
        "marker-size": "medium"
      },
      "geometry": {
        "type": "Point",
        "coordinates": [
          34.806944,
          32.075287
        ]
      }
    },
    {
      "type": "Feature",
      "properties": {
        "type": "new_stop",
        "stop_code": "21093",
        "stop_name": "כצנלסון/לכיש",
        "marker-color": "#1f9ed6",
        "marker-symbol": "bus",
        "marker-size": "medium"
      },
      "geometry": {
        "type": "Point",
        "coordinates": [
          34.803222,
          32.075356
        ]
      }
    },
    {
      "type": "Feature",
      "properties": {
        "type": "new_stop",
        "stop_code": "21125",
        "stop_name": "ערבי נחל/בורוכוב",
        "marker-color": "#1f9ed6",
        "marker-symbol": "bus",
        "marker-size": "medium"
      },
      "geometry": {
        "type": "Point",
        "coordinates": [
          34.801218,
          32.078281
        ]
      }
    },
    {
      "type": "Feature",
      "properties": {
        "type": "new_stop",
        "stop_code": "20024",
        "stop_name": "גשר דוד שיפמן /דרך מנחם בגין",
        "marker-color": "#1f9ed6",
        "marker-symbol": "bus",
        "marker-size": "medium"
      },
      "geometry": {
        "type": "Point",
        "coordinates": [
          34.797778,
          32.080374
        ]
      }
    },
    {
      "type": "Feature",
      "properties": {
        "type": "reported_block_stop",
        "stop_code": "26272",
        "stop_name": "גן הקופים/ארלוזורוב",
        "marker-color": "#ff8800",
        "marker-symbol": "bus",
        "marker-size": "medium"
      },
      "geometry": {
        "type": "Point",
        "coordinates": [
          34.812015,
          32.080909
        ]
      }
    },
    {
      "type": "Feature",
      "properties": {
        "type": "reported_block_stop",
        "stop_code": "26260",
        "stop_name": "ארלוזורוב/החשמונאים",
        "marker-color": "#ff8800",
        "marker-symbol": "bus",
        "marker-size": "medium"
      },
      "geometry": {
        "type": "Point",
        "coordinates": [
          34.809175,
          32.081474
        ]
      }
    },
    {
      "type": "Feature",
      "properties": {
        "type": "deviate_from_stop",
        "stop_code": "26333",
        "stop_name": "קריניצי/הרצל",
        "marker-color": "#8000ff",
        "marker-symbol": "bus",
        "marker-size": "medium"
      },
      "geometry": {
        "type": "Point",
        "coordinates": [
          34.818367,
          32.080839
        ]
      }
    },
    {
      "type": "Feature",
      "properties": {
        "type": "deviate_to_stop",
        "stop_code": "21139",
        "stop_name": "ת. רכבת תל אביב סבידור/על פרשת דרכים",
        "marker-color": "#8000ff",
        "marker-symbol": "bus",
        "marker-size": "medium"
      },
      "geometry": {
        "type": "Point",
        "coordinates": [
          34.795453,
          32.082475
        ]
      }
    }
  ]
}