{
  "type": "FeatureCollection",
  "features": [
    {
      "type": "Feature",
      "properties": {
        "type": "deviation_path_edge",
        "from_stop_code": "21100",
        "to_stop_code": "27005",
        "stroke": "#00bcd4",
        "stroke-width": 3,
        "stroke-opacity": 0.95
      },
      "geometry": {
        "type": "LineString",
        "coordinates": [
          [
            34.78281873233984,
            32.07551027822057
          ],
          [
            34.783416,
            32.075527
          ],
          [
            34.783437,
            32.075394
          ],
          [
            34.783448,
            32.075267
          ],
          [
            34.783452,
            32.075213
          ],
          [
            34.783485,
            32.074861
          ],
          [
            34.783498,
            32.074773
          ],
          [
            34.783521,
            32.074563
          ],
          [
            34.783542,
            32.074371
          ],
          [
            34.783555,
            32.074159
          ],
          [
            34.783599,
            32.073515
          ],
          [
            34.783603,
            32.073412
          ],
          [
            34.783638,
            32.073412
          ],
          [
            34.783674,
            32.073412
          ],
          [
            34.784153,
            32.073403
          ],
          [
            34.78475,
            32.073393
          ],
          [
            34.784804,
            32.073386
          ],
          [
            34.785509,
            32.073331
          ],
          [
            34.786215,
            32.073307
          ],
          [
            34.78679768441588,
            32.07329817144824
          ]
        ]
      }
    },
    {
      "type": "Feature",
      "properties": {
        "type": "deviation_path_edge",
        "from_stop_code": "27005",
        "to_stop_code": "23014",
        "stroke": "#00bcd4",
        "stroke-width": 3,
        "stroke-opacity": 0.95
      },
      "geometry": {
        "type": "LineString",
        "coordinates": [
          [
            34.78679768441588,
            32.07329817144824
          ],
          [
            34.787073,
            32.073294
          ],
          [
            34.787404,
            32.073288
          ],
          [
            34.7875,
            32.073284
          ],
          [
            34.787615,
            32.073279
          ],
          [
            34.788076,
            32.073278
          ],
          [
            34.788435,
            32.07328
          ],
          [
            34.789077,
            32.073284
          ],
          [
            34.789443,
            32.073286
          ],
          [
            34.790123,
            32.073284
          ],
          [
            34.790275,
            32.073285
          ],
          [
            34.79038,
            32.073282
          ],
          [
            34.790544,
            32.073278
          ],
          [
            34.790614,
            32.073458
          ],
          [
            34.790902,
            32.074137
          ],
          [
            34.790902,
            32.074138
          ],
          [
            34.79107010282839,
            32.07447583772307
          ]
        ]
      }
    },
    {
      "type": "Feature",
      "properties": {
        "type": "deviation_path_edge",
        "from_stop_code": "23014",
        "to_stop_code": "20013",
        "stroke": "#00bcd4",
        "stroke-width": 3,
        "stroke-opacity": 0.95
      },
      "geometry": {
        "type": "LineString",
        "coordinates": [
          [
            34.79107010282839,
            32.07447583772307
          ],
          [
            34.791108,
            32.074552
          ],
          [
            34.791338,
            32.075062
          ],
          [
            34.791407,
            32.075239
          ],
          [
            34.791454,
            32.075393
          ],
          [
            34.791558,
            32.075721
          ],
          [
            34.791798,
            32.076072
          ],
          [
            34.791906,
            32.076236
          ],
          [
            34.792019,
            32.076415
          ],
          [
            34.792123,
            32.076581
          ],
          [
            34.792242,
            32.076778
          ],
          [
            34.79249,
            32.077175
          ],
          [
            34.792606,
            32.077361
          ],
          [
            34.792909,
            32.077887
          ],
          [
            34.793011,
            32.078049
          ],
          [
            34.793386,
            32.078787
          ],
          [
            34.793413,
            32.078841
          ],
          [
            34.793449,
            32.078897
          ],
          [
            34.793528,
            32.079024
          ],
          [
            34.793737,
            32.079317
          ],
          [
            34.793818,
            32.079432
          ],
          [
            34.793877,
            32.079526
          ],
          [
            34.793929,
            32.079624
          ],
          [
            34.793954,
            32.079666
          ],
          [
            34.79399,
            32.079775
          ],
          [
            34.794056,
            32.079988
          ],
          [
            34.79413095293953,
            32.08022296483291
          ]
        ]
      }
    },
    {
      "type": "Feature",
      "properties": {
        "type": "original_route_shape",
        "shape_id": "161769",
        "stroke": "#1f2a7a",
        "stroke-width": 3,
        "stroke-opacity": 0.85
      },
      "geometry": {
        "type": "LineString",
        "coordinates": [
          [
            34.77911,
            32.055854
          ],
          [
            34.778404,
            32.056043
          ],
          [
            34.778376,
            32.056054
          ],
          [
            34.778365,
            32.056079
          ],
          [
            34.778362,
            32.056114
          ],
          [
            34.778373,
            32.056148
          ],
          [
            34.778444,
            32.056359
          ],
          [
            34.778473,
            32.056445
          ],
          [
            34.778522,
            32.056592
          ],
          [
            34.77857,
            32.056675
          ],
          [
            34.778592,
            32.056714
          ],
          [
            34.778628,
            32.056758
          ],
          [
            34.778665,
            32.056784
          ],
          [
            34.778707,
            32.056791
          ],
          [
            34.778777,
            32.056777
          ],
          [
            34.780041,
            32.056425
          ],
          [
            34.780361,
            32.056357
          ],
          [
            34.780516,
            32.056342
          ],
          [
            34.780651,
            32.056329
          ],
          [
            34.780817,
            32.05629
          ],
          [
            34.780919,
            32.056243
          ],
          [
            34.781051,
            32.056167
          ],
          [
            34.781125,
            32.056136
          ],
          [
            34.782537,
            32.055524
          ],
          [
            34.782738,
            32.055435
          ],
          [
            34.782905,
            32.055381
          ],
          [
            34.783026,
            32.055345
          ],
          [
            34.783137,
            32.055335
          ],
          [
            34.783143,
            32.055334
          ],
          [
            34.783226,
            32.05535
          ],
          [
            34.783323,
            32.05539
          ],
          [
            34.78333,
            32.055402
          ],
          [
            34.783352,
            32.05544
          ],
          [
            34.783385,
            32.055502
          ],
          [
            34.783434,
            32.055623
          ],
          [
            34.783479,
            32.055865
          ],
          [
            34.783551,
            32.0563
          ],
          [
            34.78357,
            32.056448
          ],
          [
            34.7836,
            32.056618
          ],
          [
            34.783634,
            32.056787
          ],
          [
            34.783789,
            32.057489
          ],
          [
            34.783849,
            32.057775
          ],
          [
            34.783935,
            32.058064
          ],
          [
            34.783993,
            32.058298
          ],
          [
            34.784027,
            32.058414
          ],
          [
            34.784031,
            32.058426
          ],
          [
            34.784062,
            32.058513
          ],
          [
            34.784193,
            32.058794
          ],
          [
            34.784281,
            32.059121
          ],
          [
            34.784295,
            32.059187
          ],
          [
            34.784311,
            32.059265
          ],
          [
            34.784335,
            32.059341
          ],
          [
            34.784412,
            32.059552
          ],
          [
            34.784515,
            32.060084
          ],
          [
            34.784533,
            32.06018
          ],
          [
            34.784601,
            32.060541
          ],
          [
            34.78463,
            32.060669
          ],
          [
            34.784911,
            32.061742
          ],
          [
            34.78504,
            32.062338
          ],
          [
            34.785067,
            32.062424
          ],
          [
            34.785183,
            32.062805
          ],
          [
            34.785357,
            32.063219
          ],
          [
            34.785468,
            32.06344
          ],
          [
            34.785736,
            32.063939
          ],
          [
            34.786115,
            32.064659
          ],
          [
            34.786282,
            32.06511
          ],
          [
            34.78634,
            32.065292
          ],
          [
            34.786378,
            32.065387
          ],
          [
            34.786274,
            32.065404
          ],
          [
            34.785861,
            32.065504
          ],
          [
            34.785726,
            32.065535
          ],
          [
            34.785219,
            32.065648
          ],
          [
            34.785031,
            32.065692
          ],
          [
            34.784351,
            32.065841
          ],
          [
            34.7842,
            32.065881
          ],
          [
            34.78385,
            32.06598
          ],
          [
            34.783809,
            32.066022
          ],
          [
            34.783774,
            32.066063
          ],
          [
            34.783755,
            32.066087
          ],
          [
            34.78372,
            32.066257
          ],
          [
            34.783698,
            32.06638
          ],
          [
            34.783696,
            32.066383
          ],
          [
            34.783665,
            32.066476
          ],
          [
            34.783628,
            32.066631
          ],
          [
            34.783565,
            32.06692
          ],
          [
            34.783527,
            32.067093
          ],
          [
            34.783469,
            32.067255
          ],
          [
            34.783371,
            32.067521
          ],
          [
            34.783324,
            32.067619
          ],
          [
            34.783228,
            32.068017
          ],
          [
            34.783201,
            32.06813
          ],
          [
            34.783063,
            32.068703
          ],
          [
            34.782956,
            32.069124
          ],
          [
            34.782923,
            32.069258
          ],
          [
            34.782872,
            32.069484
          ],
          [
            34.782841,
            32.069576
          ],
          [
            34.782741,
            32.069938
          ],
          [
            34.782571,
            32.070335
          ],
          [
            34.782533,
            32.070421
          ],
          [
            34.78244,
            32.070561
          ],
          [
            34.782393,
            32.070638
          ],
          [
            34.782301,
            32.070778
          ],
          [
            34.782207,
            32.07087
          ],
          [
            34.782109,
            32.070951
          ],
          [
            34.782026,
            32.071026
          ],
          [
            34.781995,
            32.071078
          ],
          [
            34.781971,
            32.071121
          ],
          [
            34.781951,
            32.071174
          ],
          [
            34.781946,
            32.07119
          ],
          [
            34.781933,
            32.071404
          ],
          [
            34.781902,
            32.072041
          ],
          [
            34.781879,
            32.072676
          ],
          [
            34.78185,
            32.073217
          ],
          [
            34.781836,
            32.073489
          ],
          [
            34.781837,
            32.073561
          ],
          [
            34.781792,
            32.074292
          ],
          [
            34.781771,
            32.074687
          ],
          [
            34.781742,
            32.075109
          ],
          [
            34.781732,
            32.075268
          ],
          [
            34.781771,
            32.075329
          ],
          [
            34.781795,
            32.07536
          ],
          [
            34.781807,
            32.075375
          ],
          [
            34.781842,
            32.075406
          ],
          [
            34.781914,
            32.075444
          ],
          [
            34.782023,
            32.075488
          ],
          [
            34.783416,
            32.075527
          ],
          [
            34.783452,
            32.075527
          ],
          [
            34.783514,
            32.075526
          ],
          [
            34.783725,
            32.07554
          ],
          [
            34.784173,
            32.075585
          ],
          [
            34.784352,
            32.075601
          ],
          [
            34.78445,
            32.075611
          ],
          [
            34.784758,
            32.075663
          ],
          [
            34.785346,
            32.075775
          ],
          [
            34.785658,
            32.075853
          ],
          [
            34.786185,
            32.076003
          ],
          [
            34.786806,
            32.076215
          ],
          [
            34.787131,
            32.07632
          ],
          [
            34.787498,
            32.076454
          ],
          [
            34.787752,
            32.076547
          ],
          [
            34.788822,
            32.07691
          ],
          [
            34.788917,
            32.076942
          ],
          [
            34.789457,
            32.077118
          ],
          [
            34.789918,
            32.077271
          ],
          [
            34.790403,
            32.077422
          ],
          [
            34.79083,
            32.077563
          ],
          [
            34.791185,
            32.077688
          ],
          [
            34.791379,
            32.077757
          ],
          [
            34.791641,
            32.077837
          ],
          [
            34.791839,
            32.077902
          ],
          [
            34.792009,
            32.077943
          ],
          [
            34.792358,
            32.078013
          ],
          [
            34.792491,
            32.07804
          ],
          [
            34.792585,
            32.078053
          ],
          [
            34.792626,
            32.078052
          ],
          [
            34.792659,
            32.078051
          ],
          [
            34.792739,
            32.078042
          ],
          [
            34.792809,
            32.078022
          ],
          [
            34.792859,
            32.078019
          ],
          [
            34.792911,
            32.078019
          ],
          [
            34.792961,
            32.07803
          ],
          [
            34.793011,
            32.078049
          ],
          [
            34.793386,
            32.078787
          ],
          [
            34.793413,
            32.078841
          ],
          [
            34.793449,
            32.078897
          ],
          [
            34.793528,
            32.079024
          ],
          [
            34.793737,
            32.079317
          ],
          [
            34.793818,
            32.079432
          ],
          [
            34.793877,
            32.079526
          ],
          [
            34.793929,
            32.079624
          ],
          [
            34.793954,
            32.079666
          ],
          [
            34.79399,
            32.079775
          ],
          [
            34.794056,
            32.079988
          ],
          [
            34.794145,
            32.080267
          ],
          [
            34.794203,
            32.080501
          ],
          [
            34.794232,
            32.080616
          ],
          [
            34.794501,
            32.081843
          ],
          [
            34.794587,
            32.082191
          ],
          [
            34.794662,
            32.082546
          ],
          [
            34.794686,
            32.082658
          ],
          [
            34.794744,
            32.082925
          ],
          [
            34.794748,
            32.082947
          ],
          [
            34.794895,
            32.08321
          ],
          [
            34.794928,
            32.08335
          ],
          [
            34.795003,
            32.083725
          ],
          [
            34.795028,
            32.08385
          ],
          [
            34.79515,
            32.084453
          ],
          [
            34.795178,
            32.084685
          ],
          [
            34.795182,
            32.084811
          ],
          [
            34.795184,
            32.084985
          ],
          [
            34.795191,
            32.085019
          ],
          [
            34.795256,
            32.085355
          ],
          [
            34.795256,
            32.085356
          ],
          [
            34.795317,
            32.085663
          ],
          [
            34.795334,
            32.085755
          ],
          [
            34.795347,
            32.085827
          ],
          [
            34.795401,
            32.086124
          ],
          [
            34.79547,
            32.086573
          ],
          [
            34.795475,
            32.086608
          ],
          [
            34.795518,
            32.08688
          ],
          [
            34.795593,
            32.087236
          ],
          [
            34.795597,
            32.087261
          ],
          [
            34.795651,
            32.087744
          ],
          [
            34.795673,
            32.088362
          ],
          [
            34.795663,
            32.08906
          ],
          [
            34.795654,
            32.089289
          ],
          [
            34.795629,
            32.089638
          ],
          [
            34.795563,
            32.090109
          ],
          [
            34.795501,
            32.090528
          ],
          [
            34.795372,
            32.091155
          ],
          [
            34.795347,
            32.091274
          ],
          [
            34.79533,
            32.091343
          ],
          [
            34.79524,
            32.091657
          ],
          [
            34.795212,
            32.091757
          ],
          [
            34.795079,
            32.092319
          ],
          [
            34.794876,
            32.093202
          ],
          [
            34.794555,
            32.094563
          ],
          [
            34.794163,
            32.096185
          ],
          [
            34.793999,
            32.096927
          ],
          [
            34.793949,
            32.097114
          ],
          [
            34.793933,
            32.097175
          ],
          [
            34.793886,
            32.097387
          ],
          [
            34.793868,
            32.097471
          ],
          [
            34.793848,
            32.097541
          ],
          [
            34.79382634809266,
            32.09766377615639
          ]
        ]
      }
    },
    {
      "type": "Feature",
      "properties": {
        "type": "original_route_stop",
        "stop_code": "21256",
        "stop_name": "ת.מרכזית תל אביב קומה 6/רציפים",
        "marker-color": "#2ca02c",
        "marker-symbol": "bus",
        "marker-size": "medium"
      },
      "geometry": {
        "type": "Point",
        "coordinates": [
          34.779085,
          32.055908
        ]
      }
    },
    {
      "type": "Feature",
      "properties": {
        "type": "original_route_stop",
        "stop_code": "21237",
        "stop_name": "יצחק שדה/המסגר",
        "marker-color": "#2ca02c",
        "marker-symbol": "bus",
        "marker-size": "medium"
      },
      "geometry": {
        "type": "Point",
        "coordinates": [
          34.785302,
          32.065676
        ]
      }
    },
    {
      "type": "Feature",
      "properties": {
        "type": "original_route_stop",
        "stop_code": "20731",
        "stop_name": "קניון טי.אל.וי/קרליבך",
        "marker-color": "#2ca02c",
        "marker-symbol": "bus",
        "marker-size": "medium"
      },
      "geometry": {
        "type": "Point",
        "coordinates": [
          34.783206,
          32.068334
        ]
      }
    },
    {
      "type": "Feature",
      "properties": {
        "type": "original_route_stop",
        "stop_code": "25604",
        "stop_name": "קרליבך/הארבעה",
        "marker-color": "#2ca02c",
        "marker-symbol": "bus",
        "marker-size": "medium"
      },
      "geometry": {
        "type": "Point",
        "coordinates": [
          34.782571,
          32.070456
        ]
      }
    },
    {
      "type": "Feature",
      "properties": {
        "type": "original_route_stop",
        "stop_code": "25625",
        "stop_name": "לונדון מיניסטור/אבן גבירול",
        "marker-color": "#2ca02c",
        "marker-symbol": "bus",
        "marker-size": "medium"
      },
      "geometry": {
        "type": "Point",
        "coordinates": [
          34.781836,
          32.074469
        ]
      }
    },
    {
      "type": "Feature",
      "properties": {
        "type": "original_route_stop",
        "stop_code": "24068",
        "stop_name": "ת. רכבת תל אביב - סבידור/דרך נמיר",
        "marker-color": "#2ca02c",
        "marker-symbol": "bus",
        "marker-size": "medium"
      },
      "geometry": {
        "type": "Point",
        "coordinates": [
          34.795008,
          32.083482
        ]
      }
    },
    {
      "type": "Feature",
      "properties": {
        "type": "original_route_stop",
        "stop_code": "21615",
        "stop_name": "דרך נמיר/פנקס",
        "marker-color": "#2ca02c",
        "marker-symbol": "bus",
        "marker-size": "medium"
      },
      "geometry": {
        "type": "Point",
        "coordinates": [
          34.795206,
          32.092013
        ]
      }
    },
    {
      "type": "Feature",
      "properties": {
        "type": "original_route_stop",
        "stop_code": "20287",
        "stop_name": "דרך נמיר/הרב הרצוג",
        "marker-color": "#2ca02c",
        "marker-symbol": "bus",
        "marker-size": "medium"
      },
      "geometry": {
        "type": "Point",
        "coordinates": [
          34.794793,
          32.093785
        ]
      }
    },
    {
      "type": "Feature",
      "properties": {
        "type": "cancelled_stop",
        "stop_code": "25722",
        "stop_name": "האופרה/שד' שאול המלך",
        "marker-color": "#ff0000",
        "marker-symbol": "bus",
        "marker-size": "medium"
      },
      "geometry": {
        "type": "Point",
        "coordinates": [
          34.784789,
          32.075623
        ]
      }
    },
    {
      "type": "Feature",
      "properties": {
        "type": "cancelled_stop",
        "stop_code": "23025",
        "stop_name": "בית המשפט/שד' שאול המלך",
        "marker-color": "#ff0000",
        "marker-symbol": "bus",
        "marker-size": "medium"
      },
      "geometry": {
        "type": "Point",
        "coordinates": [
          34.788446,
          32.076734
        ]
      }
    },
    {
      "type": "Feature",
      "properties": {
        "type": "cancelled_stop",
        "stop_code": "21303",
        "stop_name": "בית הדר דפנה/שד' שאול המלך",
        "marker-color": "#ff0000",
        "marker-symbol": "bus",
        "marker-size": "medium"
      },
      "geometry": {
        "type": "Point",
        "coordinates": [
          34.790544,
          32.07742
        ]
      }
    },
    {
      "type": "Feature",
      "properties": {
        "type": "new_stop",
        "stop_code": "27005",
        "stop_name": "מתחם שרונה/אליעזר קפלן",
        "marker-color": "#1f9ed6",
        "marker-symbol": "bus",
        "marker-size": "medium"
      },
      "geometry": {
        "type": "Point",
        "coordinates": [
          34.786797,
          32.073253
        ]
      }
    },
    {
      "type": "Feature",
      "properties": {
        "type": "new_stop",
        "stop_code": "23014",
        "stop_name": "קניון עזריאלי/דרך מנחם בגין",
        "marker-color": "#1f9ed6",
        "marker-symbol": "bus",
        "marker-size": "medium"
      },
      "geometry": {
        "type": "Point",
        "coordinates": [
          34.791116,
          32.074453
        ]
      }
    },
    {
      "type": "Feature",
      "properties": {
        "type": "reported_block_stop",
        "stop_code": "23025",
        "stop_name": "בית המשפט/שד' שאול המלך",
        "marker-color": "#ff8800",
        "marker-symbol": "bus",
        "marker-size": "medium"
      },
      "geometry": {
        "type": "Point",
        "coordinates": [
          34.788446,
          32.076734
        ]
      }
    },
    {
      "type": "Feature",
      "properties": {
        "type": "reported_block_stop",
        "stop_code": "21303",
        "stop_name": "בית הדר דפנה/שד' שאול המלך",
        "marker-color": "#ff8800",
        "marker-symbol": "bus",
        "marker-size": "medium"
      },
      "geometry": {
        "type": "Point",
        "coordinates": [
          34.790544,
          32.07742
        ]
      }
    },
    {
      "type": "Feature",
      "properties": {
        "type": "deviate_from_stop",
        "stop_code": "21100",
        "stop_name": "לונדון מיניסטור/שד' שאול המלך",
        "marker-color": "#8000ff",
        "marker-symbol": "bus",
        "marker-size": "medium"
      },
      "geometry": {
        "type": "Point",
        "coordinates": [
          34.78282,
          32.075465
        ]
      }
    },
    {
      "type": "Feature",
      "properties": {
        "type": "deviate_to_stop",
        "stop_code": "20013",
        "stop_name": "דרך נמיר/דרך מנחם בגין",
        "marker-color": "#8000ff",
        "marker-symbol": "bus",
        "marker-size": "medium"
      },
      "geometry": {
        "type": "Point",
        "coordinates": [
          34.794181,
          32.080207
        ]
      }
    }
  ]
}