{
  "type": "FeatureCollection",
  "features": [
    {
      "type": "Feature",
      "properties": {
        "type": "deviation_path",
        "trip_id": "10625208_020826",
        "shape_id": "161874",
        "stroke": "#00bcd4",
        "stroke-width": 3,
        "stroke-opacity": 0.95
      },
      "geometry": {
        "type": "LineString",
        "coordinates": [
          [
            34.81573380342653,
            32.07933873522903
          ],
          [
            34.815888,
            32.079408
          ],
          [
            34.816007,
            32.079463
          ],
          [
            34.816663,
            32.079703
          ],
          [
            34.817002,
            32.07989
          ],
          [
            34.817335,
            32.080087
          ],
          [
            34.817862,
            32.080397
          ],
          [
            34.818252,
            32.080648
          ],
          [
            34.818455,
            32.08086
          ],
          [
            34.81859,
            32.081002
          ],
          [
            34.819946,
            32.080381
          ],
          [
            34.82006,
            32.080354
          ],
          [
            34.820153,
            32.080661
          ],
          [
            34.820163,
            32.080694
          ],
          [
            34.82044,
            32.081549
          ],
          [
            34.820621,
            32.082073
          ],
          [
            34.820696,
            32.082215
          ],
          [
            34.820796,
            32.082405
          ],
          [
            34.821232,
            32.083185
          ],
          [
            34.821536,
            32.08373
          ],
          [
            34.822475,
            32.083605
          ],
          [
            34.822545,
            32.083596
          ],
          [
            34.8227013610093,
            32.08358076848616
          ]
        ]
      }
    },
    {
      "type": "Feature",
      "properties": {
        "type": "original_route_shape",
        "shape_id": "140763",
        "stroke": "#1f2a7a",
        "stroke-width": 3,
        "stroke-opacity": 0.85
      },
      "geometry": {
        "type": "LineString",
        "coordinates": [
          [
            34.79011129388279,
            32.083397829316986
          ],
          [
            34.790752,
            32.083265
          ],
          [
            34.791535,
            32.083102
          ],
          [
            34.791739,
            32.08306
          ],
          [
            34.792148,
            32.082981
          ],
          [
            34.792597,
            32.08291
          ],
          [
            34.793652,
            32.08273
          ],
          [
            34.794078,
            32.082655
          ],
          [
            34.794514,
            32.082568
          ],
          [
            34.794662,
            32.082546
          ],
          [
            34.794792,
            32.082522
          ],
          [
            34.794866,
            32.0825
          ],
          [
            34.794931,
            32.082476
          ],
          [
            34.795073,
            32.082416
          ],
          [
            34.795154,
            32.082383
          ],
          [
            34.795258,
            32.082338
          ],
          [
            34.795371,
            32.082284
          ],
          [
            34.795502,
            32.082194
          ],
          [
            34.795872,
            32.081904
          ],
          [
            34.795965,
            32.081829
          ],
          [
            34.79608,
            32.08173
          ],
          [
            34.796122,
            32.081689
          ],
          [
            34.796297,
            32.08152
          ],
          [
            34.796526,
            32.081271
          ],
          [
            34.796773,
            32.081002
          ],
          [
            34.796842,
            32.080929
          ],
          [
            34.796954,
            32.080806
          ],
          [
            34.79707,
            32.080866
          ],
          [
            34.797279,
            32.080992
          ],
          [
            34.79739,
            32.081053
          ],
          [
            34.797482,
            32.081103
          ],
          [
            34.797893,
            32.081316
          ],
          [
            34.79822,
            32.0815
          ],
          [
            34.798821,
            32.081806
          ],
          [
            34.799092,
            32.081938
          ],
          [
            34.79952,
            32.082116
          ],
          [
            34.799808,
            32.082233
          ],
          [
            34.799994,
            32.08231
          ],
          [
            34.8002,
            32.08241
          ],
          [
            34.800782,
            32.082601
          ],
          [
            34.800926,
            32.082658
          ],
          [
            34.801047,
            32.0827
          ],
          [
            34.801148,
            32.082737
          ],
          [
            34.801196,
            32.082755
          ],
          [
            34.801318,
            32.082788
          ],
          [
            34.801405,
            32.082803
          ],
          [
            34.801493,
            32.082813
          ],
          [
            34.801576,
            32.082816
          ],
          [
            34.801735,
            32.082816
          ],
          [
            34.802345,
            32.082907
          ],
          [
            34.802467,
            32.082912
          ],
          [
            34.802591,
            32.082919
          ],
          [
            34.802664,
            32.082918
          ],
          [
            34.803085,
            32.08273
          ],
          [
            34.803098,
            32.082727
          ],
          [
            34.803327,
            32.082664
          ],
          [
            34.803522,
            32.082579
          ],
          [
            34.803676,
            32.082499
          ],
          [
            34.803936,
            32.082375
          ],
          [
            34.804373,
            32.082176
          ],
          [
            34.804694,
            32.082029
          ],
          [
            34.804782,
            32.081995
          ],
          [
            34.804892,
            32.081956
          ],
          [
            34.804985,
            32.081929
          ],
          [
            34.804991,
            32.081927
          ],
          [
            34.805145,
            32.081896
          ],
          [
            34.805356,
            32.08186
          ],
          [
            34.805684,
            32.081814
          ],
          [
            34.806021,
            32.081755
          ],
          [
            34.806316,
            32.081689
          ],
          [
            34.807441,
            32.081454
          ],
          [
            34.807646,
            32.081398
          ],
          [
            34.807792,
            32.081347
          ],
          [
            34.807988,
            32.081251
          ],
          [
            34.808044,
            32.081175
          ],
          [
            34.80814,
            32.081076
          ],
          [
            34.808228,
            32.081004
          ],
          [
            34.808327,
            32.080951
          ],
          [
            34.808459,
            32.08091
          ],
          [
            34.808558,
            32.080907
          ],
          [
            34.808636,
            32.080918
          ],
          [
            34.808719,
            32.080952
          ],
          [
            34.808805,
            32.081006
          ],
          [
            34.809012,
            32.081225
          ],
          [
            34.809054,
            32.081285
          ],
          [
            34.80923,
            32.08146
          ],
          [
            34.809296,
            32.081501
          ],
          [
            34.809356,
            32.081522
          ],
          [
            34.809483,
            32.081546
          ],
          [
            34.809506,
            32.081547
          ],
          [
            34.809506,
            32.081535
          ],
          [
            34.809508,
            32.081519
          ],
          [
            34.809514,
            32.081504
          ],
          [
            34.80952,
            32.081494
          ],
          [
            34.809527,
            32.081485
          ],
          [
            34.80954,
            32.081473
          ],
          [
            34.80955,
            32.081466
          ],
          [
            34.809564,
            32.08146
          ],
          [
            34.809573,
            32.081456
          ],
          [
            34.809585,
            32.081453
          ],
          [
            34.809597,
            32.081451
          ],
          [
            34.80961,
            32.081451
          ],
          [
            34.809623,
            32.081452
          ],
          [
            34.809635,
            32.081454
          ],
          [
            34.809653,
            32.08146
          ],
          [
            34.80967,
            32.081468
          ],
          [
            34.80968,
            32.081475
          ],
          [
            34.809688,
            32.081483
          ],
          [
            34.809699,
            32.081497
          ],
          [
            34.809704,
            32.081507
          ],
          [
            34.809707,
            32.081516
          ],
          [
            34.809747,
            32.081497
          ],
          [
            34.80979,
            32.081452
          ],
          [
            34.809856,
            32.081365
          ],
          [
            34.809939,
            32.081258
          ],
          [
            34.809992,
            32.081194
          ],
          [
            34.810068,
            32.081125
          ],
          [
            34.81014,
            32.081071
          ],
          [
            34.810197,
            32.08104
          ],
          [
            34.810305,
            32.080998
          ],
          [
            34.810399,
            32.080968
          ],
          [
            34.81052,
            32.080945
          ],
          [
            34.810608,
            32.080941
          ],
          [
            34.810752,
            32.080932
          ],
          [
            34.811011,
            32.080956
          ],
          [
            34.811376,
            32.081004
          ],
          [
            34.811486,
            32.081015
          ],
          [
            34.811547,
            32.081016
          ],
          [
            34.811621,
            32.081017
          ],
          [
            34.811684,
            32.081013
          ],
          [
            34.811764,
            32.081004
          ],
          [
            34.811808,
            32.080991
          ],
          [
            34.811842,
            32.080976
          ],
          [
            34.811883,
            32.080953
          ],
          [
            34.811952,
            32.080898
          ],
          [
            34.812222,
            32.08068
          ],
          [
            34.812458,
            32.080453
          ],
          [
            34.812995,
            32.079892
          ],
          [
            34.813035,
            32.079849
          ],
          [
            34.813171,
            32.079726
          ],
          [
            34.813447,
            32.079509
          ],
          [
            34.813559,
            32.079427
          ],
          [
            34.813778,
            32.079337
          ],
          [
            34.813957,
            32.079263
          ],
          [
            34.814278,
            32.079162
          ],
          [
            34.81449,
            32.079126
          ],
          [
            34.814705,
            32.079117
          ],
          [
            34.814835,
            32.079118
          ],
          [
            34.814976,
            32.079146
          ],
          [
            34.815386,
            32.079224
          ],
          [
            34.815701,
            32.079324
          ],
          [
            34.815888,
            32.079408
          ],
          [
            34.816007,
            32.079463
          ],
          [
            34.816663,
            32.079703
          ],
          [
            34.817002,
            32.07989
          ],
          [
            34.817335,
            32.080087
          ],
          [
            34.817862,
            32.080397
          ],
          [
            34.818252,
            32.080648
          ],
          [
            34.818455,
            32.08086
          ],
          [
            34.81859,
            32.081002
          ],
          [
            34.818281,
            32.081147
          ],
          [
            34.817917,
            32.081311
          ],
          [
            34.817398,
            32.081546
          ],
          [
            34.817277,
            32.081617
          ],
          [
            34.817082,
            32.081722
          ],
          [
            34.816831,
            32.081858
          ],
          [
            34.816515,
            32.082107
          ],
          [
            34.816361,
            32.082256
          ],
          [
            34.816293,
            32.08233
          ],
          [
            34.816191,
            32.08245
          ],
          [
            34.816165,
            32.082486
          ],
          [
            34.816109,
            32.082562
          ],
          [
            34.81592,
            32.082807
          ],
          [
            34.815841,
            32.082933
          ],
          [
            34.815741,
            32.083116
          ],
          [
            34.8157,
            32.083213
          ],
          [
            34.815648,
            32.083337
          ],
          [
            34.815451,
            32.083799
          ],
          [
            34.815697,
            32.08381
          ],
          [
            34.815966,
            32.083821
          ],
          [
            34.816568,
            32.083872
          ],
          [
            34.816861,
            32.083889
          ],
          [
            34.81718,
            32.08389
          ],
          [
            34.817801,
            32.083929
          ],
          [
            34.81841,
            32.083971
          ],
          [
            34.818563,
            32.083982
          ],
          [
            34.819424,
            32.084047
          ],
          [
            34.819827,
            32.083993
          ],
          [
            34.820269,
            32.083913
          ],
          [
            34.820758,
            32.083825
          ],
          [
            34.820859,
            32.083814
          ],
          [
            34.821193,
            32.083771
          ],
          [
            34.821427,
            32.083744
          ],
          [
            34.821536,
            32.08373
          ],
          [
            34.822475,
            32.083605
          ],
          [
            34.822545,
            32.083596
          ],
          [
            34.823202,
            32.083532
          ],
          [
            34.823639,
            32.083484
          ],
          [
            34.823917,
            32.083436
          ],
          [
            34.824168,
            32.083374
          ],
          [
            34.824419,
            32.083284
          ],
          [
            34.824735,
            32.083102
          ],
          [
            34.824939,
            32.082961
          ],
          [
            34.825048,
            32.082869
          ],
          [
            34.82534,
            32.08253
          ],
          [
            34.825527,
            32.082607
          ],
          [
            34.825725,
            32.082661
          ],
          [
            34.82597,
            32.08272
          ],
          [
            34.826068,
            32.082733
          ],
          [
            34.826485,
            32.082791
          ],
          [
            34.82709,
            32.082873
          ],
          [
            34.827499,
            32.082935
          ],
          [
            34.827615,
            32.082954
          ],
          [
            34.827821,
            32.082988
          ],
          [
            34.828464,
            32.083075
          ],
          [
            34.828825,
            32.083129
          ],
          [
            34.829107,
            32.083216
          ],
          [
            34.82927,
            32.083296
          ],
          [
            34.829363,
            32.083352
          ],
          [
            34.829423,
            32.08342
          ],
          [
            34.829565,
            32.0836
          ],
          [
            34.829643,
            32.083717
          ],
          [
            34.829704,
            32.083913
          ],
          [
            34.829729,
            32.084101
          ],
          [
            34.829775,
            32.084415
          ],
          [
            34.829836,
            32.084942
          ],
          [
            34.829859,
            32.085091
          ],
          [
            34.82988,
            32.085226
          ],
          [
            34.829964,
            32.085661
          ],
          [
            34.830029,
            32.086317
          ],
          [
            34.830692,
            32.086199
          ],
          [
            34.830946,
            32.086154
          ],
          [
            34.831372,
            32.086078
          ],
          [
            34.831926,
            32.086037
          ],
          [
            34.832272,
            32.085991
          ],
          [
            34.832595,
            32.085945
          ],
          [
            34.832732,
            32.08594
          ],
          [
            34.832788,
            32.085938
          ],
          [
            34.833064,
            32.085919
          ],
          [
            34.833677,
            32.085872
          ],
          [
            34.834174,
            32.085846
          ],
          [
            34.835343,
            32.085739
          ],
          [
            34.836028,
            32.085673
          ],
          [
            34.836444,
            32.085635
          ],
          [
            34.836394,
            32.084984
          ],
          [
            34.836343,
            32.084733
          ],
          [
            34.836316,
            32.084602
          ],
          [
            34.836203,
            32.084244
          ],
          [
            34.835979,
            32.08375
          ],
          [
            34.835608,
            32.083019
          ],
          [
            34.835396,
            32.082635
          ],
          [
            34.835259,
            32.08238
          ],
          [
            34.835065,
            32.082009
          ],
          [
            34.835019,
            32.081922
          ],
          [
            34.834914,
            32.081715
          ],
          [
            34.834873,
            32.081626
          ],
          [
            34.83479,
            32.081545
          ],
          [
            34.834705,
            32.081326
          ],
          [
            34.834677,
            32.081253
          ],
          [
            34.834606,
            32.081068
          ],
          [
            34.834374,
            32.080426
          ],
          [
            34.834358,
            32.080375
          ],
          [
            34.834236,
            32.079991
          ],
          [
            34.834213,
            32.079908
          ],
          [
            34.834194,
            32.079837
          ],
          [
            34.834279,
            32.079821
          ],
          [
            34.83459,
            32.079761
          ],
          [
            34.835272,
            32.07959
          ],
          [
            34.836017,
            32.079404
          ],
          [
            34.836554,
            32.079266
          ],
          [
            34.837514,
            32.079019
          ],
          [
            34.837605,
            32.078992
          ],
          [
            34.837734,
            32.07888
          ],
          [
            34.83775,
            32.078724
          ],
          [
            34.83772,
            32.078677
          ],
          [
            34.837631,
            32.078556
          ],
          [
            34.837602,
            32.078517
          ],
          [
            34.837482,
            32.078353
          ],
          [
            34.837373,
            32.078135
          ],
          [
            34.83706,
            32.077707
          ],
          [
            34.836833,
            32.077396
          ],
          [
            34.836633,
            32.077101
          ],
          [
            34.83653,
            32.07695
          ],
          [
            34.836492,
            32.076925
          ],
          [
            34.836197,
            32.076644
          ],
          [
            34.836025,
            32.07648
          ],
          [
            34.835865,
            32.076346
          ],
          [
            34.835655,
            32.076129
          ],
          [
            34.835789,
            32.076007
          ],
          [
            34.836071,
            32.075781
          ],
          [
            34.836266,
            32.075614
          ],
          [
            34.836377,
            32.075528
          ],
          [
            34.836957,
            32.075043
          ],
          [
            34.837018,
            32.074992
          ],
          [
            34.83711,
            32.074907
          ],
          [
            34.837742,
            32.074383
          ],
          [
            34.837764,
            32.074329
          ],
          [
            34.837483,
            32.073564
          ],
          [
            34.838264,
            32.073384
          ],
          [
            34.839028,
            32.073203
          ],
          [
            34.838707,
            32.072185
          ],
          [
            34.838614,
            32.071958
          ],
          [
            34.83854,
            32.071826
          ],
          [
            34.83843,
            32.071527
          ],
          [
            34.838434,
            32.071408
          ],
          [
            34.838367,
            32.071247
          ],
          [
            34.83835567964602,
            32.07122000530974
          ]
        ]
      }
    },
    {
      "type": "Feature",
      "properties": {
        "type": "original_route_stop",
        "stop_code": "25882",
        "stop_name": "ארלוזורוב/ויצמן",
        "marker-color": "#2ca02c",
        "marker-symbol": "bus",
        "marker-size": "medium"
      },
      "geometry": {
        "type": "Point",
        "coordinates": [
          34.790102,
          32.083353
        ]
      }
    },
    {
      "type": "Feature",
      "properties": {
        "type": "original_route_stop",
        "stop_code": "21035",
        "stop_name": "ארלוזורוב/דרך נמיר",
        "marker-color": "#2ca02c",
        "marker-symbol": "bus",
        "marker-size": "medium"
      },
      "geometry": {
        "type": "Point",
        "coordinates": [
          34.793207,
          32.08276
        ]
      }
    },
    {
      "type": "Feature",
      "properties": {
        "type": "original_route_stop",
        "stop_code": "21140",
        "stop_name": "ת. רכבת תל אביב סבידור/על פרשת דרכים",
        "marker-color": "#2ca02c",
        "marker-symbol": "bus",
        "marker-size": "medium"
      },
      "geometry": {
        "type": "Point",
        "coordinates": [
          34.795464,
          32.082162
        ]
      }
    },
    {
      "type": "Feature",
      "properties": {
        "type": "original_route_stop",
        "stop_code": "28665",
        "stop_name": "הבורסה/דרך ז'בוטינסקי",
        "marker-color": "#2ca02c",
        "marker-symbol": "bus",
        "marker-size": "medium"
      },
      "geometry": {
        "type": "Point",
        "coordinates": [
          34.800724,
          32.082534
        ]
      }
    },
    {
      "type": "Feature",
      "properties": {
        "type": "original_route_stop",
        "stop_code": "26249",
        "stop_name": "צומת עלית/ארלוזורוב",
        "marker-color": "#2ca02c",
        "marker-symbol": "bus",
        "marker-size": "medium"
      },
      "geometry": {
        "type": "Point",
        "coordinates": [
          34.805596,
          32.081781
        ]
      }
    },
    {
      "type": "Feature",
      "properties": {
        "type": "original_route_stop",
        "stop_code": "26259",
        "stop_name": "ארלוזורוב/החשמונאים",
        "marker-color": "#2ca02c",
        "marker-symbol": "bus",
        "marker-size": "medium"
      },
      "geometry": {
        "type": "Point",
        "coordinates": [
          34.8092,
          32.081361
        ]
      }
    },
    {
      "type": "Feature",
      "properties": {
        "type": "original_route_stop",
        "stop_code": "26273",
        "stop_name": "גן הקופים/ארלוזורוב",
        "marker-color": "#2ca02c",
        "marker-symbol": "bus",
        "marker-size": "medium"
      },
      "geometry": {
        "type": "Point",
        "coordinates": [
          34.81226,
          32.080575
        ]
      }
    },
    {
      "type": "Feature",
      "properties": {
        "type": "original_route_stop",
        "stop_code": "20183",
        "stop_name": "ירושלים/דניאל",
        "marker-color": "#2ca02c",
        "marker-symbol": "bus",
        "marker-size": "medium"
      },
      "geometry": {
        "type": "Point",
        "coordinates": [
          34.826164,
          32.0827
        ]
      }
    },
    {
      "type": "Feature",
      "properties": {
        "type": "original_route_stop",
        "stop_code": "26381",
        "stop_name": "עיריית בני ברק/ירושלים",
        "marker-color": "#2ca02c",
        "marker-symbol": "bus",
        "marker-size": "medium"
      },
      "geometry": {
        "type": "Point",
        "coordinates": [
          34.827513,
          32.082892
        ]
      }
    },
    {
      "type": "Feature",
      "properties": {
        "type": "original_route_stop",
        "stop_code": "26389",
        "stop_name": "עיריית בני ברק/ירושלים",
        "marker-color": "#2ca02c",
        "marker-symbol": "bus",
        "marker-size": "medium"
      },
      "geometry": {
        "type": "Point",
        "coordinates": [
          34.829375,
          32.083304
        ]
      }
    },
    {
      "type": "Feature",
      "properties": {
        "type": "original_route_stop",
        "stop_code": "20200",
        "stop_name": "ירושלים/בן זכאי",
        "marker-color": "#2ca02c",
        "marker-symbol": "bus",
        "marker-size": "medium"
      },
      "geometry": {
        "type": "Point",
        "coordinates": [
          34.829984,
          32.085489
        ]
      }
    },
    {
      "type": "Feature",
      "properties": {
        "type": "original_route_stop",
        "stop_code": "22277",
        "stop_name": "רבי עקיבא/גן קדושי ורשה",
        "marker-color": "#2ca02c",
        "marker-symbol": "bus",
        "marker-size": "medium"
      },
      "geometry": {
        "type": "Point",
        "coordinates": [
          34.831969,
          32.085985
        ]
      }
    },
    {
      "type": "Feature",
      "properties": {
        "type": "original_route_stop",
        "stop_code": "23064",
        "stop_name": "חזון אי''ש/רבי עקיבא",
        "marker-color": "#2ca02c",
        "marker-symbol": "bus",
        "marker-size": "medium"
      },
      "geometry": {
        "type": "Point",
        "coordinates": [
          34.836363,
          32.085267
        ]
      }
    },
    {
      "type": "Feature",
      "properties": {
        "type": "original_route_stop",
        "stop_code": "26516",
        "stop_name": "חזון אי''ש/האדמו''ר מגור",
        "marker-color": "#2ca02c",
        "marker-symbol": "bus",
        "marker-size": "medium"
      },
      "geometry": {
        "type": "Point",
        "coordinates": [
          34.835187,
          32.082352
        ]
      }
    },
    {
      "type": "Feature",
      "properties": {
        "type": "original_route_stop",
        "stop_code": "27085",
        "stop_name": "חזון אי''ש/נחמיה",
        "marker-color": "#2ca02c",
        "marker-symbol": "bus",
        "marker-size": "medium"
      },
      "geometry": {
        "type": "Point",
        "coordinates": [
          34.834343,
          32.080495
        ]
      }
    },
    {
      "type": "Feature",
      "properties": {
        "type": "original_route_stop",
        "stop_code": "27043",
        "stop_name": "נחמיה/עזרא",
        "marker-color": "#2ca02c",
        "marker-symbol": "bus",
        "marker-size": "medium"
      },
      "geometry": {
        "type": "Point",
        "coordinates": [
          34.837086,
          32.079082
        ]
      }
    },
    {
      "type": "Feature",
      "properties": {
        "type": "original_route_stop",
        "stop_code": "20058",
        "stop_name": "עזרא/דבורה הנביאה",
        "marker-color": "#2ca02c",
        "marker-symbol": "bus",
        "marker-size": "medium"
      },
      "geometry": {
        "type": "Point",
        "coordinates": [
          34.836575,
          32.077107
        ]
      }
    },
    {
      "type": "Feature",
      "properties": {
        "type": "original_route_stop",
        "stop_code": "26481",
        "stop_name": "דמשק אליעזר/עזרא",
        "marker-color": "#2ca02c",
        "marker-symbol": "bus",
        "marker-size": "medium"
      },
      "geometry": {
        "type": "Point",
        "coordinates": [
          34.836015,
          32.075764
        ]
      }
    },
    {
      "type": "Feature",
      "properties": {
        "type": "original_route_stop",
        "stop_code": "26488",
        "stop_name": "דמשק אליעזר/הרב יצחק נסים",
        "marker-color": "#2ca02c",
        "marker-symbol": "bus",
        "marker-size": "medium"
      },
      "geometry": {
        "type": "Point",
        "coordinates": [
          34.837568,
          32.073948
        ]
      }
    },
    {
      "type": "Feature",
      "properties": {
        "type": "original_route_stop",
        "stop_code": "26489",
        "stop_name": "קהילות יעקב/הרב יצחק ניסים",
        "marker-color": "#2ca02c",
        "marker-symbol": "bus",
        "marker-size": "medium"
      },
      "geometry": {
        "type": "Point",
        "coordinates": [
          34.838884,
          32.07292
        ]
      }
    },
    {
      "type": "Feature",
      "properties": {
        "type": "original_route_stop",
        "stop_code": "26469",
        "stop_name": "קהילות יעקב/רבי יוסף צבי רימון",
        "marker-color": "#2ca02c",
        "marker-symbol": "bus",
        "marker-size": "medium"
      },
      "geometry": {
        "type": "Point",
        "coordinates": [
          34.838308,
          32.07124
        ]
      }
    },
    {
      "type": "Feature",
      "properties": {
        "type": "cancelled_stop",
        "stop_code": "26332",
        "stop_name": "הרצל/קריניצי",
        "marker-color": "#ff0000",
        "marker-symbol": "bus",
        "marker-size": "medium"
      },
      "geometry": {
        "type": "Point",
        "coordinates": [
          34.818264,
          32.081206
        ]
      }
    },
    {
      "type": "Feature",
      "properties": {
        "type": "cancelled_stop",
        "stop_code": "21660",
        "stop_name": "הרצל/קופת חולים",
        "marker-color": "#ff0000",
        "marker-symbol": "bus",
        "marker-size": "medium"
      },
      "geometry": {
        "type": "Point",
        "coordinates": [
          34.816128,
          32.082619
        ]
      }
    },
    {
      "type": "Feature",
      "properties": {
        "type": "cancelled_stop",
        "stop_code": "26277",
        "stop_name": "הרא''ה/הרצל",
        "marker-color": "#ff0000",
        "marker-symbol": "bus",
        "marker-size": "medium"
      },
      "geometry": {
        "type": "Point",
        "coordinates": [
          34.815945,
          32.083775
        ]
      }
    },
    {
      "type": "Feature",
      "properties": {
        "type": "new_stop",
        "stop_code": "26331",
        "stop_name": "קריניצי/הרצל",
        "marker-color": "#1f9ed6",
        "marker-symbol": "bus",
        "marker-size": "medium"
      },
      "geometry": {
        "type": "Point",
        "coordinates": [
          34.818167,
          32.080537
        ]
      }
    },
    {
      "type": "Feature",
      "properties": {
        "type": "new_stop",
        "stop_code": "21228",
        "stop_name": "בן גוריון/ החץ",
        "marker-color": "#1f9ed6",
        "marker-symbol": "bus",
        "marker-size": "medium"
      },
      "geometry": {
        "type": "Point",
        "coordinates": [
          34.820663,
          32.082033
        ]
      }
    },
    {
      "type": "Feature",
      "properties": {
        "type": "reported_block_stop",
        "stop_code": "26332",
        "stop_name": "הרצל/קריניצי",
        "marker-color": "#ff8800",
        "marker-symbol": "bus",
        "marker-size": "medium"
      },
      "geometry": {
        "type": "Point",
        "coordinates": [
          34.818264,
          32.081206
        ]
      }
    },
    {
      "type": "Feature",
      "properties": {
        "type": "reported_block_stop",
        "stop_code": "21660",
        "stop_name": "הרצל/קופת חולים",
        "marker-color": "#ff8800",
        "marker-symbol": "bus",
        "marker-size": "medium"
      },
      "geometry": {
        "type": "Point",
        "coordinates": [
          34.816128,
          32.082619
        ]
      }
    },
    {
      "type": "Feature",
      "properties": {
        "type": "deviate_from_stop",
        "stop_code": "26140",
        "stop_name": "קריניצי/ביאליק",
        "marker-color": "#8000ff",
        "marker-symbol": "bus",
        "marker-size": "medium"
      },
      "geometry": {
        "type": "Point",
        "coordinates": [
          34.815753,
          32.079296
        ]
      }
    },
    {
      "type": "Feature",
      "properties": {
        "type": "deviate_to_stop",
        "stop_code": "25145",
        "stop_name": "הרא''ה/דרך בן גוריון",
        "marker-color": "#8000ff",
        "marker-symbol": "bus",
        "marker-size": "medium"
      },
      "geometry": {
        "type": "Point",
        "coordinates": [
          34.822697,
          32.083536
        ]
      }
    }
  ]
}