{
  "type": "FeatureCollection",
  "features": [
    {
      "type": "Feature",
      "properties": {
        "type": "deviation_path_edge",
        "from_stop_code": "26130",
        "to_stop_code": "26136",
        "stroke": "#00bcd4",
        "stroke-width": 3,
        "stroke-opacity": 0.95
      },
      "geometry": {
        "type": "LineString",
        "coordinates": [
          [
            34.81075142705516,
            32.07566983293361
          ],
          [
            34.811547,
            32.07568
          ],
          [
            34.811875,
            32.075687
          ],
          [
            34.811986,
            32.075696
          ],
          [
            34.812073,
            32.075713
          ],
          [
            34.812205,
            32.075758
          ],
          [
            34.812448,
            32.075878
          ],
          [
            34.812593,
            32.075981
          ],
          [
            34.812747,
            32.076102
          ],
          [
            34.813058,
            32.076374
          ],
          [
            34.813687,
            32.076923
          ],
          [
            34.813783,
            32.077011
          ],
          [
            34.813852,
            32.077067
          ],
          [
            34.814013,
            32.077112
          ],
          [
            34.814136,
            32.077126
          ],
          [
            34.814385,
            32.077138
          ],
          [
            34.814439,
            32.077219
          ],
          [
            34.814456,
            32.077352
          ],
          [
            34.814466,
            32.077442
          ],
          [
            34.814487,
            32.077495
          ],
          [
            34.814575,
            32.077617
          ],
          [
            34.81467959305108,
            32.07773668895536
          ]
        ]
      }
    },
    {
      "type": "Feature",
      "properties": {
        "type": "deviation_path_edge",
        "from_stop_code": "26136",
        "to_stop_code": "26140",
        "stroke": "#00bcd4",
        "stroke-width": 3,
        "stroke-opacity": 0.95
      },
      "geometry": {
        "type": "LineString",
        "coordinates": [
          [
            34.81467959305108,
            32.07773668895536
          ],
          [
            34.814769,
            32.077839
          ],
          [
            34.815098,
            32.078197
          ],
          [
            34.815129,
            32.078242
          ],
          [
            34.815166,
            32.078312
          ],
          [
            34.815168,
            32.078324
          ],
          [
            34.815172,
            32.07837
          ],
          [
            34.815152,
            32.078429
          ],
          [
            34.815059,
            32.07869
          ],
          [
            34.814991,
            32.078822
          ],
          [
            34.81492,
            32.079026
          ],
          [
            34.814933,
            32.079093
          ],
          [
            34.814976,
            32.079146
          ],
          [
            34.815386,
            32.079224
          ],
          [
            34.815701,
            32.079324
          ],
          [
            34.81573380342653,
            32.07933873522903
          ]
        ]
      }
    },
    {
      "type": "Feature",
      "properties": {
        "type": "deviation_path_edge",
        "from_stop_code": "26140",
        "to_stop_code": "26331",
        "stroke": "#00bcd4",
        "stroke-width": 3,
        "stroke-opacity": 0.95
      },
      "geometry": {
        "type": "LineString",
        "coordinates": [
          [
            34.81573380342653,
            32.07933873522903
          ],
          [
            34.815888,
            32.079408
          ],
          [
            34.816007,
            32.079463
          ],
          [
            34.816663,
            32.079703
          ],
          [
            34.817002,
            32.07989
          ],
          [
            34.817335,
            32.080087
          ],
          [
            34.817862,
            32.080397
          ],
          [
            34.818141380849,
            32.08057680664897
          ]
        ]
      }
    },
    {
      "type": "Feature",
      "properties": {
        "type": "deviation_path_edge",
        "from_stop_code": "26331",
        "to_stop_code": "22936",
        "stroke": "#00bcd4",
        "stroke-width": 3,
        "stroke-opacity": 0.95
      },
      "geometry": {
        "type": "LineString",
        "coordinates": [
          [
            34.818141380849,
            32.08057680664897
          ],
          [
            34.818252,
            32.080648
          ],
          [
            34.818455,
            32.08086
          ],
          [
            34.81859,
            32.081002
          ],
          [
            34.819946,
            32.080381
          ],
          [
            34.819892,
            32.080176
          ],
          [
            34.81978995205538,
            32.07983696467985
          ]
        ]
      }
    },
    {
      "type": "Feature",
      "properties": {
        "type": "deviation_path_edge",
        "from_stop_code": "22936",
        "to_stop_code": "26202",
        "stroke": "#00bcd4",
        "stroke-width": 3,
        "stroke-opacity": 0.95
      },
      "geometry": {
        "type": "LineString",
        "coordinates": [
          [
            34.81978995205538,
            32.07983696467985
          ],
          [
            34.819771,
            32.079774
          ],
          [
            34.819667,
            32.079421
          ],
          [
            34.819593,
            32.079214
          ],
          [
            34.819502,
            32.078931
          ],
          [
            34.81934,
            32.078293
          ],
          [
            34.819277,
            32.078104
          ],
          [
            34.819133,
            32.077608
          ],
          [
            34.819007,
            32.077154
          ],
          [
            34.818944,
            32.076914
          ],
          [
            34.818894,
            32.076653
          ],
          [
            34.818851281141455,
            32.07642249615911
          ]
        ]
      }
    },
    {
      "type": "Feature",
      "properties": {
        "type": "deviation_path_edge",
        "from_stop_code": "26202",
        "to_stop_code": "26205",
        "stroke": "#00bcd4",
        "stroke-width": 3,
        "stroke-opacity": 0.95
      },
      "geometry": {
        "type": "LineString",
        "coordinates": [
          [
            34.818851281141455,
            32.07642249615911
          ],
          [
            34.818846,
            32.076394
          ],
          [
            34.818803,
            32.076209
          ],
          [
            34.81875,
            32.075966
          ],
          [
            34.818678,
            32.075655
          ],
          [
            34.81866,
            32.07558
          ],
          [
            34.818634,
            32.075454
          ],
          [
            34.818621,
            32.075372
          ],
          [
            34.818605,
            32.075317
          ],
          [
            34.818577,
            32.07517
          ],
          [
            34.818541,
            32.074892
          ],
          [
            34.818523,
            32.074821
          ],
          [
            34.818622,
            32.074802
          ],
          [
            34.818689,
            32.07479
          ],
          [
            34.818784,
            32.074774
          ],
          [
            34.81889,
            32.074758
          ],
          [
            34.819031,
            32.074754
          ],
          [
            34.819333,
            32.074739
          ],
          [
            34.819525,
            32.074742
          ],
          [
            34.819872,
            32.074739
          ],
          [
            34.819944,
            32.074736
          ],
          [
            34.820077,
            32.07473
          ],
          [
            34.821122,
            32.074683
          ],
          [
            34.82171068613748,
            32.0746608861425
          ]
        ]
      }
    },
    {
      "type": "Feature",
      "properties": {
        "type": "original_route_shape",
        "shape_id": "163242",
        "stroke": "#1f2a7a",
        "stroke-width": 3,
        "stroke-opacity": 0.85
      },
      "geometry": {
        "type": "LineString",
        "coordinates": [
          [
            34.78808729824246,
            32.06989503971226
          ],
          [
            34.78816,
            32.069978
          ],
          [
            34.788193,
            32.070015
          ],
          [
            34.788391,
            32.070233
          ],
          [
            34.78851,
            32.070365
          ],
          [
            34.788596,
            32.070462
          ],
          [
            34.788831,
            32.07071
          ],
          [
            34.788901,
            32.070768
          ],
          [
            34.788935,
            32.070786
          ],
          [
            34.78908,
            32.070831
          ],
          [
            34.789151,
            32.070857
          ],
          [
            34.789175,
            32.070868
          ],
          [
            34.789246,
            32.070933
          ],
          [
            34.789329,
            32.071039
          ],
          [
            34.789463,
            32.071143
          ],
          [
            34.789705,
            32.071431
          ],
          [
            34.78971,
            32.071437
          ],
          [
            34.789819,
            32.0716
          ],
          [
            34.789909,
            32.071743
          ],
          [
            34.789948,
            32.07181
          ],
          [
            34.790192,
            32.07234
          ],
          [
            34.790246,
            32.07247
          ],
          [
            34.790348,
            32.072739
          ],
          [
            34.790355,
            32.072758
          ],
          [
            34.790443,
            32.073008
          ],
          [
            34.790544,
            32.073278
          ],
          [
            34.790614,
            32.073458
          ],
          [
            34.790902,
            32.074138
          ],
          [
            34.791108,
            32.074552
          ],
          [
            34.791338,
            32.075062
          ],
          [
            34.791407,
            32.075239
          ],
          [
            34.791454,
            32.075393
          ],
          [
            34.791558,
            32.075721
          ],
          [
            34.791798,
            32.076072
          ],
          [
            34.791906,
            32.076236
          ],
          [
            34.792019,
            32.076305
          ],
          [
            34.792054,
            32.076319
          ],
          [
            34.792099,
            32.076328
          ],
          [
            34.792137,
            32.076331
          ],
          [
            34.79214,
            32.076331
          ],
          [
            34.792249,
            32.076303
          ],
          [
            34.793023,
            32.076083
          ],
          [
            34.79338,
            32.075975
          ],
          [
            34.793546,
            32.075926
          ],
          [
            34.793672,
            32.075883
          ],
          [
            34.793725,
            32.075865
          ],
          [
            34.793898,
            32.075817
          ],
          [
            34.794045,
            32.075779
          ],
          [
            34.794197,
            32.075748
          ],
          [
            34.794305,
            32.075721
          ],
          [
            34.794548,
            32.075664
          ],
          [
            34.794743,
            32.075623
          ],
          [
            34.795188,
            32.075497
          ],
          [
            34.79537,
            32.075422
          ],
          [
            34.795774,
            32.075289
          ],
          [
            34.795815,
            32.075278
          ],
          [
            34.79615,
            32.075181
          ],
          [
            34.796543,
            32.075057
          ],
          [
            34.796676,
            32.075015
          ],
          [
            34.797207,
            32.074866
          ],
          [
            34.797598,
            32.074756
          ],
          [
            34.797763,
            32.07471
          ],
          [
            34.798253,
            32.074571
          ],
          [
            34.798474,
            32.074504
          ],
          [
            34.799012,
            32.074344
          ],
          [
            34.799565,
            32.074182
          ],
          [
            34.799688,
            32.074153
          ],
          [
            34.800036,
            32.07405
          ],
          [
            34.800255,
            32.073981
          ],
          [
            34.800423,
            32.073928
          ],
          [
            34.800924,
            32.073773
          ],
          [
            34.800707,
            32.073209
          ],
          [
            34.80058,
            32.072889
          ],
          [
            34.80072,
            32.07287
          ],
          [
            34.800841,
            32.0727
          ],
          [
            34.80109,
            32.072322
          ],
          [
            34.801387,
            32.071929
          ],
          [
            34.801474,
            32.071822
          ],
          [
            34.801878,
            32.071296
          ],
          [
            34.801937,
            32.071217
          ],
          [
            34.802056,
            32.071034
          ],
          [
            34.802273,
            32.070776
          ],
          [
            34.802313,
            32.07072
          ],
          [
            34.802664,
            32.070492
          ],
          [
            34.803186,
            32.070339
          ],
          [
            34.803364,
            32.070297
          ],
          [
            34.803601,
            32.070273
          ],
          [
            34.803848,
            32.070267
          ],
          [
            34.804266,
            32.070297
          ],
          [
            34.805232,
            32.070368
          ],
          [
            34.806181,
            32.070436
          ],
          [
            34.806398,
            32.070438
          ],
          [
            34.8064,
            32.070431
          ],
          [
            34.806403,
            32.07042
          ],
          [
            34.806409,
            32.070409
          ],
          [
            34.806416,
            32.070399
          ],
          [
            34.806424,
            32.07039
          ],
          [
            34.806434,
            32.070382
          ],
          [
            34.806445,
            32.070375
          ],
          [
            34.806453,
            32.07037
          ],
          [
            34.806469,
            32.070364
          ],
          [
            34.806482,
            32.070361
          ],
          [
            34.806496,
            32.070359
          ],
          [
            34.80651,
            32.070358
          ],
          [
            34.806523,
            32.070359
          ],
          [
            34.806537,
            32.070362
          ],
          [
            34.80655,
            32.070365
          ],
          [
            34.806563,
            32.070371
          ],
          [
            34.806574,
            32.070377
          ],
          [
            34.806584,
            32.070384
          ],
          [
            34.806594,
            32.070393
          ],
          [
            34.8066,
            32.070399
          ],
          [
            34.806608,
            32.070412
          ],
          [
            34.806615,
            32.070428
          ],
          [
            34.806618,
            32.070446
          ],
          [
            34.806618,
            32.070458
          ],
          [
            34.80683,
            32.070483
          ],
          [
            34.807451,
            32.070557
          ],
          [
            34.808508,
            32.070651
          ],
          [
            34.808581,
            32.070651
          ],
          [
            34.808586,
            32.070943
          ],
          [
            34.808587,
            32.07115
          ],
          [
            34.80857,
            32.071199
          ],
          [
            34.808573,
            32.07126
          ],
          [
            34.8086,
            32.071636
          ],
          [
            34.808614,
            32.071871
          ],
          [
            34.808627,
            32.072131
          ],
          [
            34.808635,
            32.07293
          ],
          [
            34.808587,
            32.073554
          ],
          [
            34.808591,
            32.073681
          ],
          [
            34.808586,
            32.073884
          ],
          [
            34.808621,
            32.074033
          ],
          [
            34.808628,
            32.074076
          ],
          [
            34.808631,
            32.074127
          ],
          [
            34.808624,
            32.074455
          ],
          [
            34.808618,
            32.074509
          ],
          [
            34.808608,
            32.074548
          ],
          [
            34.808587,
            32.074582
          ],
          [
            34.808567,
            32.07474
          ],
          [
            34.808573,
            32.075117
          ],
          [
            34.808582,
            32.075238
          ],
          [
            34.808693,
            32.075249
          ],
          [
            34.808845,
            32.075285
          ],
          [
            34.809141,
            32.075388
          ],
          [
            34.809416,
            32.075527
          ],
          [
            34.809581,
            32.075582
          ],
          [
            34.809746,
            32.075637
          ],
          [
            34.809872,
            32.075667
          ],
          [
            34.810021,
            32.075678
          ],
          [
            34.810224,
            32.075681
          ],
          [
            34.810577,
            32.075665
          ],
          [
            34.810608,
            32.075668
          ],
          [
            34.811547,
            32.07568
          ],
          [
            34.811875,
            32.075687
          ],
          [
            34.811986,
            32.075696
          ],
          [
            34.812073,
            32.075713
          ],
          [
            34.812205,
            32.075758
          ],
          [
            34.812448,
            32.075878
          ],
          [
            34.812593,
            32.075981
          ],
          [
            34.812747,
            32.076102
          ],
          [
            34.813058,
            32.076374
          ],
          [
            34.813687,
            32.076923
          ],
          [
            34.813783,
            32.077011
          ],
          [
            34.813852,
            32.077067
          ],
          [
            34.814013,
            32.077112
          ],
          [
            34.814136,
            32.077126
          ],
          [
            34.814385,
            32.077138
          ],
          [
            34.814499,
            32.077142
          ],
          [
            34.814513,
            32.077144
          ],
          [
            34.814653,
            32.077139
          ],
          [
            34.814814,
            32.077103
          ],
          [
            34.815019,
            32.077015
          ],
          [
            34.815325,
            32.076827
          ],
          [
            34.815913,
            32.076405
          ],
          [
            34.816291,
            32.076128
          ],
          [
            34.816378,
            32.076066
          ],
          [
            34.817142,
            32.075553
          ],
          [
            34.817429,
            32.0754
          ],
          [
            34.817709,
            32.075312
          ],
          [
            34.817944,
            32.075321
          ],
          [
            34.818187,
            32.07536
          ],
          [
            34.818497,
            32.075298
          ],
          [
            34.818525,
            32.075281
          ],
          [
            34.818542,
            32.075259
          ],
          [
            34.818577,
            32.07517
          ],
          [
            34.818541,
            32.074892
          ],
          [
            34.818523,
            32.074821
          ],
          [
            34.818622,
            32.074802
          ],
          [
            34.818689,
            32.07479
          ],
          [
            34.818784,
            32.074774
          ],
          [
            34.81889,
            32.074758
          ],
          [
            34.819031,
            32.074754
          ],
          [
            34.819333,
            32.074739
          ],
          [
            34.819525,
            32.074742
          ],
          [
            34.819872,
            32.074739
          ],
          [
            34.819944,
            32.074736
          ],
          [
            34.820077,
            32.07473
          ],
          [
            34.821122,
            32.074683
          ],
          [
            34.821894,
            32.074654
          ],
          [
            34.822016,
            32.074649
          ],
          [
            34.822351,
            32.074639
          ],
          [
            34.822979,
            32.074617
          ],
          [
            34.823089,
            32.074613
          ],
          [
            34.823079,
            32.073691
          ],
          [
            34.823089,
            32.073618
          ],
          [
            34.823101,
            32.073573
          ],
          [
            34.823137,
            32.073485
          ],
          [
            34.823223,
            32.073373
          ],
          [
            34.823225,
            32.073047
          ],
          [
            34.823217,
            32.072962
          ],
          [
            34.823153,
            32.072563
          ],
          [
            34.823112,
            32.072432
          ],
          [
            34.823039,
            32.072137
          ],
          [
            34.822939,
            32.071828
          ],
          [
            34.822875,
            32.071636
          ],
          [
            34.82279,
            32.071318
          ],
          [
            34.822736,
            32.071098
          ],
          [
            34.822623,
            32.070691
          ],
          [
            34.822554,
            32.070535
          ],
          [
            34.822463,
            32.070262
          ],
          [
            34.822405,
            32.07008
          ],
          [
            34.822256,
            32.06969
          ],
          [
            34.822195,
            32.06949
          ],
          [
            34.821972,
            32.068864
          ],
          [
            34.821875,
            32.068593
          ],
          [
            34.8218,
            32.068363
          ],
          [
            34.821739,
            32.068188
          ],
          [
            34.821545,
            32.067657
          ],
          [
            34.821387,
            32.067261
          ],
          [
            34.82121,
            32.066724
          ],
          [
            34.821194,
            32.066647
          ],
          [
            34.821091,
            32.066347
          ],
          [
            34.820877,
            32.065756
          ],
          [
            34.820763,
            32.065437
          ],
          [
            34.82073,
            32.065339
          ],
          [
            34.82043,
            32.064484
          ],
          [
            34.821932,
            32.064266
          ],
          [
            34.823548,
            32.064045
          ],
          [
            34.82344,
            32.063426
          ],
          [
            34.823418,
            32.063305
          ],
          [
            34.823348,
            32.063135
          ],
          [
            34.822951,
            32.062551
          ],
          [
            34.822253,
            32.062085
          ],
          [
            34.8219,
            32.061912
          ],
          [
            34.821156,
            32.061615
          ],
          [
            34.821054,
            32.06157
          ],
          [
            34.820874,
            32.06152
          ],
          [
            34.820598,
            32.061444
          ],
          [
            34.820455,
            32.061325
          ],
          [
            34.820594,
            32.060944
          ],
          [
            34.820679,
            32.060732
          ],
          [
            34.82071,
            32.060623
          ],
          [
            34.820839,
            32.060322
          ],
          [
            34.820909,
            32.060146
          ],
          [
            34.820937,
            32.060075
          ],
          [
            34.821025,
            32.059865
          ],
          [
            34.821102,
            32.059653
          ],
          [
            34.821143,
            32.059533
          ],
          [
            34.821187,
            32.059403
          ],
          [
            34.821192,
            32.059404
          ],
          [
            34.821298,
            32.059428
          ],
          [
            34.821374,
            32.059445
          ],
          [
            34.822052,
            32.059577
          ],
          [
            34.822376,
            32.059628
          ],
          [
            34.822637,
            32.059656
          ],
          [
            34.822831,
            32.059675
          ],
          [
            34.823032,
            32.059682
          ],
          [
            34.823372,
            32.059676
          ],
          [
            34.823777,
            32.059656
          ],
          [
            34.824247,
            32.059598
          ],
          [
            34.82453,
            32.059568
          ],
          [
            34.824804,
            32.059517
          ],
          [
            34.825139,
            32.05944
          ],
          [
            34.825382,
            32.059373
          ],
          [
            34.825534,
            32.059331
          ],
          [
            34.827534,
            32.058711
          ],
          [
            34.827942,
            32.058601
          ],
          [
            34.828029,
            32.058573
          ],
          [
            34.828331,
            32.058476
          ],
          [
            34.830202,
            32.057971
          ],
          [
            34.830754,
            32.057809
          ],
          [
            34.831891,
            32.057485
          ],
          [
            34.8325,
            32.057303
          ],
          [
            34.832721,
            32.057225
          ],
          [
            34.832895,
            32.057142
          ],
          [
            34.832993,
            32.057089
          ],
          [
            34.833067,
            32.05705
          ],
          [
            34.833207,
            32.056956
          ],
          [
            34.833356,
            32.056836
          ],
          [
            34.833528,
            32.056663
          ],
          [
            34.83362,
            32.05654
          ],
          [
            34.83398,
            32.056081
          ],
          [
            34.833901,
            32.056027
          ],
          [
            34.833833,
            32.055938
          ],
          [
            34.833777,
            32.055825
          ],
          [
            34.83355,
            32.055324
          ],
          [
            34.833316,
            32.054769
          ],
          [
            34.833329,
            32.05463
          ],
          [
            34.833373,
            32.054576
          ],
          [
            34.83343,
            32.054539
          ],
          [
            34.833465,
            32.054533
          ],
          [
            34.833571,
            32.054504
          ],
          [
            34.833634,
            32.054493
          ],
          [
            34.833753,
            32.05459
          ],
          [
            34.833834,
            32.054719
          ],
          [
            34.833897,
            32.054842
          ],
          [
            34.83395106423063,
            32.05495082159242
          ]
        ]
      }
    },
    {
      "type": "Feature",
      "properties": {
        "type": "original_route_stop",
        "stop_code": "20727",
        "stop_name": "ת.רק''ל יהודית/דרך מנחם בגין",
        "marker-color": "#2ca02c",
        "marker-symbol": "bus",
        "marker-size": "medium"
      },
      "geometry": {
        "type": "Point",
        "coordinates": [
          34.788125,
          32.069862
        ]
      }
    },
    {
      "type": "Feature",
      "properties": {
        "type": "original_route_stop",
        "stop_code": "23014",
        "stop_name": "קניון עזריאלי/דרך מנחם בגין",
        "marker-color": "#2ca02c",
        "marker-symbol": "bus",
        "marker-size": "medium"
      },
      "geometry": {
        "type": "Point",
        "coordinates": [
          34.791116,
          32.074453
        ]
      }
    },
    {
      "type": "Feature",
      "properties": {
        "type": "original_route_stop",
        "stop_code": "20770",
        "stop_name": "נחלת יצחק/יגאל אלון",
        "marker-color": "#2ca02c",
        "marker-symbol": "bus",
        "marker-size": "medium"
      },
      "geometry": {
        "type": "Point",
        "coordinates": [
          34.796167,
          32.075127
        ]
      }
    },
    {
      "type": "Feature",
      "properties": {
        "type": "original_route_stop",
        "stop_code": "25761",
        "stop_name": "מגדלי תל אביב/נחלת יצחק",
        "marker-color": "#2ca02c",
        "marker-symbol": "bus",
        "marker-size": "medium"
      },
      "geometry": {
        "type": "Point",
        "coordinates": [
          34.798057,
          32.074579
        ]
      }
    },
    {
      "type": "Feature",
      "properties": {
        "type": "original_route_stop",
        "stop_code": "26099",
        "stop_name": "נחלת יצחק/עליית הנוער",
        "marker-color": "#2ca02c",
        "marker-symbol": "bus",
        "marker-size": "medium"
      },
      "geometry": {
        "type": "Point",
        "coordinates": [
          34.800651,
          32.07381
        ]
      }
    },
    {
      "type": "Feature",
      "properties": {
        "type": "original_route_stop",
        "stop_code": "26091",
        "stop_name": "ב. עלמין נחלת יצחק/רמב''ם",
        "marker-color": "#2ca02c",
        "marker-symbol": "bus",
        "marker-size": "medium"
      },
      "geometry": {
        "type": "Point",
        "coordinates": [
          34.802554,
          32.070507
        ]
      }
    },
    {
      "type": "Feature",
      "properties": {
        "type": "original_route_stop",
        "stop_code": "26098",
        "stop_name": "רמב''ם/אילת",
        "marker-color": "#2ca02c",
        "marker-symbol": "bus",
        "marker-size": "medium"
      },
      "geometry": {
        "type": "Point",
        "coordinates": [
          34.807074,
          32.070466
        ]
      }
    },
    {
      "type": "Feature",
      "properties": {
        "type": "original_route_stop",
        "stop_code": "21076",
        "stop_name": "ויצמן/צה''ל",
        "marker-color": "#2ca02c",
        "marker-symbol": "bus",
        "marker-size": "medium"
      },
      "geometry": {
        "type": "Point",
        "coordinates": [
          34.808682,
          32.07234
        ]
      }
    },
    {
      "type": "Feature",
      "properties": {
        "type": "original_route_stop",
        "stop_code": "21075",
        "stop_name": "ויצמן/ז'בוטינסקי",
        "marker-color": "#2ca02c",
        "marker-symbol": "bus",
        "marker-size": "medium"
      },
      "geometry": {
        "type": "Point",
        "coordinates": [
          34.80864,
          32.073859
        ]
      }
    },
    {
      "type": "Feature",
      "properties": {
        "type": "original_route_stop",
        "stop_code": "26207",
        "stop_name": "ביה''ס חורב/עוזיאל",
        "marker-color": "#2ca02c",
        "marker-symbol": "bus",
        "marker-size": "medium"
      },
      "geometry": {
        "type": "Point",
        "coordinates": [
          34.822999,
          32.072195
        ]
      }
    },
    {
      "type": "Feature",
      "properties": {
        "type": "original_route_stop",
        "stop_code": "26192",
        "stop_name": "תיכון אלון/עוזיאל",
        "marker-color": "#2ca02c",
        "marker-symbol": "bus",
        "marker-size": "medium"
      },
      "geometry": {
        "type": "Point",
        "coordinates": [
          34.821594,
          32.067943
        ]
      }
    },
    {
      "type": "Feature",
      "properties": {
        "type": "original_route_stop",
        "stop_code": "26187",
        "stop_name": "עוזיאל/פנחס רוטנברג",
        "marker-color": "#2ca02c",
        "marker-symbol": "bus",
        "marker-size": "medium"
      },
      "geometry": {
        "type": "Point",
        "coordinates": [
          34.820443,
          32.064679
        ]
      }
    },
    {
      "type": "Feature",
      "properties": {
        "type": "original_route_stop",
        "stop_code": "26188",
        "stop_name": "הרא''ה/פנחס רוטנברג",
        "marker-color": "#2ca02c",
        "marker-symbol": "bus",
        "marker-size": "medium"
      },
      "geometry": {
        "type": "Point",
        "coordinates": [
          34.823418,
          32.063607
        ]
      }
    },
    {
      "type": "Feature",
      "properties": {
        "type": "original_route_stop",
        "stop_code": "26166",
        "stop_name": "הרא''ה/דרך יצחק רבין",
        "marker-color": "#2ca02c",
        "marker-symbol": "bus",
        "marker-size": "medium"
      },
      "geometry": {
        "type": "Point",
        "coordinates": [
          34.821781,
          32.061914
        ]
      }
    },
    {
      "type": "Feature",
      "properties": {
        "type": "original_route_stop",
        "stop_code": "21002",
        "stop_name": "אלוף שדה/דרך יצחק רבין",
        "marker-color": "#2ca02c",
        "marker-symbol": "bus",
        "marker-size": "medium"
      },
      "geometry": {
        "type": "Point",
        "coordinates": [
          34.822176,
          32.059551
        ]
      }
    },
    {
      "type": "Feature",
      "properties": {
        "type": "original_route_stop",
        "stop_code": "21041",
        "stop_name": "אלוף שדה/הירדן",
        "marker-color": "#2ca02c",
        "marker-symbol": "bus",
        "marker-size": "medium"
      },
      "geometry": {
        "type": "Point",
        "coordinates": [
          34.828604,
          32.058355
        ]
      }
    },
    {
      "type": "Feature",
      "properties": {
        "type": "original_route_stop",
        "stop_code": "21109",
        "stop_name": "מסוף אלוף שדה",
        "marker-color": "#2ca02c",
        "marker-symbol": "bus",
        "marker-size": "medium"
      },
      "geometry": {
        "type": "Point",
        "coordinates": [
          34.833997,
          32.054928
        ]
      }
    },
    {
      "type": "Feature",
      "properties": {
        "type": "cancelled_stop",
        "stop_code": "26135",
        "stop_name": "כצנלסון/סירקין",
        "marker-color": "#ff0000",
        "marker-symbol": "bus",
        "marker-size": "medium"
      },
      "geometry": {
        "type": "Point",
        "coordinates": [
          34.815073,
          32.076926
        ]
      }
    },
    {
      "type": "Feature",
      "properties": {
        "type": "cancelled_stop",
        "stop_code": "26196",
        "stop_name": "כצנלסון/דרך בן גוריון",
        "marker-color": "#ff0000",
        "marker-symbol": "bus",
        "marker-size": "medium"
      },
      "geometry": {
        "type": "Point",
        "coordinates": [
          34.8175,
          32.07533
        ]
      }
    },
    {
      "type": "Feature",
      "properties": {
        "type": "new_stop",
        "stop_code": "26136",
        "stop_name": "סירקין/ביאליק",
        "marker-color": "#1f9ed6",
        "marker-symbol": "bus",
        "marker-size": "medium"
      },
      "geometry": {
        "type": "Point",
        "coordinates": [
          34.814717,
          32.077704
        ]
      }
    },
    {
      "type": "Feature",
      "properties": {
        "type": "new_stop",
        "stop_code": "26140",
        "stop_name": "קריניצי/ביאליק",
        "marker-color": "#1f9ed6",
        "marker-symbol": "bus",
        "marker-size": "medium"
      },
      "geometry": {
        "type": "Point",
        "coordinates": [
          34.815753,
          32.079296
        ]
      }
    },
    {
      "type": "Feature",
      "properties": {
        "type": "new_stop",
        "stop_code": "26331",
        "stop_name": "קריניצי/הרצל",
        "marker-color": "#1f9ed6",
        "marker-symbol": "bus",
        "marker-size": "medium"
      },
      "geometry": {
        "type": "Point",
        "coordinates": [
          34.818167,
          32.080537
        ]
      }
    },
    {
      "type": "Feature",
      "properties": {
        "type": "new_stop",
        "stop_code": "22936",
        "stop_name": "בן גוריון/ הרצל",
        "marker-color": "#1f9ed6",
        "marker-symbol": "bus",
        "marker-size": "medium"
      },
      "geometry": {
        "type": "Point",
        "coordinates": [
          34.81974,
          32.079852
        ]
      }
    },
    {
      "type": "Feature",
      "properties": {
        "type": "new_stop",
        "stop_code": "26202",
        "stop_name": "בן גוריון/המעגל",
        "marker-color": "#1f9ed6",
        "marker-symbol": "bus",
        "marker-size": "medium"
      },
      "geometry": {
        "type": "Point",
        "coordinates": [
          34.8188,
          32.076432
        ]
      }
    },
    {
      "type": "Feature",
      "properties": {
        "type": "reported_block_stop",
        "stop_code": "26135",
        "stop_name": "כצנלסון/סירקין",
        "marker-color": "#ff8800",
        "marker-symbol": "bus",
        "marker-size": "medium"
      },
      "geometry": {
        "type": "Point",
        "coordinates": [
          34.815073,
          32.076926
        ]
      }
    },
    {
      "type": "Feature",
      "properties": {
        "type": "reported_block_stop",
        "stop_code": "26196",
        "stop_name": "כצנלסון/דרך בן גוריון",
        "marker-color": "#ff8800",
        "marker-symbol": "bus",
        "marker-size": "medium"
      },
      "geometry": {
        "type": "Point",
        "coordinates": [
          34.8175,
          32.07533
        ]
      }
    },
    {
      "type": "Feature",
      "properties": {
        "type": "deviate_from_stop",
        "stop_code": "26130",
        "stop_name": "גן הזיכרון/כצנלסון",
        "marker-color": "#8000ff",
        "marker-symbol": "bus",
        "marker-size": "medium"
      },
      "geometry": {
        "type": "Point",
        "coordinates": [
          34.810752,
          32.075625
        ]
      }
    },
    {
      "type": "Feature",
      "properties": {
        "type": "deviate_to_stop",
        "stop_code": "26205",
        "stop_name": "שד. ירושלים/מוריה",
        "marker-color": "#8000ff",
        "marker-symbol": "bus",
        "marker-size": "medium"
      },
      "geometry": {
        "type": "Point",
        "coordinates": [
          34.821709,
          32.074616
        ]
      }
    }
  ]
}