{
  "type": "FeatureCollection",
  "features": [
    {
      "type": "Feature",
      "properties": {
        "type": "deviation_path",
        "trip_id": "585990903_020826",
        "shape_id": "165354",
        "stroke": "#00bcd4",
        "stroke-width": 3,
        "stroke-opacity": 0.95
      },
      "geometry": {
        "type": "LineString",
        "coordinates": [
          [
            34.77767102273833,
            32.01242610632084
          ],
          [
            34.777553,
            32.012461
          ],
          [
            34.777424,
            32.012493
          ],
          [
            34.775519,
            32.012967
          ],
          [
            34.775086,
            32.013056
          ],
          [
            34.774872,
            32.013098
          ],
          [
            34.774381,
            32.013174
          ],
          [
            34.774054,
            32.013216
          ],
          [
            34.773992,
            32.013224
          ],
          [
            34.773117,
            32.013331
          ],
          [
            34.77304,
            32.013343
          ],
          [
            34.772233,
            32.01344
          ],
          [
            34.771505,
            32.013543
          ],
          [
            34.771143,
            32.013592
          ],
          [
            34.770919,
            32.013622
          ],
          [
            34.769958,
            32.013769
          ],
          [
            34.7697,
            32.013802
          ],
          [
            34.76887,
            32.013915
          ],
          [
            34.768635,
            32.013955
          ],
          [
            34.76854,
            32.01397
          ],
          [
            34.767717,
            32.014097
          ],
          [
            34.767322,
            32.01415
          ],
          [
            34.767256,
            32.014161
          ],
          [
            34.767058,
            32.01419
          ],
          [
            34.766609,
            32.014257
          ],
          [
            34.7656,
            32.014391
          ],
          [
            34.765396,
            32.014432
          ],
          [
            34.765123,
            32.01454
          ],
          [
            34.76507,
            32.014575
          ],
          [
            34.765029,
            32.014625
          ],
          [
            34.764955,
            32.014789
          ],
          [
            34.764964,
            32.015168
          ],
          [
            34.764929,
            32.016009
          ],
          [
            34.764925,
            32.016067
          ],
          [
            34.764946,
            32.016472
          ],
          [
            34.764912,
            32.016963
          ],
          [
            34.76492,
            32.017358
          ],
          [
            34.76491,
            32.017547
          ],
          [
            34.76491,
            32.017593
          ],
          [
            34.764896,
            32.017929
          ],
          [
            34.764902,
            32.018371
          ],
          [
            34.764918,
            32.01858
          ],
          [
            34.764922,
            32.01865
          ],
          [
            34.764949,
            32.019142
          ],
          [
            34.764921,
            32.019349
          ],
          [
            34.764938,
            32.019526
          ],
          [
            34.76501704157562,
            32.02016653503257
          ]
        ]
      }
    },
    {
      "type": "Feature",
      "properties": {
        "type": "original_route_shape",
        "shape_id": "163374",
        "stroke": "#1f2a7a",
        "stroke-width": 3,
        "stroke-opacity": 0.85
      },
      "geometry": {
        "type": "LineString",
        "coordinates": [
          [
            34.806733064762945,
            32.01668988756073
          ],
          [
            34.807368,
            32.015955
          ],
          [
            34.807648,
            32.015606
          ],
          [
            34.807757,
            32.015464
          ],
          [
            34.807851,
            32.015336
          ],
          [
            34.807956,
            32.015203
          ],
          [
            34.808047,
            32.015109
          ],
          [
            34.808355,
            32.014761
          ],
          [
            34.808483,
            32.01466
          ],
          [
            34.808605,
            32.014506
          ],
          [
            34.808629,
            32.014465
          ],
          [
            34.808645,
            32.014425
          ],
          [
            34.808646,
            32.014417
          ],
          [
            34.808652,
            32.014379
          ],
          [
            34.80864,
            32.014212
          ],
          [
            34.808549,
            32.014052
          ],
          [
            34.808477,
            32.013898
          ],
          [
            34.808393,
            32.013709
          ],
          [
            34.808355,
            32.013579
          ],
          [
            34.808323,
            32.013462
          ],
          [
            34.808294,
            32.013321
          ],
          [
            34.808271,
            32.013186
          ],
          [
            34.808248,
            32.013048
          ],
          [
            34.808142,
            32.012066
          ],
          [
            34.808117,
            32.01188
          ],
          [
            34.807904,
            32.010094
          ],
          [
            34.807702,
            32.008199
          ],
          [
            34.807661,
            32.007914
          ],
          [
            34.807654,
            32.007912
          ],
          [
            34.807632,
            32.007902
          ],
          [
            34.807612,
            32.007888
          ],
          [
            34.807602,
            32.007878
          ],
          [
            34.807592,
            32.007866
          ],
          [
            34.807581,
            32.007847
          ],
          [
            34.807577,
            32.007834
          ],
          [
            34.807573,
            32.007813
          ],
          [
            34.807574,
            32.007799
          ],
          [
            34.807577,
            32.007786
          ],
          [
            34.807579,
            32.007779
          ],
          [
            34.807585,
            32.007766
          ],
          [
            34.807592,
            32.007753
          ],
          [
            34.807607,
            32.007736
          ],
          [
            34.807618,
            32.007728
          ],
          [
            34.807595,
            32.007348
          ],
          [
            34.807535,
            32.007032
          ],
          [
            34.807489,
            32.00679
          ],
          [
            34.807429,
            32.006583
          ],
          [
            34.807348,
            32.006291
          ],
          [
            34.807221,
            32.005919
          ],
          [
            34.807189,
            32.005863
          ],
          [
            34.807069,
            32.005658
          ],
          [
            34.806977,
            32.005531
          ],
          [
            34.806847,
            32.005364
          ],
          [
            34.806755,
            32.005236
          ],
          [
            34.806613,
            32.005066
          ],
          [
            34.806425,
            32.004805
          ],
          [
            34.80602,
            32.004358
          ],
          [
            34.805801,
            32.004226
          ],
          [
            34.805779,
            32.004226
          ],
          [
            34.805761,
            32.004225
          ],
          [
            34.805744,
            32.004221
          ],
          [
            34.805727,
            32.004216
          ],
          [
            34.805712,
            32.004209
          ],
          [
            34.805697,
            32.0042
          ],
          [
            34.805684,
            32.00419
          ],
          [
            34.805674,
            32.004181
          ],
          [
            34.805313,
            32.004447
          ],
          [
            34.805078,
            32.004622
          ],
          [
            34.804974,
            32.004679
          ],
          [
            34.804548,
            32.004964
          ],
          [
            34.804392,
            32.005115
          ],
          [
            34.804233,
            32.005245
          ],
          [
            34.804175,
            32.005293
          ],
          [
            34.80391,
            32.005492
          ],
          [
            34.803844,
            32.005548
          ],
          [
            34.803774,
            32.005608
          ],
          [
            34.803731,
            32.005644
          ],
          [
            34.803391,
            32.005863
          ],
          [
            34.802504,
            32.006563
          ],
          [
            34.802252,
            32.006807
          ],
          [
            34.802208,
            32.006845
          ],
          [
            34.801723,
            32.007233
          ],
          [
            34.801506,
            32.0074
          ],
          [
            34.801437,
            32.007476
          ],
          [
            34.801354,
            32.007394
          ],
          [
            34.801161,
            32.007219
          ],
          [
            34.801044,
            32.007112
          ],
          [
            34.800477,
            32.006632
          ],
          [
            34.800399,
            32.006564
          ],
          [
            34.80029,
            32.006474
          ],
          [
            34.800101,
            32.006342
          ],
          [
            34.799829,
            32.006165
          ],
          [
            34.799455,
            32.005954
          ],
          [
            34.799299,
            32.005897
          ],
          [
            34.799038,
            32.005785
          ],
          [
            34.798755,
            32.005666
          ],
          [
            34.798389,
            32.005557
          ],
          [
            34.798081,
            32.005438
          ],
          [
            34.797664,
            32.005293
          ],
          [
            34.797203,
            32.005155
          ],
          [
            34.796912,
            32.005059
          ],
          [
            34.796782,
            32.005034
          ],
          [
            34.796501,
            32.004968
          ],
          [
            34.796315,
            32.00493
          ],
          [
            34.796157,
            32.004898
          ],
          [
            34.795594,
            32.004816
          ],
          [
            34.795271,
            32.004776
          ],
          [
            34.794799,
            32.004739
          ],
          [
            34.793935,
            32.00472
          ],
          [
            34.793527,
            32.004748
          ],
          [
            34.793201,
            32.004764
          ],
          [
            34.793127,
            32.004767
          ],
          [
            34.79255,
            32.004788
          ],
          [
            34.79208,
            32.004805
          ],
          [
            34.791946,
            32.004868
          ],
          [
            34.791903,
            32.004906
          ],
          [
            34.791869,
            32.004957
          ],
          [
            34.79186,
            32.005044
          ],
          [
            34.791978,
            32.005622
          ],
          [
            34.791987,
            32.005823
          ],
          [
            34.792007,
            32.006273
          ],
          [
            34.792033,
            32.006515
          ],
          [
            34.792109,
            32.007183
          ],
          [
            34.792119,
            32.007281
          ],
          [
            34.792216,
            32.008239
          ],
          [
            34.792224,
            32.008318
          ],
          [
            34.792235,
            32.008322
          ],
          [
            34.792267,
            32.00834
          ],
          [
            34.792287,
            32.008358
          ],
          [
            34.792307,
            32.008387
          ],
          [
            34.792319,
            32.008419
          ],
          [
            34.792321,
            32.008453
          ],
          [
            34.792314,
            32.008486
          ],
          [
            34.792303,
            32.008509
          ],
          [
            34.792287,
            32.00853
          ],
          [
            34.792266,
            32.008548
          ],
          [
            34.79227,
            32.00881
          ],
          [
            34.792273,
            32.008935
          ],
          [
            34.792289,
            32.009083
          ],
          [
            34.792359,
            32.009739
          ],
          [
            34.792382,
            32.009987
          ],
          [
            34.79239,
            32.010066
          ],
          [
            34.792249,
            32.010077
          ],
          [
            34.791936,
            32.010111
          ],
          [
            34.789934,
            32.01023
          ],
          [
            34.789792,
            32.010239
          ],
          [
            34.786839,
            32.010409
          ],
          [
            34.786116,
            32.010451
          ],
          [
            34.785181,
            32.010553
          ],
          [
            34.78509,
            32.010563
          ],
          [
            34.784733,
            32.01063
          ],
          [
            34.782293,
            32.011247
          ],
          [
            34.78209,
            32.011299
          ],
          [
            34.781793,
            32.011377
          ],
          [
            34.781635,
            32.011422
          ],
          [
            34.781428,
            32.011475
          ],
          [
            34.780722,
            32.011656
          ],
          [
            34.780227,
            32.011783
          ],
          [
            34.780064,
            32.011831
          ],
          [
            34.780062,
            32.011825
          ],
          [
            34.778721,
            32.012175
          ],
          [
            34.778316,
            32.012267
          ],
          [
            34.778226,
            32.012288
          ],
          [
            34.777898,
            32.012359
          ],
          [
            34.777553,
            32.012461
          ],
          [
            34.777424,
            32.012493
          ],
          [
            34.775519,
            32.012967
          ],
          [
            34.775086,
            32.013056
          ],
          [
            34.775123,
            32.013367
          ],
          [
            34.775122,
            32.013669
          ],
          [
            34.775166,
            32.013932
          ],
          [
            34.77518,
            32.014024
          ],
          [
            34.775206,
            32.014211
          ],
          [
            34.775224,
            32.014483
          ],
          [
            34.775294,
            32.014917
          ],
          [
            34.77535,
            32.015277
          ],
          [
            34.775444,
            32.015956
          ],
          [
            34.775424,
            32.016158
          ],
          [
            34.775415,
            32.01633
          ],
          [
            34.77541,
            32.016383
          ],
          [
            34.775394,
            32.016437
          ],
          [
            34.775417,
            32.016611
          ],
          [
            34.775475,
            32.01711
          ],
          [
            34.775529,
            32.017189
          ],
          [
            34.775588,
            32.017376
          ],
          [
            34.775614,
            32.017458
          ],
          [
            34.775524,
            32.017464
          ],
          [
            34.775362,
            32.017475
          ],
          [
            34.774806,
            32.017536
          ],
          [
            34.774687,
            32.017558
          ],
          [
            34.774435,
            32.017588
          ],
          [
            34.773913,
            32.01764
          ],
          [
            34.773713,
            32.017667
          ],
          [
            34.772925,
            32.017771
          ],
          [
            34.77288,
            32.017777
          ],
          [
            34.772135,
            32.017874
          ],
          [
            34.772085,
            32.017881
          ],
          [
            34.771748,
            32.017927
          ],
          [
            34.771464,
            32.017965
          ],
          [
            34.771215,
            32.01801
          ],
          [
            34.771006,
            32.018049
          ],
          [
            34.770726,
            32.018075
          ],
          [
            34.770608,
            32.018101
          ],
          [
            34.769913,
            32.018197
          ],
          [
            34.769817,
            32.01821
          ],
          [
            34.769092,
            32.018305
          ],
          [
            34.768944,
            32.018324
          ],
          [
            34.768642,
            32.018351
          ],
          [
            34.768145,
            32.018397
          ],
          [
            34.767383,
            32.018463
          ],
          [
            34.767282,
            32.018467
          ],
          [
            34.766666,
            32.018497
          ],
          [
            34.766502,
            32.018491
          ],
          [
            34.765675,
            32.018568
          ],
          [
            34.765405,
            32.018615
          ],
          [
            34.765364,
            32.018619
          ],
          [
            34.765018,
            32.018647
          ],
          [
            34.764922,
            32.01865
          ],
          [
            34.764949,
            32.019142
          ],
          [
            34.764921,
            32.019349
          ],
          [
            34.764938,
            32.019526
          ],
          [
            34.765044,
            32.020385
          ],
          [
            34.765084,
            32.020513
          ],
          [
            34.765109,
            32.02079
          ],
          [
            34.765195,
            32.021718
          ],
          [
            34.765205,
            32.021842
          ],
          [
            34.765275,
            32.022496
          ],
          [
            34.765287,
            32.022645
          ],
          [
            34.765361,
            32.023285
          ],
          [
            34.765392,
            32.023446
          ],
          [
            34.765344,
            32.023447
          ],
          [
            34.765242,
            32.023441
          ],
          [
            34.763459,
            32.023399
          ],
          [
            34.763354,
            32.023397
          ],
          [
            34.763232,
            32.023397
          ],
          [
            34.762391427867705,
            32.02340759076294
          ]
        ]
      }
    },
    {
      "type": "Feature",
      "properties": {
        "type": "original_route_stop",
        "stop_code": "34518",
        "stop_name": "המרכבה/הבנאי",
        "marker-color": "#2ca02c",
        "marker-symbol": "bus",
        "marker-size": "medium"
      },
      "geometry": {
        "type": "Point",
        "coordinates": [
          34.806695,
          32.016657
        ]
      }
    },
    {
      "type": "Feature",
      "properties": {
        "type": "original_route_stop",
        "stop_code": "34519",
        "stop_name": "המרכבה/המשביר",
        "marker-color": "#2ca02c",
        "marker-symbol": "bus",
        "marker-size": "medium"
      },
      "geometry": {
        "type": "Point",
        "coordinates": [
          34.808186,
          32.012971
        ]
      }
    },
    {
      "type": "Feature",
      "properties": {
        "type": "original_route_stop",
        "stop_code": "35848",
        "stop_name": "חצי חינם/המרכבה",
        "marker-color": "#2ca02c",
        "marker-symbol": "bus",
        "marker-size": "medium"
      },
      "geometry": {
        "type": "Point",
        "coordinates": [
          34.808012,
          32.011448
        ]
      }
    },
    {
      "type": "Feature",
      "properties": {
        "type": "original_route_stop",
        "stop_code": "33723",
        "stop_name": "מרכז מסחרי הסיירים/המרכבה",
        "marker-color": "#2ca02c",
        "marker-symbol": "bus",
        "marker-size": "medium"
      },
      "geometry": {
        "type": "Point",
        "coordinates": [
          34.807492,
          32.007085
        ]
      }
    },
    {
      "type": "Feature",
      "properties": {
        "type": "original_route_stop",
        "stop_code": "33726",
        "stop_name": "הרוקמים/הכישור",
        "marker-color": "#2ca02c",
        "marker-symbol": "bus",
        "marker-size": "medium"
      },
      "geometry": {
        "type": "Point",
        "coordinates": [
          34.804662,
          32.004945
        ]
      }
    },
    {
      "type": "Feature",
      "properties": {
        "type": "original_route_stop",
        "stop_code": "39776",
        "stop_name": "הלהב/הרוקמים",
        "marker-color": "#2ca02c",
        "marker-symbol": "bus",
        "marker-size": "medium"
      },
      "geometry": {
        "type": "Point",
        "coordinates": [
          34.801097,
          32.007227
        ]
      }
    },
    {
      "type": "Feature",
      "properties": {
        "type": "original_route_stop",
        "stop_code": "35852",
        "stop_name": "מפרץ שלמה/רמת הגולן",
        "marker-color": "#2ca02c",
        "marker-symbol": "bus",
        "marker-size": "medium"
      },
      "geometry": {
        "type": "Point",
        "coordinates": [
          34.798356,
          32.005594
        ]
      }
    },
    {
      "type": "Feature",
      "properties": {
        "type": "original_route_stop",
        "stop_code": "36345",
        "stop_name": "ימית 2000/מפרץ שלמה",
        "marker-color": "#2ca02c",
        "marker-symbol": "bus",
        "marker-size": "medium"
      },
      "geometry": {
        "type": "Point",
        "coordinates": [
          34.793927,
          32.004766
        ]
      }
    },
    {
      "type": "Feature",
      "properties": {
        "type": "original_route_stop",
        "stop_code": "36343",
        "stop_name": "משה שרת/מפרץ שלמה",
        "marker-color": "#2ca02c",
        "marker-symbol": "bus",
        "marker-size": "medium"
      },
      "geometry": {
        "type": "Point",
        "coordinates": [
          34.792037,
          32.005757
        ]
      }
    },
    {
      "type": "Feature",
      "properties": {
        "type": "original_route_stop",
        "stop_code": "36350",
        "stop_name": "מרכז קרית שרת",
        "marker-color": "#2ca02c",
        "marker-symbol": "bus",
        "marker-size": "medium"
      },
      "geometry": {
        "type": "Point",
        "coordinates": [
          34.792329,
          32.008962
        ]
      }
    },
    {
      "type": "Feature",
      "properties": {
        "type": "original_route_stop",
        "stop_code": "34016",
        "stop_name": "אלופי צה''ל/בית לחם",
        "marker-color": "#2ca02c",
        "marker-symbol": "bus",
        "marker-size": "medium"
      },
      "geometry": {
        "type": "Point",
        "coordinates": [
          34.789727,
          32.010288
        ]
      }
    },
    {
      "type": "Feature",
      "properties": {
        "type": "original_route_stop",
        "stop_code": "34058",
        "stop_name": "אלופי צהל/דוד אלעזר",
        "marker-color": "#2ca02c",
        "marker-symbol": "bus",
        "marker-size": "medium"
      },
      "geometry": {
        "type": "Point",
        "coordinates": [
          34.786748,
          32.01046
        ]
      }
    },
    {
      "type": "Feature",
      "properties": {
        "type": "original_route_stop",
        "stop_code": "36332",
        "stop_name": "תיכון קוגל/גולדה מאיר",
        "marker-color": "#2ca02c",
        "marker-symbol": "bus",
        "marker-size": "medium"
      },
      "geometry": {
        "type": "Point",
        "coordinates": [
          34.781425,
          32.011523
        ]
      }
    },
    {
      "type": "Feature",
      "properties": {
        "type": "original_route_stop",
        "stop_code": "36283",
        "stop_name": "דב הוז/המעפילים",
        "marker-color": "#2ca02c",
        "marker-symbol": "bus",
        "marker-size": "medium"
      },
      "geometry": {
        "type": "Point",
        "coordinates": [
          34.764737,
          32.023474
        ]
      }
    },
    {
      "type": "Feature",
      "properties": {
        "type": "original_route_stop",
        "stop_code": "36278",
        "stop_name": "דב הוז/גבעתי",
        "marker-color": "#2ca02c",
        "marker-symbol": "bus",
        "marker-size": "medium"
      },
      "geometry": {
        "type": "Point",
        "coordinates": [
          34.762392,
          32.023453
        ]
      }
    },
    {
      "type": "Feature",
      "properties": {
        "type": "cancelled_stop",
        "stop_code": "39874",
        "stop_name": "מכון טכנולוגי חולון/פיכמן",
        "marker-color": "#ff0000",
        "marker-symbol": "bus",
        "marker-size": "medium"
      },
      "geometry": {
        "type": "Point",
        "coordinates": [
          34.775162,
          32.013642
        ]
      }
    },
    {
      "type": "Feature",
      "properties": {
        "type": "cancelled_stop",
        "stop_code": "38782",
        "stop_name": "ההסתדרות/שנקר",
        "marker-color": "#ff0000",
        "marker-symbol": "bus",
        "marker-size": "medium"
      },
      "geometry": {
        "type": "Point",
        "coordinates": [
          34.775052,
          32.017555
        ]
      }
    },
    {
      "type": "Feature",
      "properties": {
        "type": "cancelled_stop",
        "stop_code": "34262",
        "stop_name": "ההסתדרות/ויצמן",
        "marker-color": "#ff0000",
        "marker-symbol": "bus",
        "marker-size": "medium"
      },
      "geometry": {
        "type": "Point",
        "coordinates": [
          34.771621,
          32.01799
        ]
      }
    },
    {
      "type": "Feature",
      "properties": {
        "type": "cancelled_stop",
        "stop_code": "33889",
        "stop_name": "ההסתדרות/אחד במאי",
        "marker-color": "#ff0000",
        "marker-symbol": "bus",
        "marker-size": "medium"
      },
      "geometry": {
        "type": "Point",
        "coordinates": [
          34.768633,
          32.018397
        ]
      }
    },
    {
      "type": "Feature",
      "properties": {
        "type": "new_stop",
        "stop_code": "36329",
        "stop_name": "מכון טכנולוגי חולון/הופיין",
        "marker-color": "#1f9ed6",
        "marker-symbol": "bus",
        "marker-size": "medium"
      },
      "geometry": {
        "type": "Point",
        "coordinates": [
          34.774297,
          32.013231
        ]
      }
    },
    {
      "type": "Feature",
      "properties": {
        "type": "new_stop",
        "stop_code": "36326",
        "stop_name": "הופיין/ויצמן",
        "marker-color": "#1f9ed6",
        "marker-symbol": "bus",
        "marker-size": "medium"
      },
      "geometry": {
        "type": "Point",
        "coordinates": [
          34.771144,
          32.013638
        ]
      }
    },
    {
      "type": "Feature",
      "properties": {
        "type": "new_stop",
        "stop_code": "39750",
        "stop_name": "מרכז רפואי מכבי הופיין",
        "marker-color": "#1f9ed6",
        "marker-symbol": "bus",
        "marker-size": "medium"
      },
      "geometry": {
        "type": "Point",
        "coordinates": [
          34.766926,
          32.014255
        ]
      }
    },
    {
      "type": "Feature",
      "properties": {
        "type": "new_stop",
        "stop_code": "37659",
        "stop_name": "אילת/חצרים",
        "marker-color": "#1f9ed6",
        "marker-symbol": "bus",
        "marker-size": "medium"
      },
      "geometry": {
        "type": "Point",
        "coordinates": [
          34.764993,
          32.016556
        ]
      }
    },
    {
      "type": "Feature",
      "properties": {
        "type": "reported_block_stop",
        "stop_code": "38782",
        "stop_name": "ההסתדרות/שנקר",
        "marker-color": "#ff8800",
        "marker-symbol": "bus",
        "marker-size": "medium"
      },
      "geometry": {
        "type": "Point",
        "coordinates": [
          34.775052,
          32.017555
        ]
      }
    },
    {
      "type": "Feature",
      "properties": {
        "type": "reported_block_stop",
        "stop_code": "34262",
        "stop_name": "ההסתדרות/ויצמן",
        "marker-color": "#ff8800",
        "marker-symbol": "bus",
        "marker-size": "medium"
      },
      "geometry": {
        "type": "Point",
        "coordinates": [
          34.771621,
          32.01799
        ]
      }
    },
    {
      "type": "Feature",
      "properties": {
        "type": "deviate_from_stop",
        "stop_code": "36331",
        "stop_name": "קניון חולון/גולדה מאיר",
        "marker-color": "#8000ff",
        "marker-symbol": "bus",
        "marker-size": "medium"
      },
      "geometry": {
        "type": "Point",
        "coordinates": [
          34.777684,
          32.01247
        ]
      }
    },
    {
      "type": "Feature",
      "properties": {
        "type": "deviate_to_stop",
        "stop_code": "36273",
        "stop_name": "אילת/צאלים",
        "marker-color": "#8000ff",
        "marker-symbol": "bus",
        "marker-size": "medium"
      },
      "geometry": {
        "type": "Point",
        "coordinates": [
          34.76507,
          32.02016
        ]
      }
    }
  ]
}