{
  "type": "FeatureCollection",
  "features": [
    {
      "type": "Feature",
      "properties": {
        "type": "deviation_path_edge",
        "from_stop_code": "21595",
        "to_stop_code": "26035",
        "stroke": "#00bcd4",
        "stroke-width": 3,
        "stroke-opacity": 0.95
      },
      "geometry": {
        "type": "LineString",
        "coordinates": [
          [
            34.80295143268218,
            32.059274013779685
          ],
          [
            34.802637,
            32.059264
          ],
          [
            34.802487,
            32.059259
          ],
          [
            34.8019,
            32.059226
          ],
          [
            34.801317,
            32.059196
          ],
          [
            34.800685,
            32.059182
          ],
          [
            34.800541,
            32.0593
          ],
          [
            34.800507,
            32.05933
          ],
          [
            34.800451,
            32.059396
          ],
          [
            34.800444,
            32.059723
          ],
          [
            34.800386,
            32.060386
          ],
          [
            34.80033,
            32.060731
          ],
          [
            34.800274,
            32.061061
          ],
          [
            34.800272,
            32.061071
          ],
          [
            34.80013184398814,
            32.06153174275163
          ]
        ]
      }
    },
    {
      "type": "Feature",
      "properties": {
        "type": "deviation_path_edge",
        "from_stop_code": "26035",
        "to_stop_code": "25695",
        "stroke": "#00bcd4",
        "stroke-width": 3,
        "stroke-opacity": 0.95
      },
      "geometry": {
        "type": "LineString",
        "coordinates": [
          [
            34.80013184398814,
            32.06153174275163
          ],
          [
            34.800098,
            32.061643
          ],
          [
            34.799858,
            32.062278
          ],
          [
            34.799831,
            32.062349
          ],
          [
            34.799689,
            32.062745
          ],
          [
            34.79955932637099,
            32.06310721684081
          ]
        ]
      }
    },
    {
      "type": "Feature",
      "properties": {
        "type": "deviation_path_edge",
        "from_stop_code": "25695",
        "to_stop_code": "25740",
        "stroke": "#00bcd4",
        "stroke-width": 3,
        "stroke-opacity": 0.95
      },
      "geometry": {
        "type": "LineString",
        "coordinates": [
          [
            34.79955932637099,
            32.06310721684081
          ],
          [
            34.79951,
            32.063245
          ],
          [
            34.799379,
            32.063633
          ],
          [
            34.799296,
            32.063882
          ],
          [
            34.799197,
            32.064227
          ],
          [
            34.799166,
            32.064334
          ],
          [
            34.799008,
            32.064308
          ],
          [
            34.798507,
            32.064226
          ],
          [
            34.798032,
            32.064138
          ],
          [
            34.797925,
            32.064119
          ],
          [
            34.797596,
            32.064066
          ],
          [
            34.796741,
            32.063986
          ],
          [
            34.796566529852235,
            32.063980060590715
          ]
        ]
      }
    },
    {
      "type": "Feature",
      "properties": {
        "type": "deviation_path_edge",
        "from_stop_code": "25740",
        "to_stop_code": "21454",
        "stroke": "#00bcd4",
        "stroke-width": 3,
        "stroke-opacity": 0.95
      },
      "geometry": {
        "type": "LineString",
        "coordinates": [
          [
            34.796566529852235,
            32.063980060590715
          ],
          [
            34.795566,
            32.063946
          ],
          [
            34.795247,
            32.063954
          ],
          [
            34.794674,
            32.063993
          ],
          [
            34.794163,
            32.064027
          ],
          [
            34.79358,
            32.064098
          ],
          [
            34.792627,
            32.064258
          ],
          [
            34.792343,
            32.064317
          ],
          [
            34.792208,
            32.064346
          ],
          [
            34.792197,
            32.064232
          ],
          [
            34.792175,
            32.063998
          ],
          [
            34.79211,
            32.063472
          ],
          [
            34.79206878343195,
            32.06287435976331
          ]
        ]
      }
    },
    {
      "type": "Feature",
      "properties": {
        "type": "deviation_path_edge",
        "from_stop_code": "21454",
        "to_stop_code": "21318",
        "stroke": "#00bcd4",
        "stroke-width": 3,
        "stroke-opacity": 0.95
      },
      "geometry": {
        "type": "LineString",
        "coordinates": [
          [
            34.79206878343195,
            32.06287435976331
          ],
          [
            34.792042,
            32.062486
          ],
          [
            34.791992,
            32.061975
          ],
          [
            34.791989,
            32.061905
          ],
          [
            34.791979,
            32.061658
          ],
          [
            34.79196,
            32.061064
          ],
          [
            34.791954,
            32.060886
          ],
          [
            34.791943763583646,
            32.06064178835278
          ]
        ]
      }
    },
    {
      "type": "Feature",
      "properties": {
        "type": "deviation_path_edge",
        "from_stop_code": "21318",
        "to_stop_code": "21264",
        "stroke": "#00bcd4",
        "stroke-width": 3,
        "stroke-opacity": 0.95
      },
      "geometry": {
        "type": "LineString",
        "coordinates": [
          [
            34.791943763583646,
            32.06064178835278
          ],
          [
            34.791926,
            32.060218
          ],
          [
            34.791933,
            32.060014
          ],
          [
            34.791939,
            32.059905
          ],
          [
            34.79193,
            32.059763
          ],
          [
            34.791919,
            32.059497
          ],
          [
            34.7918,
            32.059324
          ],
          [
            34.791636,
            32.05924
          ],
          [
            34.790655,
            32.059256
          ],
          [
            34.790542700862574,
            32.05925926095499
          ]
        ]
      }
    },
    {
      "type": "Feature",
      "properties": {
        "type": "original_route_shape",
        "shape_id": "163147",
        "stroke": "#1f2a7a",
        "stroke-width": 3,
        "stroke-opacity": 0.85
      },
      "geometry": {
        "type": "LineString",
        "coordinates": [
          [
            34.83306210648956,
            32.0729065847298
          ],
          [
            34.833094,
            32.073129
          ],
          [
            34.83312,
            32.073585
          ],
          [
            34.83314,
            32.073795
          ],
          [
            34.833143,
            32.074242
          ],
          [
            34.833167,
            32.074916
          ],
          [
            34.833087,
            32.07491
          ],
          [
            34.832709,
            32.07488
          ],
          [
            34.832165,
            32.074833
          ],
          [
            34.831425,
            32.074778
          ],
          [
            34.830913,
            32.074741
          ],
          [
            34.830369,
            32.074698
          ],
          [
            34.830067,
            32.074675
          ],
          [
            34.82946,
            32.07462
          ],
          [
            34.829386,
            32.074625
          ],
          [
            34.828101,
            32.074522
          ],
          [
            34.827834,
            32.074507
          ],
          [
            34.827453,
            32.074479
          ],
          [
            34.827411,
            32.074483
          ],
          [
            34.826659,
            32.074504
          ],
          [
            34.826454,
            32.074509
          ],
          [
            34.826387,
            32.074512
          ],
          [
            34.825673,
            32.074549
          ],
          [
            34.825515,
            32.074579
          ],
          [
            34.825023,
            32.074595
          ],
          [
            34.82502,
            32.074531
          ],
          [
            34.824958,
            32.073426
          ],
          [
            34.824918,
            32.0729
          ],
          [
            34.824939,
            32.072372
          ],
          [
            34.824938,
            32.072062
          ],
          [
            34.824878,
            32.071551
          ],
          [
            34.824834,
            32.070953
          ],
          [
            34.824735,
            32.070365
          ],
          [
            34.825442,
            32.070343
          ],
          [
            34.82606,
            32.070297
          ],
          [
            34.826712,
            32.070257
          ],
          [
            34.82686,
            32.070254
          ],
          [
            34.827448,
            32.070199
          ],
          [
            34.828614,
            32.070106
          ],
          [
            34.828611,
            32.070049
          ],
          [
            34.828574,
            32.069154
          ],
          [
            34.828523,
            32.068469
          ],
          [
            34.828508,
            32.068311
          ],
          [
            34.828448,
            32.067698
          ],
          [
            34.828394,
            32.06712
          ],
          [
            34.828381,
            32.066827
          ],
          [
            34.828377,
            32.066378
          ],
          [
            34.828368,
            32.065622
          ],
          [
            34.828342,
            32.064985
          ],
          [
            34.828322,
            32.064366
          ],
          [
            34.828344,
            32.063946
          ],
          [
            34.828392,
            32.063444
          ],
          [
            34.828328,
            32.062195
          ],
          [
            34.828324,
            32.062067
          ],
          [
            34.828304,
            32.061505
          ],
          [
            34.828301,
            32.061412
          ],
          [
            34.828254,
            32.060721
          ],
          [
            34.828205,
            32.059999
          ],
          [
            34.828203,
            32.059966
          ],
          [
            34.828176,
            32.059573
          ],
          [
            34.828164,
            32.059496
          ],
          [
            34.828148,
            32.059401
          ],
          [
            34.828087,
            32.059177
          ],
          [
            34.828024,
            32.058816
          ],
          [
            34.827996,
            32.05873
          ],
          [
            34.827964,
            32.058664
          ],
          [
            34.827942,
            32.058601
          ],
          [
            34.827859,
            32.058392
          ],
          [
            34.827817,
            32.05828
          ],
          [
            34.82765,
            32.057876
          ],
          [
            34.827637,
            32.057875
          ],
          [
            34.827627,
            32.057873
          ],
          [
            34.827616,
            32.057869
          ],
          [
            34.827607,
            32.057865
          ],
          [
            34.827598,
            32.057859
          ],
          [
            34.82759,
            32.057853
          ],
          [
            34.827582,
            32.057846
          ],
          [
            34.827574,
            32.057835
          ],
          [
            34.827568,
            32.057821
          ],
          [
            34.827565,
            32.057812
          ],
          [
            34.827564,
            32.057803
          ],
          [
            34.827565,
            32.057793
          ],
          [
            34.827566,
            32.057784
          ],
          [
            34.827572,
            32.057771
          ],
          [
            34.827577,
            32.057762
          ],
          [
            34.827583,
            32.057754
          ],
          [
            34.827594,
            32.057744
          ],
          [
            34.827603,
            32.057738
          ],
          [
            34.827612,
            32.057734
          ],
          [
            34.827629,
            32.057728
          ],
          [
            34.827263,
            32.057008
          ],
          [
            34.827005,
            32.056499
          ],
          [
            34.826834,
            32.056217
          ],
          [
            34.826442,
            32.055678
          ],
          [
            34.82639,
            32.055621
          ],
          [
            34.826347,
            32.055574
          ],
          [
            34.826084,
            32.055285
          ],
          [
            34.825677,
            32.054894
          ],
          [
            34.825342,
            32.054601
          ],
          [
            34.82524,
            32.054512
          ],
          [
            34.824574,
            32.054088
          ],
          [
            34.824132,
            32.053844
          ],
          [
            34.82388,
            32.053699
          ],
          [
            34.823879,
            32.053699
          ],
          [
            34.823616,
            32.05351
          ],
          [
            34.823605,
            32.053519
          ],
          [
            34.823587,
            32.053531
          ],
          [
            34.823567,
            32.053539
          ],
          [
            34.823546,
            32.053543
          ],
          [
            34.823517,
            32.053544
          ],
          [
            34.823495,
            32.05354
          ],
          [
            34.823481,
            32.053535
          ],
          [
            34.823476,
            32.053532
          ],
          [
            34.823436,
            32.053581
          ],
          [
            34.823226,
            32.053842
          ],
          [
            34.823007,
            32.054172
          ],
          [
            34.822965,
            32.054235
          ],
          [
            34.822947,
            32.054299
          ],
          [
            34.822528,
            32.055579
          ],
          [
            34.822545,
            32.055587
          ],
          [
            34.822556,
            32.055594
          ],
          [
            34.822567,
            32.055602
          ],
          [
            34.822578,
            32.055611
          ],
          [
            34.822588,
            32.055621
          ],
          [
            34.822597,
            32.055633
          ],
          [
            34.822606,
            32.055644
          ],
          [
            34.822615,
            32.055659
          ],
          [
            34.822628,
            32.055685
          ],
          [
            34.822639,
            32.055715
          ],
          [
            34.822646,
            32.055747
          ],
          [
            34.822651,
            32.055781
          ],
          [
            34.822652,
            32.055817
          ],
          [
            34.822649,
            32.055853
          ],
          [
            34.822643,
            32.055888
          ],
          [
            34.822639,
            32.055906
          ],
          [
            34.822628,
            32.055941
          ],
          [
            34.822614,
            32.055975
          ],
          [
            34.822606,
            32.055991
          ],
          [
            34.822588,
            32.056022
          ],
          [
            34.822568,
            32.05605
          ],
          [
            34.822545,
            32.056075
          ],
          [
            34.822521,
            32.056097
          ],
          [
            34.822498,
            32.056113
          ],
          [
            34.822482,
            32.056122
          ],
          [
            34.822468,
            32.056129
          ],
          [
            34.822455,
            32.056134
          ],
          [
            34.822441,
            32.056139
          ],
          [
            34.822427,
            32.056142
          ],
          [
            34.822414,
            32.056144
          ],
          [
            34.8224,
            32.056145
          ],
          [
            34.822386,
            32.056145
          ],
          [
            34.822373,
            32.056144
          ],
          [
            34.82236,
            32.056141
          ],
          [
            34.82234,
            32.056136
          ],
          [
            34.822152,
            32.056595
          ],
          [
            34.822079,
            32.056787
          ],
          [
            34.82201,
            32.056975
          ],
          [
            34.822008,
            32.056975
          ],
          [
            34.821578,
            32.058268
          ],
          [
            34.821459,
            32.058673
          ],
          [
            34.821374,
            32.059041
          ],
          [
            34.821298,
            32.059428
          ],
          [
            34.821285,
            32.059555
          ],
          [
            34.821248,
            32.059694
          ],
          [
            34.821209,
            32.059907
          ],
          [
            34.821172,
            32.060197
          ],
          [
            34.821137,
            32.060352
          ],
          [
            34.821067,
            32.060532
          ],
          [
            34.820964,
            32.06078
          ],
          [
            34.820918,
            32.060892
          ],
          [
            34.820826,
            32.061096
          ],
          [
            34.820648,
            32.061366
          ],
          [
            34.820598,
            32.061444
          ],
          [
            34.820449,
            32.061629
          ],
          [
            34.820252,
            32.061867
          ],
          [
            34.820189,
            32.061944
          ],
          [
            34.820116,
            32.062035
          ],
          [
            34.819745,
            32.062459
          ],
          [
            34.819579,
            32.062635
          ],
          [
            34.819067,
            32.063079
          ],
          [
            34.818417,
            32.063547
          ],
          [
            34.817923,
            32.063848
          ],
          [
            34.81756,
            32.064023
          ],
          [
            34.817252,
            32.064163
          ],
          [
            34.816697,
            32.064364
          ],
          [
            34.81544,
            32.064783
          ],
          [
            34.815076,
            32.06487
          ],
          [
            34.814955,
            32.0649
          ],
          [
            34.814197,
            32.06509
          ],
          [
            34.813518,
            32.065191
          ],
          [
            34.813314,
            32.06523
          ],
          [
            34.812855,
            32.065318
          ],
          [
            34.81252,
            32.065391
          ],
          [
            34.812285,
            32.065451
          ],
          [
            34.811889,
            32.065582
          ],
          [
            34.811854,
            32.065595
          ],
          [
            34.811405,
            32.065762
          ],
          [
            34.81114,
            32.065873
          ],
          [
            34.811064,
            32.065904
          ],
          [
            34.810617,
            32.066087
          ],
          [
            34.810058,
            32.066322
          ],
          [
            34.809803,
            32.066404
          ],
          [
            34.809578,
            32.066453
          ],
          [
            34.809264,
            32.06652
          ],
          [
            34.80905,
            32.066539
          ],
          [
            34.808672,
            32.066554
          ],
          [
            34.808523,
            32.06656
          ],
          [
            34.807383,
            32.066455
          ],
          [
            34.807315,
            32.066449
          ],
          [
            34.807192,
            32.066439
          ],
          [
            34.806434,
            32.066396
          ],
          [
            34.805703,
            32.066336
          ],
          [
            34.804699,
            32.06627
          ],
          [
            34.804616,
            32.066265
          ],
          [
            34.804059,
            32.066186
          ],
          [
            34.803647,
            32.066157
          ],
          [
            34.803374,
            32.066137
          ],
          [
            34.802886,
            32.066083
          ],
          [
            34.802743,
            32.066044
          ],
          [
            34.802744,
            32.065998
          ],
          [
            34.802753,
            32.065839
          ],
          [
            34.802835,
            32.065196
          ],
          [
            34.802926,
            32.064813
          ],
          [
            34.803209,
            32.063963
          ],
          [
            34.803377,
            32.06361
          ],
          [
            34.803537,
            32.063319
          ],
          [
            34.803585,
            32.063245
          ],
          [
            34.804093,
            32.062458
          ],
          [
            34.804824,
            32.061518
          ],
          [
            34.804863,
            32.061409
          ],
          [
            34.804871,
            32.061334
          ],
          [
            34.804852,
            32.061253
          ],
          [
            34.804717,
            32.061096
          ],
          [
            34.804588,
            32.060968
          ],
          [
            34.804527,
            32.060913
          ],
          [
            34.80448,
            32.060861
          ],
          [
            34.804402,
            32.060761
          ],
          [
            34.804308,
            32.060635
          ],
          [
            34.804226,
            32.060506
          ],
          [
            34.804056,
            32.060082
          ],
          [
            34.804036,
            32.060014
          ],
          [
            34.804023,
            32.059954
          ],
          [
            34.804008,
            32.059879
          ],
          [
            34.803931,
            32.059573
          ],
          [
            34.803884,
            32.059477
          ],
          [
            34.803802,
            32.059399
          ],
          [
            34.803673,
            32.059347
          ],
          [
            34.803458,
            32.05929
          ],
          [
            34.803108,
            32.059279
          ],
          [
            34.802637,
            32.059264
          ],
          [
            34.802487,
            32.059259
          ],
          [
            34.8019,
            32.059226
          ],
          [
            34.801317,
            32.059196
          ],
          [
            34.800685,
            32.059182
          ],
          [
            34.800455,
            32.059179
          ],
          [
            34.80026,
            32.059176
          ],
          [
            34.799404,
            32.059156
          ],
          [
            34.798023,
            32.05912
          ],
          [
            34.797896,
            32.059138
          ],
          [
            34.797865,
            32.05914
          ],
          [
            34.797451,
            32.059142
          ],
          [
            34.797312,
            32.059143
          ],
          [
            34.797212,
            32.059143
          ],
          [
            34.79664,
            32.059139
          ],
          [
            34.796549,
            32.059138
          ],
          [
            34.796493,
            32.059138
          ],
          [
            34.795785,
            32.05912
          ],
          [
            34.794606,
            32.059146
          ],
          [
            34.793881,
            32.059166
          ],
          [
            34.793457,
            32.059177
          ],
          [
            34.792972,
            32.059194
          ],
          [
            34.792469,
            32.059212
          ],
          [
            34.79226,
            32.059221
          ],
          [
            34.791999,
            32.059233
          ],
          [
            34.791911,
            32.059237
          ],
          [
            34.791636,
            32.05924
          ],
          [
            34.790655,
            32.059256
          ],
          [
            34.789553,
            32.059288
          ],
          [
            34.789296,
            32.059291
          ],
          [
            34.789102,
            32.059319
          ],
          [
            34.788699,
            32.059346
          ],
          [
            34.78837,
            32.05936
          ],
          [
            34.788146,
            32.059361
          ],
          [
            34.787778,
            32.059373
          ],
          [
            34.787577,
            32.059379
          ],
          [
            34.786995,
            32.059417
          ],
          [
            34.786912,
            32.059419
          ],
          [
            34.786592,
            32.05942
          ],
          [
            34.785927,
            32.05939
          ],
          [
            34.7857,
            32.059372
          ],
          [
            34.785483,
            32.059382
          ],
          [
            34.785404,
            32.059382
          ],
          [
            34.784736,
            32.059351
          ],
          [
            34.78454,
            32.059348
          ],
          [
            34.784535,
            32.059348
          ],
          [
            34.784335,
            32.059341
          ],
          [
            34.784211,
            32.059332
          ],
          [
            34.784103,
            32.059322
          ],
          [
            34.78392,
            32.059327
          ],
          [
            34.783845,
            32.059329
          ],
          [
            34.783785,
            32.059341
          ],
          [
            34.783756,
            32.059348
          ],
          [
            34.783739,
            32.059353
          ],
          [
            34.783712,
            32.059364
          ],
          [
            34.783673,
            32.059382
          ],
          [
            34.783649,
            32.059396
          ],
          [
            34.783595,
            32.05944
          ],
          [
            34.783548,
            32.05949
          ],
          [
            34.78351876243094,
            32.059522486187845
          ]
        ]
      }
    },
    {
      "type": "Feature",
      "properties": {
        "type": "original_route_stop",
        "stop_code": "26476",
        "stop_name": "בית העלמין/חזון אי''ש",
        "marker-color": "#2ca02c",
        "marker-symbol": "bus",
        "marker-size": "medium"
      },
      "geometry": {
        "type": "Point",
        "coordinates": [
          34.833115,
          32.072899
        ]
      }
    },
    {
      "type": "Feature",
      "properties": {
        "type": "original_route_stop",
        "stop_code": "26237",
        "stop_name": "שד' ירושלים/חזון אי''ש",
        "marker-color": "#2ca02c",
        "marker-symbol": "bus",
        "marker-size": "medium"
      },
      "geometry": {
        "type": "Point",
        "coordinates": [
          34.832221,
          32.074883
        ]
      }
    },
    {
      "type": "Feature",
      "properties": {
        "type": "original_route_stop",
        "stop_code": "21339",
        "stop_name": "הרא''ה/ שד. ירושלים",
        "marker-color": "#2ca02c",
        "marker-symbol": "bus",
        "marker-size": "medium"
      },
      "geometry": {
        "type": "Point",
        "coordinates": [
          34.824917,
          32.073636
        ]
      }
    },
    {
      "type": "Feature",
      "properties": {
        "type": "original_route_stop",
        "stop_code": "21567",
        "stop_name": "נגבה/ הרא''ה",
        "marker-color": "#2ca02c",
        "marker-symbol": "bus",
        "marker-size": "medium"
      },
      "geometry": {
        "type": "Point",
        "coordinates": [
          34.825215,
          32.070305
        ]
      }
    },
    {
      "type": "Feature",
      "properties": {
        "type": "original_route_stop",
        "stop_code": "21320",
        "stop_name": "הירדן/ נגבה",
        "marker-color": "#2ca02c",
        "marker-symbol": "bus",
        "marker-size": "medium"
      },
      "geometry": {
        "type": "Point",
        "coordinates": [
          34.828538,
          32.069559
        ]
      }
    },
    {
      "type": "Feature",
      "properties": {
        "type": "original_route_stop",
        "stop_code": "21182",
        "stop_name": "הירדן/ אצ''ל",
        "marker-color": "#2ca02c",
        "marker-symbol": "bus",
        "marker-size": "medium"
      },
      "geometry": {
        "type": "Point",
        "coordinates": [
          34.82832,
          32.066029
        ]
      }
    },
    {
      "type": "Feature",
      "properties": {
        "type": "original_route_stop",
        "stop_code": "21614",
        "stop_name": "הירדן/ פנחס",
        "marker-color": "#2ca02c",
        "marker-symbol": "bus",
        "marker-size": "medium"
      },
      "geometry": {
        "type": "Point",
        "coordinates": [
          34.828322,
          32.063113
        ]
      }
    },
    {
      "type": "Feature",
      "properties": {
        "type": "original_route_stop",
        "stop_code": "21569",
        "stop_name": "הירדן/אלוף שדה",
        "marker-color": "#2ca02c",
        "marker-symbol": "bus",
        "marker-size": "medium"
      },
      "geometry": {
        "type": "Point",
        "coordinates": [
          34.828104,
          32.059453
        ]
      }
    },
    {
      "type": "Feature",
      "properties": {
        "type": "original_route_stop",
        "stop_code": "26168",
        "stop_name": "ברנשטיין/אלוף שדה",
        "marker-color": "#2ca02c",
        "marker-symbol": "bus",
        "marker-size": "medium"
      },
      "geometry": {
        "type": "Point",
        "coordinates": [
          34.827413,
          32.057417
        ]
      }
    },
    {
      "type": "Feature",
      "properties": {
        "type": "original_route_stop",
        "stop_code": "26150",
        "stop_name": "רזיאל/אלוף דוד",
        "marker-color": "#2ca02c",
        "marker-symbol": "bus",
        "marker-size": "medium"
      },
      "geometry": {
        "type": "Point",
        "coordinates": [
          34.823116,
          32.054099
        ]
      }
    },
    {
      "type": "Feature",
      "properties": {
        "type": "original_route_stop",
        "stop_code": "26162",
        "stop_name": "רזיאל/זכריה",
        "marker-color": "#2ca02c",
        "marker-symbol": "bus",
        "marker-size": "medium"
      },
      "geometry": {
        "type": "Point",
        "coordinates": [
          34.822659,
          32.056
        ]
      }
    },
    {
      "type": "Feature",
      "properties": {
        "type": "original_route_stop",
        "stop_code": "28580",
        "stop_name": "קניון גבעתיים/דרך יצחק רבין",
        "marker-color": "#2ca02c",
        "marker-symbol": "bus",
        "marker-size": "medium"
      },
      "geometry": {
        "type": "Point",
        "coordinates": [
          34.811659,
          32.065716
        ]
      }
    },
    {
      "type": "Feature",
      "properties": {
        "type": "original_route_stop",
        "stop_code": "26094",
        "stop_name": "דרך יצחק רבין/אילת",
        "marker-color": "#2ca02c",
        "marker-symbol": "bus",
        "marker-size": "medium"
      },
      "geometry": {
        "type": "Point",
        "coordinates": [
          34.805715,
          32.066382
        ]
      }
    },
    {
      "type": "Feature",
      "properties": {
        "type": "original_route_stop",
        "stop_code": "21031",
        "stop_name": "דרך השלום/דרך יצחק רבין",
        "marker-color": "#2ca02c",
        "marker-symbol": "bus",
        "marker-size": "medium"
      },
      "geometry": {
        "type": "Point",
        "coordinates": [
          34.802729,
          32.065604
        ]
      }
    },
    {
      "type": "Feature",
      "properties": {
        "type": "original_route_stop",
        "stop_code": "21134",
        "stop_name": "דרך השלום/דרך הטייסים",
        "marker-color": "#2ca02c",
        "marker-symbol": "bus",
        "marker-size": "medium"
      },
      "geometry": {
        "type": "Point",
        "coordinates": [
          34.804298,
          32.062113
        ]
      }
    },
    {
      "type": "Feature",
      "properties": {
        "type": "original_route_stop",
        "stop_code": "26042",
        "stop_name": "דרך הטייסים/דרך השלום",
        "marker-color": "#2ca02c",
        "marker-symbol": "bus",
        "marker-size": "medium"
      },
      "geometry": {
        "type": "Point",
        "coordinates": [
          34.803967,
          32.059945
        ]
      }
    },
    {
      "type": "Feature",
      "properties": {
        "type": "original_route_stop",
        "stop_code": "23023",
        "stop_name": "לה גווארדייה/המעפילים",
        "marker-color": "#2ca02c",
        "marker-symbol": "bus",
        "marker-size": "medium"
      },
      "geometry": {
        "type": "Point",
        "coordinates": [
          34.788682,
          32.059392
        ]
      }
    },
    {
      "type": "Feature",
      "properties": {
        "type": "original_route_stop",
        "stop_code": "21274",
        "stop_name": "מחלף לה גווארדייה",
        "marker-color": "#2ca02c",
        "marker-symbol": "bus",
        "marker-size": "medium"
      },
      "geometry": {
        "type": "Point",
        "coordinates": [
          34.786354,
          32.059454
        ]
      }
    },
    {
      "type": "Feature",
      "properties": {
        "type": "original_route_stop",
        "stop_code": "20160",
        "stop_name": "הרכבת/המסגר",
        "marker-color": "#2ca02c",
        "marker-symbol": "bus",
        "marker-size": "medium"
      },
      "geometry": {
        "type": "Point",
        "coordinates": [
          34.783556,
          32.059556
        ]
      }
    },
    {
      "type": "Feature",
      "properties": {
        "type": "cancelled_stop",
        "stop_code": "21301",
        "stop_name": "לה גווארדייה/הגיבור האלמוני",
        "marker-color": "#ff0000",
        "marker-symbol": "bus",
        "marker-size": "medium"
      },
      "geometry": {
        "type": "Point",
        "coordinates": [
          34.798721,
          32.059183
        ]
      }
    },
    {
      "type": "Feature",
      "properties": {
        "type": "cancelled_stop",
        "stop_code": "21438",
        "stop_name": "לה גווארדייה/שער הגיא",
        "marker-color": "#ff0000",
        "marker-symbol": "bus",
        "marker-size": "medium"
      },
      "geometry": {
        "type": "Point",
        "coordinates": [
          34.79378,
          32.059214
        ]
      }
    },
    {
      "type": "Feature",
      "properties": {
        "type": "new_stop",
        "stop_code": "26035",
        "stop_name": "דרך משה דיין/משה שטינשנידר",
        "marker-color": "#1f9ed6",
        "marker-symbol": "bus",
        "marker-size": "medium"
      },
      "geometry": {
        "type": "Point",
        "coordinates": [
          34.800182,
          32.061547
        ]
      }
    },
    {
      "type": "Feature",
      "properties": {
        "type": "new_stop",
        "stop_code": "25695",
        "stop_name": "דרך משה דיין/הרכבי",
        "marker-color": "#1f9ed6",
        "marker-symbol": "bus",
        "marker-size": "medium"
      },
      "geometry": {
        "type": "Point",
        "coordinates": [
          34.799609,
          32.063125
        ]
      }
    },
    {
      "type": "Feature",
      "properties": {
        "type": "new_stop",
        "stop_code": "25740",
        "stop_name": "ביה''ס ניב/יצחק שדה",
        "marker-color": "#1f9ed6",
        "marker-symbol": "bus",
        "marker-size": "medium"
      },
      "geometry": {
        "type": "Point",
        "coordinates": [
          34.796565,
          32.064025
        ]
      }
    },
    {
      "type": "Feature",
      "properties": {
        "type": "new_stop",
        "stop_code": "21454",
        "stop_name": "יגאל אלון/הפלמ''ח",
        "marker-color": "#1f9ed6",
        "marker-symbol": "bus",
        "marker-size": "medium"
      },
      "geometry": {
        "type": "Point",
        "coordinates": [
          34.792016,
          32.062878
        ]
      }
    },
    {
      "type": "Feature",
      "properties": {
        "type": "new_stop",
        "stop_code": "21318",
        "stop_name": "היכל הספורט/יגאל אלון",
        "marker-color": "#1f9ed6",
        "marker-symbol": "bus",
        "marker-size": "medium"
      },
      "geometry": {
        "type": "Point",
        "coordinates": [
          34.791891,
          32.060644
        ]
      }
    },
    {
      "type": "Feature",
      "properties": {
        "type": "reported_block_stop",
        "stop_code": "21301",
        "stop_name": "לה גווארדייה/הגיבור האלמוני",
        "marker-color": "#ff8800",
        "marker-symbol": "bus",
        "marker-size": "medium"
      },
      "geometry": {
        "type": "Point",
        "coordinates": [
          34.798721,
          32.059183
        ]
      }
    },
    {
      "type": "Feature",
      "properties": {
        "type": "reported_block_stop",
        "stop_code": "21438",
        "stop_name": "לה גווארדייה/שער הגיא",
        "marker-color": "#ff8800",
        "marker-symbol": "bus",
        "marker-size": "medium"
      },
      "geometry": {
        "type": "Point",
        "coordinates": [
          34.79378,
          32.059214
        ]
      }
    },
    {
      "type": "Feature",
      "properties": {
        "type": "deviate_from_stop",
        "stop_code": "21595",
        "stop_name": "לה גווארדייה/דרך הטייסים",
        "marker-color": "#8000ff",
        "marker-symbol": "bus",
        "marker-size": "medium"
      },
      "geometry": {
        "type": "Point",
        "coordinates": [
          34.80295,
          32.059319
        ]
      }
    },
    {
      "type": "Feature",
      "properties": {
        "type": "deviate_to_stop",
        "stop_code": "21264",
        "stop_name": "לה גווארדייה/יגאל אלון",
        "marker-color": "#8000ff",
        "marker-symbol": "bus",
        "marker-size": "medium"
      },
      "geometry": {
        "type": "Point",
        "coordinates": [
          34.790544,
          32.059304
        ]
      }
    }
  ]
}