{
  "type": "FeatureCollection",
  "features": [
    {
      "type": "Feature",
      "properties": {
        "type": "deviation_path_edge",
        "from_stop_code": "21197",
        "to_stop_code": "20748",
        "stroke": "#00bcd4",
        "stroke-width": 3,
        "stroke-opacity": 0.95
      },
      "geometry": {
        "type": "LineString",
        "coordinates": [
          [
            34.80463170124481,
            32.08831887966805
          ],
          [
            34.80471,
            32.088298
          ],
          [
            34.804751,
            32.08828
          ],
          [
            34.804897,
            32.088215
          ],
          [
            34.805178,
            32.088087
          ],
          [
            34.805472,
            32.087928
          ],
          [
            34.805713,
            32.087772
          ],
          [
            34.805822,
            32.087691
          ],
          [
            34.805836,
            32.087681
          ],
          [
            34.805996,
            32.087571
          ],
          [
            34.806104,
            32.087496
          ],
          [
            34.806166,
            32.087453
          ],
          [
            34.806344,
            32.087324
          ],
          [
            34.806436,
            32.08727
          ],
          [
            34.80659,
            32.087169
          ],
          [
            34.806607280302835,
            32.087158108172765
          ]
        ]
      }
    },
    {
      "type": "Feature",
      "properties": {
        "type": "deviation_path_edge",
        "from_stop_code": "20748",
        "to_stop_code": "3433",
        "stroke": "#00bcd4",
        "stroke-width": 3,
        "stroke-opacity": 0.95
      },
      "geometry": {
        "type": "LineString",
        "coordinates": [
          [
            34.806607280302835,
            32.087158108172765
          ],
          [
            34.806755,
            32.087065
          ],
          [
            34.806807,
            32.087037
          ],
          [
            34.806891,
            32.087
          ],
          [
            34.806985,
            32.08697
          ],
          [
            34.807091,
            32.086953
          ],
          [
            34.807162,
            32.086932
          ],
          [
            34.807333,
            32.086902
          ],
          [
            34.807375,
            32.086901
          ],
          [
            34.80747,
            32.086898
          ],
          [
            34.807644,
            32.0869
          ],
          [
            34.80779,
            32.086885
          ],
          [
            34.807917,
            32.086865
          ],
          [
            34.808073,
            32.086843
          ],
          [
            34.808195,
            32.086815
          ],
          [
            34.808354,
            32.086758
          ],
          [
            34.808623,
            32.086646
          ],
          [
            34.80892897159873,
            32.08651793885334
          ]
        ]
      }
    },
    {
      "type": "Feature",
      "properties": {
        "type": "deviation_path_edge",
        "from_stop_code": "3433",
        "to_stop_code": "26271",
        "stroke": "#00bcd4",
        "stroke-width": 3,
        "stroke-opacity": 0.95
      },
      "geometry": {
        "type": "LineString",
        "coordinates": [
          [
            34.80892897159873,
            32.08651793885334
          ],
          [
            34.808979,
            32.086497
          ],
          [
            34.809716,
            32.086184
          ],
          [
            34.809801,
            32.086136
          ],
          [
            34.810616,
            32.085725
          ],
          [
            34.810855,
            32.085736
          ],
          [
            34.81137001011224,
            32.08618379190181
          ]
        ]
      }
    },
    {
      "type": "Feature",
      "properties": {
        "type": "deviation_path_edge",
        "from_stop_code": "26271",
        "to_stop_code": "23026",
        "stroke": "#00bcd4",
        "stroke-width": 3,
        "stroke-opacity": 0.95
      },
      "geometry": {
        "type": "LineString",
        "coordinates": [
          [
            34.81137001011224,
            32.08618379190181
          ],
          [
            34.811376,
            32.086189
          ],
          [
            34.811717,
            32.086453
          ],
          [
            34.812145,
            32.086705
          ],
          [
            34.812621,
            32.086997
          ],
          [
            34.812785,
            32.087128
          ],
          [
            34.813533,
            32.087632
          ],
          [
            34.813806,
            32.087827
          ],
          [
            34.814161,
            32.088075
          ],
          [
            34.814365,
            32.088196
          ],
          [
            34.814419,
            32.088224
          ],
          [
            34.814605,
            32.088296
          ],
          [
            34.814685,
            32.088341
          ],
          [
            34.814963,
            32.088502
          ],
          [
            34.81508562220762,
            32.08855473390276
          ]
        ]
      }
    },
    {
      "type": "Feature",
      "properties": {
        "type": "deviation_path_edge",
        "from_stop_code": "23026",
        "to_stop_code": "21540",
        "stroke": "#00bcd4",
        "stroke-width": 3,
        "stroke-opacity": 0.95
      },
      "geometry": {
        "type": "LineString",
        "coordinates": [
          [
            34.81508562220762,
            32.08855473390276
          ],
          [
            34.815156,
            32.088585
          ],
          [
            34.815574,
            32.08871
          ],
          [
            34.815882,
            32.088803
          ],
          [
            34.81599,
            32.088828
          ],
          [
            34.816377,
            32.088918
          ],
          [
            34.817004,
            32.089066
          ],
          [
            34.817136,
            32.089097
          ],
          [
            34.817567,
            32.089188
          ],
          [
            34.817947,
            32.089285
          ],
          [
            34.817995,
            32.089297
          ],
          [
            34.81812367551291,
            32.08933943554149
          ]
        ]
      }
    },
    {
      "type": "Feature",
      "properties": {
        "type": "deviation_path_edge",
        "from_stop_code": "21540",
        "to_stop_code": "20177",
        "stroke": "#00bcd4",
        "stroke-width": 3,
        "stroke-opacity": 0.95
      },
      "geometry": {
        "type": "LineString",
        "coordinates": [
          [
            34.81812367551291,
            32.08933943554149
          ],
          [
            34.818277,
            32.08939
          ],
          [
            34.81898,
            32.089709
          ],
          [
            34.819323,
            32.089854
          ],
          [
            34.81965,
            32.09
          ],
          [
            34.819958,
            32.090124
          ],
          [
            34.820211,
            32.090207
          ],
          [
            34.820512,
            32.090297
          ],
          [
            34.821427,
            32.09048
          ],
          [
            34.822186,
            32.090645
          ],
          [
            34.822581,
            32.090719
          ],
          [
            34.822616,
            32.090724
          ],
          [
            34.822741,
            32.090742
          ],
          [
            34.822734,
            32.090862
          ],
          [
            34.82268673185889,
            32.09118331081637
          ]
        ]
      }
    },
    {
      "type": "Feature",
      "properties": {
        "type": "deviation_path_edge",
        "from_stop_code": "20177",
        "to_stop_code": "21165",
        "stroke": "#00bcd4",
        "stroke-width": 3,
        "stroke-opacity": 0.95
      },
      "geometry": {
        "type": "LineString",
        "coordinates": [
          [
            34.82268673185889,
            32.09118331081637
          ],
          [
            34.82265,
            32.091433
          ],
          [
            34.822508,
            32.092133
          ],
          [
            34.822467,
            32.092355
          ],
          [
            34.822431,
            32.092573
          ],
          [
            34.822422,
            32.092644
          ],
          [
            34.822347,
            32.092976
          ],
          [
            34.822303,
            32.093239
          ],
          [
            34.822274,
            32.093408
          ],
          [
            34.822246,
            32.093585
          ],
          [
            34.822231,
            32.093676
          ],
          [
            34.822224,
            32.09371
          ],
          [
            34.822209,
            32.09379
          ],
          [
            34.822142030136696,
            32.09413304970796
          ]
        ]
      }
    },
    {
      "type": "Feature",
      "properties": {
        "type": "deviation_path_edge",
        "from_stop_code": "21165",
        "to_stop_code": "20643",
        "stroke": "#00bcd4",
        "stroke-width": 3,
        "stroke-opacity": 0.95
      },
      "geometry": {
        "type": "LineString",
        "coordinates": [
          [
            34.822142030136696,
            32.09413304970796
          ],
          [
            34.822111,
            32.094292
          ],
          [
            34.822083,
            32.094416
          ],
          [
            34.821996,
            32.094877
          ],
          [
            34.821919,
            32.095169
          ],
          [
            34.821904,
            32.095233
          ],
          [
            34.821848,
            32.095461
          ],
          [
            34.821834,
            32.095901
          ],
          [
            34.821738,
            32.096369
          ],
          [
            34.821719,
            32.09674
          ],
          [
            34.821719,
            32.096755
          ],
          [
            34.82172,
            32.096783
          ],
          [
            34.821732,
            32.096822
          ],
          [
            34.821845,
            32.096947
          ],
          [
            34.822074,
            32.097049
          ],
          [
            34.822098,
            32.097059
          ],
          [
            34.822305,
            32.097126
          ],
          [
            34.822803,
            32.097269
          ],
          [
            34.823017,
            32.097334
          ],
          [
            34.82309,
            32.097355
          ],
          [
            34.823657,
            32.097514
          ],
          [
            34.824075,
            32.097634
          ],
          [
            34.82436,
            32.09771
          ],
          [
            34.825068,
            32.097968
          ],
          [
            34.825955,
            32.098227
          ],
          [
            34.826157,
            32.098286
          ],
          [
            34.826294,
            32.098326
          ],
          [
            34.826793107711175,
            32.09846173033521
          ]
        ]
      }
    },
    {
      "type": "Feature",
      "properties": {
        "type": "original_route_shape",
        "shape_id": "148371",
        "stroke": "#1f2a7a",
        "stroke-width": 3,
        "stroke-opacity": 0.85
      },
      "geometry": {
        "type": "LineString",
        "coordinates": [
          [
            34.791052584530405,
            32.091000148238706
          ],
          [
            34.791738,
            32.091052
          ],
          [
            34.79207,
            32.091069
          ],
          [
            34.7927,
            32.091102
          ],
          [
            34.793212,
            32.091124
          ],
          [
            34.79413,
            32.091136
          ],
          [
            34.794529,
            32.091138
          ],
          [
            34.795216,
            32.091161
          ],
          [
            34.795372,
            32.091155
          ],
          [
            34.795675,
            32.091145
          ],
          [
            34.79602,
            32.091122
          ],
          [
            34.796752,
            32.09104
          ],
          [
            34.797085,
            32.090993
          ],
          [
            34.797495,
            32.090904
          ],
          [
            34.797582,
            32.090884
          ],
          [
            34.797705,
            32.090847
          ],
          [
            34.79787,
            32.090794
          ],
          [
            34.798001,
            32.090752
          ],
          [
            34.798176,
            32.090695
          ],
          [
            34.798291,
            32.090653
          ],
          [
            34.798353,
            32.090627
          ],
          [
            34.798477,
            32.090575
          ],
          [
            34.798804,
            32.090442
          ],
          [
            34.79952,
            32.090168
          ],
          [
            34.799878,
            32.090048
          ],
          [
            34.800067,
            32.089968
          ],
          [
            34.800305,
            32.089878
          ],
          [
            34.800591,
            32.089772
          ],
          [
            34.800821,
            32.089669
          ],
          [
            34.801155,
            32.089542
          ],
          [
            34.801361,
            32.089461
          ],
          [
            34.801654,
            32.089337
          ],
          [
            34.801825,
            32.089247
          ],
          [
            34.801983,
            32.089164
          ],
          [
            34.802273,
            32.088997
          ],
          [
            34.802421,
            32.088908
          ],
          [
            34.802505,
            32.088857
          ],
          [
            34.802674,
            32.088755
          ],
          [
            34.802928,
            32.088602
          ],
          [
            34.80316,
            32.088493
          ],
          [
            34.803321,
            32.088449
          ],
          [
            34.803421,
            32.088415
          ],
          [
            34.803592,
            32.088392
          ],
          [
            34.804023,
            32.08837
          ],
          [
            34.804061,
            32.088368
          ],
          [
            34.804121,
            32.088365
          ],
          [
            34.804206,
            32.08836
          ],
          [
            34.80437,
            32.088349
          ],
          [
            34.804423,
            32.088346
          ],
          [
            34.804526,
            32.088337
          ],
          [
            34.80462,
            32.088322
          ],
          [
            34.80471,
            32.088298
          ],
          [
            34.804897,
            32.088215
          ],
          [
            34.805178,
            32.088087
          ],
          [
            34.805472,
            32.087928
          ],
          [
            34.805713,
            32.087772
          ],
          [
            34.805822,
            32.087691
          ],
          [
            34.805836,
            32.087681
          ],
          [
            34.805996,
            32.087571
          ],
          [
            34.806104,
            32.087496
          ],
          [
            34.806166,
            32.087453
          ],
          [
            34.806247,
            32.087541
          ],
          [
            34.806399,
            32.087649
          ],
          [
            34.806757,
            32.087873
          ],
          [
            34.807152,
            32.088123
          ],
          [
            34.807472,
            32.088332
          ],
          [
            34.807627,
            32.088439
          ],
          [
            34.807909,
            32.088603
          ],
          [
            34.808578,
            32.088969
          ],
          [
            34.809119,
            32.089293
          ],
          [
            34.809358,
            32.089457
          ],
          [
            34.809863,
            32.089761
          ],
          [
            34.810028,
            32.089865
          ],
          [
            34.810551,
            32.090162
          ],
          [
            34.810931,
            32.090377
          ],
          [
            34.811388,
            32.090561
          ],
          [
            34.811746,
            32.090671
          ],
          [
            34.812919,
            32.091004
          ],
          [
            34.813278,
            32.091106
          ],
          [
            34.813692,
            32.091223
          ],
          [
            34.81405,
            32.091373
          ],
          [
            34.814558,
            32.091687
          ],
          [
            34.815357,
            32.092188
          ],
          [
            34.815599,
            32.092335
          ],
          [
            34.815764,
            32.092435
          ],
          [
            34.815997,
            32.092577
          ],
          [
            34.817235,
            32.093356
          ],
          [
            34.817316,
            32.093409
          ],
          [
            34.81738,
            32.093449
          ],
          [
            34.818031,
            32.093879
          ],
          [
            34.818521,
            32.094212
          ],
          [
            34.818587,
            32.094257
          ],
          [
            34.818643,
            32.094295
          ],
          [
            34.819386,
            32.094819
          ],
          [
            34.819446,
            32.094866
          ],
          [
            34.819565,
            32.094958
          ],
          [
            34.819704,
            32.09505
          ],
          [
            34.819954,
            32.095214
          ],
          [
            34.820025,
            32.095261
          ],
          [
            34.820235,
            32.095401
          ],
          [
            34.820331,
            32.095466
          ],
          [
            34.820693,
            32.095782
          ],
          [
            34.821054,
            32.09616
          ],
          [
            34.821137,
            32.096259
          ],
          [
            34.821379,
            32.096541
          ],
          [
            34.821463,
            32.096636
          ],
          [
            34.821551,
            32.096735
          ],
          [
            34.821845,
            32.096947
          ],
          [
            34.822074,
            32.097049
          ],
          [
            34.822098,
            32.097059
          ],
          [
            34.822304,
            32.097126
          ],
          [
            34.822803,
            32.097269
          ],
          [
            34.823017,
            32.097334
          ],
          [
            34.82309,
            32.097355
          ],
          [
            34.823657,
            32.097514
          ],
          [
            34.824075,
            32.097634
          ],
          [
            34.82436,
            32.09771
          ],
          [
            34.825068,
            32.097968
          ],
          [
            34.825955,
            32.098227
          ],
          [
            34.826157,
            32.098286
          ],
          [
            34.826294,
            32.098326
          ],
          [
            34.827923,
            32.098769
          ],
          [
            34.828452,
            32.09891
          ],
          [
            34.828546,
            32.098994
          ],
          [
            34.828477,
            32.099335
          ],
          [
            34.828469,
            32.099388
          ],
          [
            34.828434,
            32.099536
          ],
          [
            34.828363,
            32.099753
          ],
          [
            34.828272,
            32.100052
          ],
          [
            34.828157,
            32.100494
          ],
          [
            34.828084,
            32.100908
          ],
          [
            34.828062,
            32.101031
          ],
          [
            34.828028,
            32.101269
          ],
          [
            34.827998,
            32.101508
          ],
          [
            34.827982,
            32.101634
          ],
          [
            34.827971,
            32.101751
          ],
          [
            34.827963,
            32.101837
          ],
          [
            34.827909,
            32.102394
          ],
          [
            34.827902,
            32.102474
          ],
          [
            34.827884,
            32.102687
          ],
          [
            34.82784,
            32.103211
          ],
          [
            34.82782,
            32.103465
          ],
          [
            34.827817,
            32.103488
          ],
          [
            34.82781528714157,
            32.103509871884576
          ]
        ]
      }
    },
    {
      "type": "Feature",
      "properties": {
        "type": "original_route_stop",
        "stop_code": "20467",
        "stop_name": "בית החייל/פנקס",
        "marker-color": "#2ca02c",
        "marker-symbol": "bus",
        "marker-size": "medium"
      },
      "geometry": {
        "type": "Point",
        "coordinates": [
          34.791056,
          32.090955
        ]
      }
    },
    {
      "type": "Feature",
      "properties": {
        "type": "original_route_stop",
        "stop_code": "25939",
        "stop_name": "פנקס/דרך נמיר",
        "marker-color": "#2ca02c",
        "marker-symbol": "bus",
        "marker-size": "medium"
      },
      "geometry": {
        "type": "Point",
        "coordinates": [
          34.79436,
          32.091092
        ]
      }
    },
    {
      "type": "Feature",
      "properties": {
        "type": "original_route_stop",
        "stop_code": "21450",
        "stop_name": "ת. רכבת בני ברק/מבצע קדש",
        "marker-color": "#2ca02c",
        "marker-symbol": "bus",
        "marker-size": "medium"
      },
      "geometry": {
        "type": "Point",
        "coordinates": [
          34.827868,
          32.103514
        ]
      }
    },
    {
      "type": "Feature",
      "properties": {
        "type": "cancelled_stop",
        "stop_code": "26258",
        "stop_name": "דרך אבא הלל/ביאליק",
        "marker-color": "#ff0000",
        "marker-symbol": "bus",
        "marker-size": "medium"
      },
      "geometry": {
        "type": "Point",
        "coordinates": [
          34.807448,
          32.08826
        ]
      }
    },
    {
      "type": "Feature",
      "properties": {
        "type": "cancelled_stop",
        "stop_code": "26286",
        "stop_name": "דרך אבא הלל/רוקח",
        "marker-color": "#ff0000",
        "marker-symbol": "bus",
        "marker-size": "medium"
      },
      "geometry": {
        "type": "Point",
        "coordinates": [
          34.810376,
          32.090008
        ]
      }
    },
    {
      "type": "Feature",
      "properties": {
        "type": "cancelled_stop",
        "stop_code": "26289",
        "stop_name": "דרך אבא הלל/התקווה",
        "marker-color": "#ff0000",
        "marker-symbol": "bus",
        "marker-size": "medium"
      },
      "geometry": {
        "type": "Point",
        "coordinates": [
          34.813685,
          32.091173
        ]
      }
    },
    {
      "type": "Feature",
      "properties": {
        "type": "cancelled_stop",
        "stop_code": "26353",
        "stop_name": "דרך אבא הלל/רש''י",
        "marker-color": "#ff0000",
        "marker-symbol": "bus",
        "marker-size": "medium"
      },
      "geometry": {
        "type": "Point",
        "coordinates": [
          34.816607,
          32.092905
        ]
      }
    },
    {
      "type": "Feature",
      "properties": {
        "type": "cancelled_stop",
        "stop_code": "26369",
        "stop_name": "דרך אבא הלל /דרך ששת הימים",
        "marker-color": "#ff0000",
        "marker-symbol": "bus",
        "marker-size": "medium"
      },
      "geometry": {
        "type": "Point",
        "coordinates": [
          34.820452,
          32.095507
        ]
      }
    },
    {
      "type": "Feature",
      "properties": {
        "type": "new_stop",
        "stop_code": "20748",
        "stop_name": "ביאליק/דרך אבא הלל",
        "marker-color": "#1f9ed6",
        "marker-symbol": "bus",
        "marker-size": "medium"
      },
      "geometry": {
        "type": "Point",
        "coordinates": [
          34.806582,
          32.087118
        ]
      }
    },
    {
      "type": "Feature",
      "properties": {
        "type": "new_stop",
        "stop_code": "3433",
        "stop_name": "ביאליק/ויינשל ",
        "marker-color": "#1f9ed6",
        "marker-symbol": "bus",
        "marker-size": "medium"
      },
      "geometry": {
        "type": "Point",
        "coordinates": [
          34.808911,
          32.086475
        ]
      }
    },
    {
      "type": "Feature",
      "properties": {
        "type": "new_stop",
        "stop_code": "26271",
        "stop_name": "דרך ז'בוטינסקי/ביאליק",
        "marker-color": "#1f9ed6",
        "marker-symbol": "bus",
        "marker-size": "medium"
      },
      "geometry": {
        "type": "Point",
        "coordinates": [
          34.811402,
          32.086147
        ]
      }
    },
    {
      "type": "Feature",
      "properties": {
        "type": "new_stop",
        "stop_code": "23026",
        "stop_name": "ת.רק''ל ביאליק/דרך ז'בוטינסקי",
        "marker-color": "#1f9ed6",
        "marker-symbol": "bus",
        "marker-size": "medium"
      },
      "geometry": {
        "type": "Point",
        "coordinates": [
          34.815104,
          32.088512
        ]
      }
    },
    {
      "type": "Feature",
      "properties": {
        "type": "new_stop",
        "stop_code": "21540",
        "stop_name": "דרך ז'בוטינסקי/רש''י",
        "marker-color": "#1f9ed6",
        "marker-symbol": "bus",
        "marker-size": "medium"
      },
      "geometry": {
        "type": "Point",
        "coordinates": [
          34.818138,
          32.089296
        ]
      }
    },
    {
      "type": "Feature",
      "properties": {
        "type": "new_stop",
        "stop_code": "20177",
        "stop_name": "ת.רק''ל בן גוריון/מרכז דן",
        "marker-color": "#1f9ed6",
        "marker-symbol": "bus",
        "marker-size": "medium"
      },
      "geometry": {
        "type": "Point",
        "coordinates": [
          34.822739,
          32.091191
        ]
      }
    },
    {
      "type": "Feature",
      "properties": {
        "type": "new_stop",
        "stop_code": "21165",
        "stop_name": "מגדל ויטה/דרך בן גוריון",
        "marker-color": "#1f9ed6",
        "marker-symbol": "bus",
        "marker-size": "medium"
      },
      "geometry": {
        "type": "Point",
        "coordinates": [
          34.822193,
          32.094143
        ]
      }
    },
    {
      "type": "Feature",
      "properties": {
        "type": "reported_block_stop",
        "stop_code": "26353",
        "stop_name": "דרך אבא הלל/רש''י",
        "marker-color": "#ff8800",
        "marker-symbol": "bus",
        "marker-size": "medium"
      },
      "geometry": {
        "type": "Point",
        "coordinates": [
          34.816607,
          32.092905
        ]
      }
    },
    {
      "type": "Feature",
      "properties": {
        "type": "reported_block_stop",
        "stop_code": "26369",
        "stop_name": "דרך אבא הלל /דרך ששת הימים",
        "marker-color": "#ff8800",
        "marker-symbol": "bus",
        "marker-size": "medium"
      },
      "geometry": {
        "type": "Point",
        "coordinates": [
          34.820452,
          32.095507
        ]
      }
    },
    {
      "type": "Feature",
      "properties": {
        "type": "deviate_from_stop",
        "stop_code": "21197",
        "stop_name": "ביאליק/תובל",
        "marker-color": "#8000ff",
        "marker-symbol": "bus",
        "marker-size": "medium"
      },
      "geometry": {
        "type": "Point",
        "coordinates": [
          34.80462,
          32.088275
        ]
      }
    },
    {
      "type": "Feature",
      "properties": {
        "type": "deviate_to_stop",
        "stop_code": "20643",
        "stop_name": "קניון איילון/דרך ששת הימים",
        "marker-color": "#8000ff",
        "marker-symbol": "bus",
        "marker-size": "medium"
      },
      "geometry": {
        "type": "Point",
        "coordinates": [
          34.826805,
          32.098418
        ]
      }
    }
  ]
}