{
  "type": "FeatureCollection",
  "features": [
    {
      "type": "Feature",
      "properties": {
        "type": "deviation_path",
        "trip_id": "12491223_020826",
        "shape_id": "164076",
        "stroke": "#00bcd4",
        "stroke-width": 3,
        "stroke-opacity": 0.95
      },
      "geometry": {
        "type": "LineString",
        "coordinates": [
          [
            34.74592406254345,
            32.00858547402415
          ],
          [
            34.746049,
            32.008878
          ],
          [
            34.745853,
            32.008947
          ],
          [
            34.745321,
            32.009157
          ],
          [
            34.745249,
            32.00918
          ],
          [
            34.74506,
            32.009216
          ],
          [
            34.745062,
            32.009223
          ],
          [
            34.745065,
            32.009235
          ],
          [
            34.745065,
            32.009252
          ],
          [
            34.745064,
            32.009264
          ],
          [
            34.74506,
            32.009275
          ],
          [
            34.745052,
            32.009291
          ],
          [
            34.745041,
            32.009306
          ],
          [
            34.745031,
            32.009314
          ],
          [
            34.745021,
            32.009322
          ],
          [
            34.745003,
            32.009331
          ],
          [
            34.744991,
            32.009335
          ],
          [
            34.744982,
            32.009337
          ],
          [
            34.744964,
            32.00934
          ],
          [
            34.744943,
            32.009339
          ],
          [
            34.74493,
            32.009337
          ],
          [
            34.744911,
            32.009331
          ],
          [
            34.744893,
            32.009323
          ],
          [
            34.744877,
            32.009312
          ],
          [
            34.744864,
            32.009298
          ],
          [
            34.744857,
            32.009287
          ],
          [
            34.744657,
            32.009381
          ],
          [
            34.744435,
            32.009582
          ],
          [
            34.744358,
            32.009671
          ],
          [
            34.744291,
            32.009768
          ],
          [
            34.744258,
            32.009853
          ],
          [
            34.744263,
            32.00986
          ],
          [
            34.744274,
            32.009874
          ],
          [
            34.744282,
            32.00989
          ],
          [
            34.744288,
            32.009906
          ],
          [
            34.744292,
            32.009922
          ],
          [
            34.744293,
            32.009939
          ],
          [
            34.744292,
            32.009956
          ],
          [
            34.74429,
            32.009961
          ],
          [
            34.744288,
            32.009973
          ],
          [
            34.744282,
            32.009989
          ],
          [
            34.744273,
            32.010004
          ],
          [
            34.744263,
            32.010019
          ],
          [
            34.744255,
            32.010027
          ],
          [
            34.744243,
            32.010038
          ],
          [
            34.744235,
            32.010043
          ],
          [
            34.744219,
            32.010053
          ],
          [
            34.744202,
            32.010062
          ],
          [
            34.744193,
            32.010065
          ],
          [
            34.744174,
            32.010071
          ],
          [
            34.744155,
            32.010074
          ],
          [
            34.744135,
            32.010075
          ],
          [
            34.744125,
            32.010075
          ],
          [
            34.744105,
            32.010073
          ],
          [
            34.744082,
            32.010068
          ],
          [
            34.74384,
            32.010327
          ],
          [
            34.743587,
            32.01056
          ],
          [
            34.743472,
            32.010651
          ],
          [
            34.743297,
            32.010768
          ],
          [
            34.743197,
            32.010811
          ],
          [
            34.743083,
            32.01086
          ],
          [
            34.742984,
            32.010893
          ],
          [
            34.742758,
            32.010976
          ],
          [
            34.742514,
            32.011031
          ],
          [
            34.742172,
            32.011085
          ],
          [
            34.742053,
            32.011152
          ],
          [
            34.74201,
            32.011185
          ],
          [
            34.741995,
            32.011209
          ],
          [
            34.741982,
            32.011253
          ],
          [
            34.741949,
            32.011431
          ],
          [
            34.741997,
            32.01176
          ],
          [
            34.742022,
            32.011884
          ],
          [
            34.742114,
            32.012336
          ],
          [
            34.742194,
            32.012699
          ],
          [
            34.742388,
            32.013585
          ],
          [
            34.742423,
            32.013747
          ],
          [
            34.742487,
            32.014048
          ],
          [
            34.742659,
            32.014344
          ],
          [
            34.742717,
            32.014421
          ],
          [
            34.742861,
            32.014611
          ],
          [
            34.743017,
            32.014784
          ],
          [
            34.743113,
            32.01489
          ],
          [
            34.743263,
            32.015024
          ],
          [
            34.743615,
            32.015311
          ],
          [
            34.743738,
            32.015449
          ],
          [
            34.743959,
            32.015681
          ],
          [
            34.744462,
            32.016199
          ],
          [
            34.74456,
            32.016369
          ],
          [
            34.744637,
            32.01646
          ],
          [
            34.744843,
            32.016706
          ],
          [
            34.745054,
            32.016921
          ],
          [
            34.74522,
            32.017121
          ],
          [
            34.745266,
            32.017205
          ],
          [
            34.745369,
            32.017358
          ],
          [
            34.745515,
            32.017629
          ],
          [
            34.745631,
            32.017894
          ],
          [
            34.745639,
            32.017915
          ],
          [
            34.745676,
            32.018019
          ],
          [
            34.74569,
            32.018157
          ],
          [
            34.745691,
            32.018165
          ],
          [
            34.745692,
            32.018579
          ],
          [
            34.745675,
            32.018744
          ],
          [
            34.745648,
            32.018827
          ],
          [
            34.74561,
            32.018979
          ],
          [
            34.745565,
            32.019285
          ],
          [
            34.745467347264096,
            32.02074748428104
          ]
        ]
      }
    },
    {
      "type": "Feature",
      "properties": {
        "type": "original_route_shape",
        "shape_id": "163925",
        "stroke": "#1f2a7a",
        "stroke-width": 3,
        "stroke-opacity": 0.85
      },
      "geometry": {
        "type": "LineString",
        "coordinates": [
          [
            34.74678443196522,
            32.00205463271845
          ],
          [
            34.746972,
            32.002394
          ],
          [
            34.747098,
            32.002566
          ],
          [
            34.74783,
            32.003594
          ],
          [
            34.747954,
            32.003769
          ],
          [
            34.748024,
            32.003866
          ],
          [
            34.748148,
            32.004125
          ],
          [
            34.748778,
            32.005252
          ],
          [
            34.748819,
            32.005324
          ],
          [
            34.748604,
            32.005389
          ],
          [
            34.748317,
            32.005456
          ],
          [
            34.748037,
            32.005562
          ],
          [
            34.747956,
            32.005593
          ],
          [
            34.747569,
            32.005748
          ],
          [
            34.747461,
            32.005772
          ],
          [
            34.746944,
            32.005952
          ],
          [
            34.746153,
            32.006252
          ],
          [
            34.745647,
            32.00647
          ],
          [
            34.745032,
            32.006736
          ],
          [
            34.745179,
            32.007032
          ],
          [
            34.745228,
            32.007131
          ],
          [
            34.745759,
            32.008199
          ],
          [
            34.746049,
            32.008878
          ],
          [
            34.745853,
            32.008947
          ],
          [
            34.745321,
            32.009157
          ],
          [
            34.745249,
            32.00918
          ],
          [
            34.74506,
            32.009216
          ],
          [
            34.745062,
            32.009223
          ],
          [
            34.745065,
            32.009235
          ],
          [
            34.745065,
            32.009252
          ],
          [
            34.745064,
            32.009264
          ],
          [
            34.74506,
            32.009275
          ],
          [
            34.745052,
            32.009291
          ],
          [
            34.745041,
            32.009306
          ],
          [
            34.745031,
            32.009314
          ],
          [
            34.745021,
            32.009322
          ],
          [
            34.745003,
            32.009331
          ],
          [
            34.744991,
            32.009335
          ],
          [
            34.744982,
            32.009337
          ],
          [
            34.744964,
            32.00934
          ],
          [
            34.744943,
            32.009339
          ],
          [
            34.74493,
            32.009337
          ],
          [
            34.744911,
            32.009331
          ],
          [
            34.744893,
            32.009323
          ],
          [
            34.744877,
            32.009312
          ],
          [
            34.744864,
            32.009298
          ],
          [
            34.744857,
            32.009287
          ],
          [
            34.744657,
            32.009381
          ],
          [
            34.744435,
            32.009582
          ],
          [
            34.744358,
            32.009671
          ],
          [
            34.744291,
            32.009768
          ],
          [
            34.744258,
            32.009853
          ],
          [
            34.744263,
            32.00986
          ],
          [
            34.744274,
            32.009874
          ],
          [
            34.744282,
            32.00989
          ],
          [
            34.744288,
            32.009906
          ],
          [
            34.744292,
            32.009922
          ],
          [
            34.744293,
            32.009939
          ],
          [
            34.744292,
            32.009956
          ],
          [
            34.74429,
            32.009961
          ],
          [
            34.744431,
            32.010097
          ],
          [
            34.744843,
            32.010537
          ],
          [
            34.745172,
            32.010855
          ],
          [
            34.74562,
            32.011287
          ],
          [
            34.745714,
            32.011385
          ],
          [
            34.746761,
            32.012497
          ],
          [
            34.747777,
            32.01355
          ],
          [
            34.748219,
            32.013998
          ],
          [
            34.74911,
            32.014766
          ],
          [
            34.748554,
            32.014947
          ],
          [
            34.74846,
            32.014985
          ],
          [
            34.748414,
            32.015015
          ],
          [
            34.748379,
            32.015063
          ],
          [
            34.74836,
            32.0151
          ],
          [
            34.748374,
            32.015221
          ],
          [
            34.748503,
            32.015405
          ],
          [
            34.748537,
            32.015445
          ],
          [
            34.748678,
            32.015586
          ],
          [
            34.749003,
            32.015986
          ],
          [
            34.749189,
            32.016274
          ],
          [
            34.749245,
            32.01636
          ],
          [
            34.749095,
            32.016384
          ],
          [
            34.748736,
            32.016424
          ],
          [
            34.748109,
            32.016474
          ],
          [
            34.747603,
            32.016521
          ],
          [
            34.747123,
            32.016605
          ],
          [
            34.747092,
            32.016611
          ],
          [
            34.746627,
            32.016732
          ],
          [
            34.746071,
            32.016915
          ],
          [
            34.745372,
            32.017164
          ],
          [
            34.745502,
            32.017382
          ],
          [
            34.745593,
            32.017599
          ],
          [
            34.745693,
            32.017903
          ],
          [
            34.745676,
            32.018019
          ],
          [
            34.74569,
            32.018157
          ],
          [
            34.745691,
            32.018165
          ],
          [
            34.745692,
            32.018579
          ],
          [
            34.745675,
            32.018744
          ],
          [
            34.745648,
            32.018827
          ],
          [
            34.74561,
            32.018979
          ],
          [
            34.745565,
            32.019285
          ],
          [
            34.745438,
            32.021187
          ],
          [
            34.74543,
            32.021333
          ],
          [
            34.745356,
            32.022448
          ],
          [
            34.745348,
            32.022574
          ],
          [
            34.74534,
            32.022685
          ],
          [
            34.745269,
            32.023738
          ],
          [
            34.74519,
            32.025196
          ],
          [
            34.745178,
            32.025429
          ],
          [
            34.745154,
            32.025733
          ],
          [
            34.745144,
            32.026418
          ],
          [
            34.745219,
            32.026555
          ],
          [
            34.745296,
            32.026633
          ],
          [
            34.745355,
            32.026675
          ],
          [
            34.745558,
            32.02673
          ],
          [
            34.745804,
            32.026776
          ],
          [
            34.74654,
            32.026885
          ],
          [
            34.746677,
            32.026908
          ],
          [
            34.747674,
            32.027074
          ],
          [
            34.747951,
            32.027136
          ],
          [
            34.748274,
            32.027173
          ],
          [
            34.748348,
            32.027162
          ],
          [
            34.748429,
            32.027155
          ],
          [
            34.748447,
            32.027157
          ],
          [
            34.748498,
            32.027164
          ],
          [
            34.74855,
            32.027182
          ],
          [
            34.748599,
            32.02722
          ],
          [
            34.748681,
            32.0274
          ],
          [
            34.748759,
            32.027677
          ],
          [
            34.749347,
            32.028532
          ],
          [
            34.749427,
            32.028651
          ],
          [
            34.749922,
            32.029274
          ],
          [
            34.749943,
            32.029307
          ],
          [
            34.750071,
            32.029461
          ],
          [
            34.750283,
            32.029707
          ],
          [
            34.750313,
            32.029741
          ],
          [
            34.750644,
            32.030161
          ],
          [
            34.75088,
            32.030496
          ],
          [
            34.750926,
            32.030576
          ],
          [
            34.750972,
            32.030655
          ],
          [
            34.751025,
            32.030762
          ],
          [
            34.751151,
            32.031053
          ],
          [
            34.751243,
            32.0313
          ],
          [
            34.751346,
            32.031634
          ],
          [
            34.751384,
            32.031852
          ],
          [
            34.751415,
            32.032034
          ],
          [
            34.751573,
            32.032767
          ],
          [
            34.751733,
            32.033594
          ],
          [
            34.751839,
            32.033981
          ],
          [
            34.751866,
            32.034052
          ],
          [
            34.75205,
            32.03442
          ],
          [
            34.752159,
            32.03461
          ],
          [
            34.752293,
            32.034798
          ],
          [
            34.752412,
            32.034949
          ],
          [
            34.752542,
            32.035094
          ],
          [
            34.752761,
            32.035282
          ],
          [
            34.752962,
            32.035412
          ],
          [
            34.753124,
            32.035515
          ],
          [
            34.753322,
            32.035609
          ],
          [
            34.753467,
            32.035667
          ],
          [
            34.753612,
            32.035716
          ],
          [
            34.753823,
            32.035789
          ],
          [
            34.754314,
            32.035952
          ],
          [
            34.754315,
            32.035952
          ],
          [
            34.754509,
            32.036015
          ],
          [
            34.754688,
            32.036072
          ],
          [
            34.754844,
            32.036116
          ],
          [
            34.755069,
            32.036171
          ],
          [
            34.755312,
            32.036213
          ],
          [
            34.755643,
            32.036257
          ],
          [
            34.755705,
            32.036256
          ],
          [
            34.755947,
            32.036263
          ],
          [
            34.756013,
            32.036265
          ],
          [
            34.757337,
            32.036312
          ],
          [
            34.757415,
            32.036315
          ],
          [
            34.758654,
            32.036293
          ],
          [
            34.758807,
            32.036294
          ],
          [
            34.758878,
            32.036282
          ],
          [
            34.758972,
            32.036251
          ],
          [
            34.759057,
            32.0362
          ],
          [
            34.759115,
            32.03613
          ],
          [
            34.759175,
            32.036043
          ],
          [
            34.759182,
            32.036013
          ],
          [
            34.759246,
            32.035907
          ],
          [
            34.759308,
            32.035836
          ],
          [
            34.759406,
            32.035763
          ],
          [
            34.759541,
            32.035694
          ],
          [
            34.759576,
            32.035676
          ],
          [
            34.759688,
            32.035646
          ],
          [
            34.759804,
            32.035634
          ],
          [
            34.759919,
            32.035639
          ],
          [
            34.760011,
            32.035662
          ],
          [
            34.760032,
            32.035667
          ],
          [
            34.760135,
            32.035716
          ],
          [
            34.760225,
            32.035765
          ],
          [
            34.760303,
            32.035828
          ],
          [
            34.760349,
            32.035876
          ],
          [
            34.760406,
            32.035938
          ],
          [
            34.760447,
            32.036003
          ],
          [
            34.760492,
            32.0361
          ],
          [
            34.760553,
            32.036234
          ],
          [
            34.760598,
            32.03633
          ],
          [
            34.760639,
            32.036488
          ],
          [
            34.760645,
            32.036613
          ],
          [
            34.760621,
            32.036699
          ],
          [
            34.76059,
            32.036761
          ],
          [
            34.760559,
            32.036838
          ],
          [
            34.76054,
            32.036885
          ],
          [
            34.760521,
            32.036944
          ],
          [
            34.760506,
            32.036975
          ],
          [
            34.760434,
            32.03711
          ],
          [
            34.760405,
            32.037172
          ],
          [
            34.760375,
            32.037249
          ],
          [
            34.760351,
            32.037308
          ],
          [
            34.760343,
            32.037368
          ],
          [
            34.760345,
            32.037419
          ],
          [
            34.760362,
            32.037488
          ],
          [
            34.760393,
            32.037564
          ],
          [
            34.760419,
            32.037598
          ],
          [
            34.760456,
            32.037636
          ],
          [
            34.760468,
            32.037652
          ],
          [
            34.76063,
            32.037792
          ],
          [
            34.760759,
            32.037919
          ],
          [
            34.760979,
            32.038192
          ],
          [
            34.761067,
            32.038307
          ],
          [
            34.761246,
            32.03859
          ],
          [
            34.761507,
            32.039012
          ],
          [
            34.761621,
            32.039242
          ],
          [
            34.76163889989225,
            32.039293925813546
          ]
        ]
      }
    },
    {
      "type": "Feature",
      "properties": {
        "type": "original_route_stop",
        "stop_code": "30018",
        "stop_name": "ת.רק''ל הקוממיות/דרך בגין",
        "marker-color": "#2ca02c",
        "marker-symbol": "bus",
        "marker-size": "medium"
      },
      "geometry": {
        "type": "Point",
        "coordinates": [
          34.746829,
          32.00203
        ]
      }
    },
    {
      "type": "Feature",
      "properties": {
        "type": "original_route_stop",
        "stop_code": "36116",
        "stop_name": "העמל/אהוד קינמון",
        "marker-color": "#2ca02c",
        "marker-symbol": "bus",
        "marker-size": "medium"
      },
      "geometry": {
        "type": "Point",
        "coordinates": [
          34.747056,
          32.005962
        ]
      }
    },
    {
      "type": "Feature",
      "properties": {
        "type": "original_route_stop",
        "stop_code": "36215",
        "stop_name": "בלפור/הרב קוק",
        "marker-color": "#2ca02c",
        "marker-symbol": "bus",
        "marker-size": "medium"
      },
      "geometry": {
        "type": "Point",
        "coordinates": [
          34.745285,
          32.02442
        ]
      }
    },
    {
      "type": "Feature",
      "properties": {
        "type": "original_route_stop",
        "stop_code": "36222",
        "stop_name": "רוטשילד/בלפור",
        "marker-color": "#2ca02c",
        "marker-symbol": "bus",
        "marker-size": "medium"
      },
      "geometry": {
        "type": "Point",
        "coordinates": [
          34.745833,
          32.026735
        ]
      }
    },
    {
      "type": "Feature",
      "properties": {
        "type": "original_route_stop",
        "stop_code": "36227",
        "stop_name": "ת.רק''ל העצמאות",
        "marker-color": "#2ca02c",
        "marker-symbol": "bus",
        "marker-size": "medium"
      },
      "geometry": {
        "type": "Point",
        "coordinates": [
          34.748983,
          32.027912
        ]
      }
    },
    {
      "type": "Feature",
      "properties": {
        "type": "original_route_stop",
        "stop_code": "36230",
        "stop_name": "שד' ירושלים/שמחה הולצברג",
        "marker-color": "#2ca02c",
        "marker-symbol": "bus",
        "marker-size": "medium"
      },
      "geometry": {
        "type": "Point",
        "coordinates": [
          34.750499,
          32.029896
        ]
      }
    },
    {
      "type": "Feature",
      "properties": {
        "type": "original_route_stop",
        "stop_code": "25206",
        "stop_name": "ת.רק''ל מחרוזת/שד' ירושלים",
        "marker-color": "#2ca02c",
        "marker-symbol": "bus",
        "marker-size": "medium"
      },
      "geometry": {
        "type": "Point",
        "coordinates": [
          34.751588,
          32.032586
        ]
      }
    },
    {
      "type": "Feature",
      "properties": {
        "type": "original_route_stop",
        "stop_code": "25211",
        "stop_name": "שד' ירושלים/מחרוזת",
        "marker-color": "#2ca02c",
        "marker-symbol": "bus",
        "marker-size": "medium"
      },
      "geometry": {
        "type": "Point",
        "coordinates": [
          34.752164,
          32.034515
        ]
      }
    },
    {
      "type": "Feature",
      "properties": {
        "type": "original_route_stop",
        "stop_code": "25218",
        "stop_name": "מרכז הטניס/הרב הלר",
        "marker-color": "#2ca02c",
        "marker-symbol": "bus",
        "marker-size": "medium"
      },
      "geometry": {
        "type": "Point",
        "coordinates": [
          34.755922,
          32.036217
        ]
      }
    },
    {
      "type": "Feature",
      "properties": {
        "type": "original_route_stop",
        "stop_code": "25244",
        "stop_name": "היינריך היינה/שז''ר",
        "marker-color": "#2ca02c",
        "marker-symbol": "bus",
        "marker-size": "medium"
      },
      "geometry": {
        "type": "Point",
        "coordinates": [
          34.761688,
          32.039277
        ]
      }
    },
    {
      "type": "Feature",
      "properties": {
        "type": "cancelled_stop",
        "stop_code": "36139",
        "stop_name": "ביה''ס בני ציון/הנביאים",
        "marker-color": "#ff0000",
        "marker-symbol": "bus",
        "marker-size": "medium"
      },
      "geometry": {
        "type": "Point",
        "coordinates": [
          34.746522,
          32.012171
        ]
      }
    },
    {
      "type": "Feature",
      "properties": {
        "type": "cancelled_stop",
        "stop_code": "36142",
        "stop_name": "הנביאים/השר רבינוביץ'",
        "marker-color": "#ff0000",
        "marker-symbol": "bus",
        "marker-size": "medium"
      },
      "geometry": {
        "type": "Point",
        "coordinates": [
          34.748571,
          32.014236
        ]
      }
    },
    {
      "type": "Feature",
      "properties": {
        "type": "cancelled_stop",
        "stop_code": "36210",
        "stop_name": "שד' בר אילן/החרושת",
        "marker-color": "#ff0000",
        "marker-symbol": "bus",
        "marker-size": "medium"
      },
      "geometry": {
        "type": "Point",
        "coordinates": [
          34.748599,
          32.015438
        ]
      }
    },
    {
      "type": "Feature",
      "properties": {
        "type": "cancelled_stop",
        "stop_code": "36208",
        "stop_name": "ת.רק''ל בנימין/יוספטל",
        "marker-color": "#ff0000",
        "marker-symbol": "bus",
        "marker-size": "medium"
      },
      "geometry": {
        "type": "Point",
        "coordinates": [
          34.74747,
          32.01659
        ]
      }
    },
    {
      "type": "Feature",
      "properties": {
        "type": "new_stop",
        "stop_code": "36129",
        "stop_name": "יצחק שדה/הנביאים",
        "marker-color": "#1f9ed6",
        "marker-symbol": "bus",
        "marker-size": "medium"
      },
      "geometry": {
        "type": "Point",
        "coordinates": [
          34.743849,
          32.010386
        ]
      }
    },
    {
      "type": "Feature",
      "properties": {
        "type": "new_stop",
        "stop_code": "36103",
        "stop_name": "בלפור/יצחק שדה",
        "marker-color": "#1f9ed6",
        "marker-symbol": "bus",
        "marker-size": "medium"
      },
      "geometry": {
        "type": "Point",
        "coordinates": [
          34.74219,
          32.012439
        ]
      }
    },
    {
      "type": "Feature",
      "properties": {
        "type": "new_stop",
        "stop_code": "36130",
        "stop_name": "בלפור/מקס נורדאו",
        "marker-color": "#1f9ed6",
        "marker-symbol": "bus",
        "marker-size": "medium"
      },
      "geometry": {
        "type": "Point",
        "coordinates": [
          34.742583,
          32.014112
        ]
      }
    },
    {
      "type": "Feature",
      "properties": {
        "type": "new_stop",
        "stop_code": "33891",
        "stop_name": "ת.רק''ל בלפור",
        "marker-color": "#1f9ed6",
        "marker-symbol": "bus",
        "marker-size": "medium"
      },
      "geometry": {
        "type": "Point",
        "coordinates": [
          34.744904,
          32.016697
        ]
      }
    },
    {
      "type": "Feature",
      "properties": {
        "type": "reported_block_stop",
        "stop_code": "36139",
        "stop_name": "ביה''ס בני ציון/הנביאים",
        "marker-color": "#ff8800",
        "marker-symbol": "bus",
        "marker-size": "medium"
      },
      "geometry": {
        "type": "Point",
        "coordinates": [
          34.746522,
          32.012171
        ]
      }
    },
    {
      "type": "Feature",
      "properties": {
        "type": "reported_block_stop",
        "stop_code": "36142",
        "stop_name": "הנביאים/השר רבינוביץ'",
        "marker-color": "#ff8800",
        "marker-symbol": "bus",
        "marker-size": "medium"
      },
      "geometry": {
        "type": "Point",
        "coordinates": [
          34.748571,
          32.014236
        ]
      }
    },
    {
      "type": "Feature",
      "properties": {
        "type": "deviate_from_stop",
        "stop_code": "36127",
        "stop_name": "אורט ישראל/גנרל קניג",
        "marker-color": "#8000ff",
        "marker-symbol": "bus",
        "marker-size": "medium"
      },
      "geometry": {
        "type": "Point",
        "coordinates": [
          34.745972,
          32.008565
        ]
      }
    },
    {
      "type": "Feature",
      "properties": {
        "type": "deviate_to_stop",
        "stop_code": "33719",
        "stop_name": "בלפור/פרלשטיין",
        "marker-color": "#8000ff",
        "marker-symbol": "bus",
        "marker-size": "medium"
      },
      "geometry": {
        "type": "Point",
        "coordinates": [
          34.74552,
          32.020751
        ]
      }
    }
  ]
}