{
  "type": "FeatureCollection",
  "features": [
    {
      "type": "Feature",
      "properties": {
        "type": "deviation_path",
        "trip_id": "10699681_020826",
        "shape_id": "164069",
        "stroke": "#00bcd4",
        "stroke-width": 3,
        "stroke-opacity": 0.95
      },
      "geometry": {
        "type": "LineString",
        "coordinates": [
          [
            34.867874544964316,
            32.091205881522605
          ],
          [
            34.868219,
            32.091171
          ],
          [
            34.868432,
            32.091152
          ],
          [
            34.868978,
            32.091102
          ],
          [
            34.869188,
            32.091079
          ],
          [
            34.869629,
            32.091041
          ],
          [
            34.870679,
            32.090943
          ],
          [
            34.871221,
            32.090872
          ],
          [
            34.871871,
            32.090821
          ],
          [
            34.871957,
            32.090811
          ],
          [
            34.872766,
            32.090748
          ],
          [
            34.872945,
            32.090734
          ],
          [
            34.873453,
            32.09068
          ],
          [
            34.873707,
            32.090667
          ],
          [
            34.873874,
            32.090683
          ],
          [
            34.87395,
            32.090676
          ],
          [
            34.87412,
            32.090654
          ],
          [
            34.874563,
            32.090607
          ],
          [
            34.875326,
            32.09055
          ],
          [
            34.875682,
            32.090534
          ],
          [
            34.876025,
            32.090518
          ],
          [
            34.876767,
            32.090354
          ],
          [
            34.877329,
            32.090291
          ],
          [
            34.877501,
            32.090242
          ],
          [
            34.877551,
            32.090223
          ],
          [
            34.877592,
            32.0902
          ],
          [
            34.877617,
            32.090163
          ],
          [
            34.877694,
            32.090021
          ],
          [
            34.877671,
            32.089899
          ],
          [
            34.87763,
            32.089712
          ],
          [
            34.877588,
            32.08945
          ],
          [
            34.877579,
            32.089395
          ],
          [
            34.877516,
            32.088987
          ],
          [
            34.877494,
            32.088841
          ],
          [
            34.877485,
            32.088777
          ],
          [
            34.877491,
            32.088697
          ],
          [
            34.877521,
            32.08849
          ],
          [
            34.877576,
            32.088295
          ],
          [
            34.877644,
            32.088075
          ],
          [
            34.877682,
            32.087981
          ],
          [
            34.877824,
            32.087699
          ],
          [
            34.878093,
            32.087258
          ],
          [
            34.878112,
            32.087209
          ],
          [
            34.878122,
            32.08716
          ],
          [
            34.878157,
            32.086933
          ],
          [
            34.878187,
            32.086811
          ],
          [
            34.878191,
            32.086673
          ],
          [
            34.878213,
            32.086062
          ],
          [
            34.878218,
            32.085911
          ],
          [
            34.878268,
            32.085301
          ],
          [
            34.878373,
            32.085317
          ],
          [
            34.87915019858095,
            32.08539932715775
          ]
        ]
      }
    },
    {
      "type": "Feature",
      "properties": {
        "type": "original_route_shape",
        "shape_id": "164229",
        "stroke": "#1f2a7a",
        "stroke-width": 3,
        "stroke-opacity": 0.85
      },
      "geometry": {
        "type": "LineString",
        "coordinates": [
          [
            34.84869363490079,
            32.09242998892179
          ],
          [
            34.849452,
            32.092453
          ],
          [
            34.849818,
            32.092481
          ],
          [
            34.850344,
            32.092496
          ],
          [
            34.851111,
            32.092531
          ],
          [
            34.852355,
            32.092581
          ],
          [
            34.85259,
            32.092586
          ],
          [
            34.852788,
            32.09259
          ],
          [
            34.853212,
            32.092562
          ],
          [
            34.853778,
            32.092501
          ],
          [
            34.853932,
            32.092489
          ],
          [
            34.854966,
            32.092419
          ],
          [
            34.85555,
            32.092361
          ],
          [
            34.855912,
            32.092325
          ],
          [
            34.855989,
            32.092317
          ],
          [
            34.856929,
            32.092225
          ],
          [
            34.857046,
            32.092216
          ],
          [
            34.857331,
            32.092193
          ],
          [
            34.857684,
            32.092157
          ],
          [
            34.858341,
            32.092091
          ],
          [
            34.859159,
            32.092008
          ],
          [
            34.859808,
            32.091927
          ],
          [
            34.860298,
            32.091902
          ],
          [
            34.861003,
            32.091865
          ],
          [
            34.861544,
            32.0918
          ],
          [
            34.861853,
            32.091762
          ],
          [
            34.861966,
            32.091749
          ],
          [
            34.862469,
            32.091701
          ],
          [
            34.863468,
            32.091602
          ],
          [
            34.864269,
            32.091517
          ],
          [
            34.864962,
            32.091465
          ],
          [
            34.865337,
            32.091439
          ],
          [
            34.866371,
            32.091349
          ],
          [
            34.866699,
            32.091325
          ],
          [
            34.867192,
            32.091275
          ],
          [
            34.868219,
            32.091171
          ],
          [
            34.868432,
            32.091152
          ],
          [
            34.868801,
            32.091065
          ],
          [
            34.868857,
            32.091046
          ],
          [
            34.868912,
            32.090997
          ],
          [
            34.868938,
            32.090943
          ],
          [
            34.868986,
            32.090682
          ],
          [
            34.868986,
            32.09068
          ],
          [
            34.868877,
            32.090115
          ],
          [
            34.868797,
            32.089581
          ],
          [
            34.86879,
            32.089577
          ],
          [
            34.868781,
            32.08957
          ],
          [
            34.868769,
            32.089557
          ],
          [
            34.868762,
            32.089548
          ],
          [
            34.868757,
            32.089538
          ],
          [
            34.868753,
            32.089522
          ],
          [
            34.868752,
            32.089511
          ],
          [
            34.868752,
            32.089501
          ],
          [
            34.868756,
            32.089485
          ],
          [
            34.868763,
            32.08947
          ],
          [
            34.868769,
            32.08946
          ],
          [
            34.868775,
            32.089453
          ],
          [
            34.868739,
            32.089251
          ],
          [
            34.868715,
            32.089088
          ],
          [
            34.868707,
            32.089035
          ],
          [
            34.868587,
            32.088273
          ],
          [
            34.868561,
            32.088095
          ],
          [
            34.868532,
            32.087901
          ],
          [
            34.868493,
            32.087635
          ],
          [
            34.868469,
            32.087507
          ],
          [
            34.868367,
            32.086897
          ],
          [
            34.868313,
            32.08662
          ],
          [
            34.868282,
            32.086464
          ],
          [
            34.868139,
            32.085721
          ],
          [
            34.868232,
            32.08571
          ],
          [
            34.869024,
            32.085621
          ],
          [
            34.869513,
            32.085584
          ],
          [
            34.869716,
            32.085552
          ],
          [
            34.869891,
            32.085511
          ],
          [
            34.870231,
            32.085389
          ],
          [
            34.870227,
            32.085382
          ],
          [
            34.870223,
            32.08536
          ],
          [
            34.870225,
            32.085338
          ],
          [
            34.870238,
            32.085312
          ],
          [
            34.870249,
            32.085298
          ],
          [
            34.870269,
            32.085284
          ],
          [
            34.870293,
            32.085274
          ],
          [
            34.870312,
            32.08527
          ],
          [
            34.870318,
            32.085269
          ],
          [
            34.870338,
            32.085268
          ],
          [
            34.870358,
            32.085271
          ],
          [
            34.870377,
            32.085277
          ],
          [
            34.870399,
            32.085289
          ],
          [
            34.870413,
            32.085301
          ],
          [
            34.870424,
            32.085315
          ],
          [
            34.870429,
            32.085325
          ],
          [
            34.870658,
            32.085251
          ],
          [
            34.87167,
            32.084903
          ],
          [
            34.871765,
            32.084875
          ],
          [
            34.872611,
            32.084625
          ],
          [
            34.872808,
            32.084509
          ],
          [
            34.872861,
            32.084499
          ],
          [
            34.872863,
            32.084486
          ],
          [
            34.872872,
            32.084467
          ],
          [
            34.87288,
            32.084457
          ],
          [
            34.872888,
            32.08445
          ],
          [
            34.872896,
            32.084444
          ],
          [
            34.872901,
            32.084442
          ],
          [
            34.872905,
            32.084439
          ],
          [
            34.87292,
            32.084433
          ],
          [
            34.872936,
            32.08443
          ],
          [
            34.872958,
            32.08443
          ],
          [
            34.872979,
            32.084434
          ],
          [
            34.872994,
            32.08444
          ],
          [
            34.872999,
            32.084443
          ],
          [
            34.873015,
            32.084455
          ],
          [
            34.873022,
            32.084463
          ],
          [
            34.873027,
            32.084471
          ],
          [
            34.873032,
            32.084482
          ],
          [
            34.87313,
            32.084483
          ],
          [
            34.873206,
            32.084489
          ],
          [
            34.873381,
            32.084523
          ],
          [
            34.874274,
            32.084678
          ],
          [
            34.874338,
            32.084691
          ],
          [
            34.875072,
            32.084801
          ],
          [
            34.87517,
            32.084816
          ],
          [
            34.876081,
            32.084962
          ],
          [
            34.876077,
            32.084947
          ],
          [
            34.876077,
            32.084937
          ],
          [
            34.876078,
            32.084927
          ],
          [
            34.876082,
            32.084912
          ],
          [
            34.876087,
            32.084903
          ],
          [
            34.876093,
            32.084894
          ],
          [
            34.8761,
            32.084886
          ],
          [
            34.876108,
            32.084879
          ],
          [
            34.876123,
            32.08487
          ],
          [
            34.876133,
            32.084866
          ],
          [
            34.876144,
            32.084862
          ],
          [
            34.876155,
            32.08486
          ],
          [
            34.876164,
            32.084859
          ],
          [
            34.876179,
            32.084859
          ],
          [
            34.876191,
            32.084861
          ],
          [
            34.876202,
            32.084863
          ],
          [
            34.876218,
            32.084869
          ],
          [
            34.876228,
            32.084875
          ],
          [
            34.876237,
            32.084881
          ],
          [
            34.876245,
            32.084889
          ],
          [
            34.876254,
            32.084901
          ],
          [
            34.876261,
            32.084915
          ],
          [
            34.876264,
            32.084925
          ],
          [
            34.876266,
            32.08494
          ],
          [
            34.876265,
            32.084949
          ],
          [
            34.876261,
            32.084964
          ],
          [
            34.876257,
            32.084973
          ],
          [
            34.876251,
            32.084982
          ],
          [
            34.876244,
            32.084991
          ],
          [
            34.877003,
            32.085098
          ],
          [
            34.878268,
            32.085301
          ],
          [
            34.878373,
            32.085317
          ],
          [
            34.879402,
            32.085426
          ],
          [
            34.879646,
            32.085445
          ],
          [
            34.880374,
            32.085531
          ],
          [
            34.88108,
            32.085614
          ],
          [
            34.881331,
            32.085647
          ],
          [
            34.882126,
            32.085704
          ],
          [
            34.882367,
            32.084894
          ],
          [
            34.88246,
            32.084687
          ],
          [
            34.882547,
            32.084499
          ],
          [
            34.882612,
            32.084332
          ],
          [
            34.882821,
            32.083691
          ],
          [
            34.882952,
            32.083358
          ],
          [
            34.882993,
            32.083202
          ],
          [
            34.883123,
            32.082819
          ],
          [
            34.883301,
            32.082357
          ],
          [
            34.883467,
            32.081914
          ],
          [
            34.883619,
            32.081483
          ],
          [
            34.883706,
            32.081208
          ],
          [
            34.884197,
            32.079885
          ],
          [
            34.884354,
            32.07946
          ],
          [
            34.884702,
            32.078473
          ],
          [
            34.884761,
            32.078324
          ],
          [
            34.884878,
            32.077963
          ],
          [
            34.885008,
            32.077589
          ],
          [
            34.885366,
            32.076517
          ],
          [
            34.885339,
            32.076503
          ],
          [
            34.885322,
            32.076487
          ],
          [
            34.885309,
            32.076467
          ],
          [
            34.885302,
            32.076439
          ],
          [
            34.885304,
            32.07641
          ],
          [
            34.885306,
            32.076405
          ],
          [
            34.885316,
            32.07638
          ],
          [
            34.885335,
            32.076361
          ],
          [
            34.885355,
            32.076348
          ],
          [
            34.885372,
            32.076342
          ],
          [
            34.88556,
            32.075871
          ],
          [
            34.885679,
            32.075553
          ],
          [
            34.885715,
            32.075428
          ],
          [
            34.88579,
            32.075479
          ],
          [
            34.88616,
            32.075749
          ],
          [
            34.887211,
            32.076496
          ],
          [
            34.887274,
            32.076542
          ],
          [
            34.88744,
            32.076664
          ],
          [
            34.888076,
            32.077108
          ],
          [
            34.888688,
            32.077552
          ],
          [
            34.888833,
            32.077644
          ],
          [
            34.889147,
            32.077856
          ],
          [
            34.889455,
            32.078071
          ],
          [
            34.889764,
            32.078294
          ],
          [
            34.889944,
            32.078367
          ],
          [
            34.88999,
            32.07837
          ],
          [
            34.890039,
            32.078364
          ],
          [
            34.890145,
            32.07831
          ],
          [
            34.890294,
            32.078103
          ],
          [
            34.890429,
            32.077947
          ],
          [
            34.890532,
            32.077845
          ],
          [
            34.890812,
            32.077611
          ],
          [
            34.891111,
            32.077379
          ],
          [
            34.891336,
            32.077197
          ],
          [
            34.891458,
            32.077098
          ],
          [
            34.891502,
            32.077056
          ],
          [
            34.891598,
            32.076911
          ],
          [
            34.891637,
            32.076801
          ],
          [
            34.89165,
            32.076706
          ],
          [
            34.891643,
            32.076701
          ],
          [
            34.891639,
            32.076697
          ],
          [
            34.891632,
            32.076689
          ],
          [
            34.891627,
            32.076681
          ],
          [
            34.89162,
            32.076663
          ],
          [
            34.891619,
            32.076658
          ],
          [
            34.891619,
            32.076645
          ],
          [
            34.891619,
            32.076639
          ],
          [
            34.891621,
            32.07663
          ],
          [
            34.891625,
            32.07662
          ],
          [
            34.891632,
            32.076608
          ],
          [
            34.891643,
            32.076596
          ],
          [
            34.891658,
            32.076585
          ],
          [
            34.891621,
            32.074839
          ],
          [
            34.891609,
            32.074833
          ],
          [
            34.891599,
            32.074825
          ],
          [
            34.89159,
            32.074817
          ],
          [
            34.891582,
            32.074807
          ],
          [
            34.891576,
            32.074797
          ],
          [
            34.891571,
            32.074787
          ],
          [
            34.891569,
            32.074775
          ],
          [
            34.891567,
            32.074762
          ],
          [
            34.891569,
            32.074747
          ],
          [
            34.891574,
            32.074731
          ],
          [
            34.891583,
            32.074715
          ],
          [
            34.89159,
            32.074706
          ],
          [
            34.891605,
            32.074694
          ],
          [
            34.891615,
            32.074687
          ],
          [
            34.891634,
            32.074678
          ],
          [
            34.891647,
            32.074674
          ],
          [
            34.891632,
            32.074592
          ],
          [
            34.891627,
            32.074436
          ],
          [
            34.891624,
            32.074349
          ],
          [
            34.891628,
            32.074214
          ],
          [
            34.891656,
            32.074077
          ],
          [
            34.891668,
            32.074026
          ],
          [
            34.89199,
            32.073048
          ],
          [
            34.892047,
            32.072878
          ],
          [
            34.892154,
            32.072499
          ],
          [
            34.892196,
            32.072358
          ],
          [
            34.892207,
            32.072256
          ],
          [
            34.892218,
            32.072115
          ],
          [
            34.892313,
            32.072112
          ],
          [
            34.892698,
            32.072102
          ],
          [
            34.892953,
            32.072098
          ],
          [
            34.892896,
            32.072185
          ],
          [
            34.892883,
            32.072195
          ],
          [
            34.892847,
            32.072218
          ],
          [
            34.892753,
            32.072234
          ],
          [
            34.892391109862686,
            32.07224930381178
          ]
        ]
      }
    },
    {
      "type": "Feature",
      "properties": {
        "type": "original_route_stop",
        "stop_code": "36553",
        "stop_name": "מחלף גהה/ז'בוטינסקי",
        "marker-color": "#2ca02c",
        "marker-symbol": "bus",
        "marker-size": "medium"
      },
      "geometry": {
        "type": "Point",
        "coordinates": [
          34.848695,
          32.092385
        ]
      }
    },
    {
      "type": "Feature",
      "properties": {
        "type": "original_route_stop",
        "stop_code": "32274",
        "stop_name": "דרך זאב ז'בוטינסקי/היצירה",
        "marker-color": "#2ca02c",
        "marker-symbol": "bus",
        "marker-size": "medium"
      },
      "geometry": {
        "type": "Point",
        "coordinates": [
          34.850598,
          32.092462
        ]
      }
    },
    {
      "type": "Feature",
      "properties": {
        "type": "original_route_stop",
        "stop_code": "32270",
        "stop_name": "ת.רק''ל שנקר/דרך ז'בוטינסקי",
        "marker-color": "#2ca02c",
        "marker-symbol": "bus",
        "marker-size": "medium"
      },
      "geometry": {
        "type": "Point",
        "coordinates": [
          34.854627,
          32.092397
        ]
      }
    },
    {
      "type": "Feature",
      "properties": {
        "type": "original_route_stop",
        "stop_code": "32267",
        "stop_name": "דרך זאב ז'בוטינסקי/הסיבים",
        "marker-color": "#2ca02c",
        "marker-symbol": "bus",
        "marker-size": "medium"
      },
      "geometry": {
        "type": "Point",
        "coordinates": [
          34.858206,
          32.092059
        ]
      }
    },
    {
      "type": "Feature",
      "properties": {
        "type": "original_route_stop",
        "stop_code": "31366",
        "stop_name": "ת.רק''ל שחם/דרך ז'בוטינסקי",
        "marker-color": "#2ca02c",
        "marker-symbol": "bus",
        "marker-size": "medium"
      },
      "geometry": {
        "type": "Point",
        "coordinates": [
          34.86044,
          32.091849
        ]
      }
    },
    {
      "type": "Feature",
      "properties": {
        "type": "original_route_stop",
        "stop_code": "31582",
        "stop_name": "רוטשילד / פרנקפורטר",
        "marker-color": "#2ca02c",
        "marker-symbol": "bus",
        "marker-size": "medium"
      },
      "geometry": {
        "type": "Point",
        "coordinates": [
          34.882211,
          32.085236
        ]
      }
    },
    {
      "type": "Feature",
      "properties": {
        "type": "original_route_stop",
        "stop_code": "31692",
        "stop_name": "קופת חולים/רוטשילד",
        "marker-color": "#2ca02c",
        "marker-symbol": "bus",
        "marker-size": "medium"
      },
      "geometry": {
        "type": "Point",
        "coordinates": [
          34.883612,
          32.081332
        ]
      }
    },
    {
      "type": "Feature",
      "properties": {
        "type": "original_route_stop",
        "stop_code": "31211",
        "stop_name": "רוטשילד/יהוד",
        "marker-color": "#2ca02c",
        "marker-symbol": "bus",
        "marker-size": "medium"
      },
      "geometry": {
        "type": "Point",
        "coordinates": [
          34.884582,
          32.078656
        ]
      }
    },
    {
      "type": "Feature",
      "properties": {
        "type": "original_route_stop",
        "stop_code": "31496",
        "stop_name": "רוטשילד/פיארברג",
        "marker-color": "#2ca02c",
        "marker-symbol": "bus",
        "marker-size": "medium"
      },
      "geometry": {
        "type": "Point",
        "coordinates": [
          34.885077,
          32.077219
        ]
      }
    },
    {
      "type": "Feature",
      "properties": {
        "type": "original_route_stop",
        "stop_code": "32411",
        "stop_name": "מיכל פינס / רוטשילד",
        "marker-color": "#2ca02c",
        "marker-symbol": "bus",
        "marker-size": "medium"
      },
      "geometry": {
        "type": "Point",
        "coordinates": [
          34.886288,
          32.075781
        ]
      }
    },
    {
      "type": "Feature",
      "properties": {
        "type": "original_route_stop",
        "stop_code": "38163",
        "stop_name": "בית ספר מרחביה",
        "marker-color": "#2ca02c",
        "marker-symbol": "bus",
        "marker-size": "medium"
      },
      "geometry": {
        "type": "Point",
        "coordinates": [
          34.888057,
          32.077036
        ]
      }
    },
    {
      "type": "Feature",
      "properties": {
        "type": "original_route_stop",
        "stop_code": "32557",
        "stop_name": "שפרינצק / פינס",
        "marker-color": "#2ca02c",
        "marker-symbol": "bus",
        "marker-size": "medium"
      },
      "geometry": {
        "type": "Point",
        "coordinates": [
          34.890874,
          32.077502
        ]
      }
    },
    {
      "type": "Feature",
      "properties": {
        "type": "original_route_stop",
        "stop_code": "32555",
        "stop_name": "תיכון תלם/שפרינצק",
        "marker-color": "#2ca02c",
        "marker-symbol": "bus",
        "marker-size": "medium"
      },
      "geometry": {
        "type": "Point",
        "coordinates": [
          34.891574,
          32.075134
        ]
      }
    },
    {
      "type": "Feature",
      "properties": {
        "type": "original_route_stop",
        "stop_code": "36667",
        "stop_name": "בית רבקה",
        "marker-color": "#2ca02c",
        "marker-symbol": "bus",
        "marker-size": "medium"
      },
      "geometry": {
        "type": "Point",
        "coordinates": [
          34.892393,
          32.072294
        ]
      }
    },
    {
      "type": "Feature",
      "properties": {
        "type": "cancelled_stop",
        "stop_code": "38315",
        "stop_name": "בית חולים שניידר",
        "marker-color": "#ff0000",
        "marker-symbol": "bus",
        "marker-size": "medium"
      },
      "geometry": {
        "type": "Point",
        "coordinates": [
          34.868576,
          32.088538
        ]
      }
    },
    {
      "type": "Feature",
      "properties": {
        "type": "cancelled_stop",
        "stop_code": "32376",
        "stop_name": "ארלוזורוב/צה''ל",
        "marker-color": "#ff0000",
        "marker-symbol": "bus",
        "marker-size": "medium"
      },
      "geometry": {
        "type": "Point",
        "coordinates": [
          34.869311,
          32.085554
        ]
      }
    },
    {
      "type": "Feature",
      "properties": {
        "type": "cancelled_stop",
        "stop_code": "33553",
        "stop_name": "חיים ארלוזורוב/הרצפלד",
        "marker-color": "#ff0000",
        "marker-symbol": "bus",
        "marker-size": "medium"
      },
      "geometry": {
        "type": "Point",
        "coordinates": [
          34.873652,
          32.084529
        ]
      }
    },
    {
      "type": "Feature",
      "properties": {
        "type": "new_stop",
        "stop_code": "32266",
        "stop_name": "ת.רק''ל דנקנר/דרך ז'בוטינסקי",
        "marker-color": "#1f9ed6",
        "marker-symbol": "bus",
        "marker-size": "medium"
      },
      "geometry": {
        "type": "Point",
        "coordinates": [
          34.872151,
          32.090751
        ]
      }
    },
    {
      "type": "Feature",
      "properties": {
        "type": "new_stop",
        "stop_code": "32262",
        "stop_name": "ז'בוטינסקי/יצחק שדה",
        "marker-color": "#1f9ed6",
        "marker-symbol": "bus",
        "marker-size": "medium"
      },
      "geometry": {
        "type": "Point",
        "coordinates": [
          34.876985,
          32.090284
        ]
      }
    },
    {
      "type": "Feature",
      "properties": {
        "type": "new_stop",
        "stop_code": "36709",
        "stop_name": "טרומפלדור/פיק''א",
        "marker-color": "#1f9ed6",
        "marker-symbol": "bus",
        "marker-size": "medium"
      },
      "geometry": {
        "type": "Point",
        "coordinates": [
          34.87814,
          32.08663
        ]
      }
    },
    {
      "type": "Feature",
      "properties": {
        "type": "reported_block_stop",
        "stop_code": "32376",
        "stop_name": "ארלוזורוב/צה''ל",
        "marker-color": "#ff8800",
        "marker-symbol": "bus",
        "marker-size": "medium"
      },
      "geometry": {
        "type": "Point",
        "coordinates": [
          34.869311,
          32.085554
        ]
      }
    },
    {
      "type": "Feature",
      "properties": {
        "type": "reported_block_stop",
        "stop_code": "33553",
        "stop_name": "חיים ארלוזורוב/הרצפלד",
        "marker-color": "#ff8800",
        "marker-symbol": "bus",
        "marker-size": "medium"
      },
      "geometry": {
        "type": "Point",
        "coordinates": [
          34.873652,
          32.084529
        ]
      }
    },
    {
      "type": "Feature",
      "properties": {
        "type": "deviate_from_stop",
        "stop_code": "32269",
        "stop_name": "בי''ח בלינסון/גשר מבצע ארנון",
        "marker-color": "#8000ff",
        "marker-symbol": "bus",
        "marker-size": "medium"
      },
      "geometry": {
        "type": "Point",
        "coordinates": [
          34.86787,
          32.091161
        ]
      }
    },
    {
      "type": "Feature",
      "properties": {
        "type": "deviate_to_stop",
        "stop_code": "32494",
        "stop_name": "פרנקפורטר/טרומפלדור",
        "marker-color": "#8000ff",
        "marker-symbol": "bus",
        "marker-size": "medium"
      },
      "geometry": {
        "type": "Point",
        "coordinates": [
          34.879155,
          32.085354
        ]
      }
    }
  ]
}