{
  "type": "FeatureCollection",
  "features": [
    {
      "type": "Feature",
      "properties": {
        "type": "deviation_path_edge",
        "from_stop_code": "34494",
        "to_stop_code": "36325",
        "stroke": "#00bcd4",
        "stroke-width": 3,
        "stroke-opacity": 0.95
      },
      "geometry": {
        "type": "LineString",
        "coordinates": [
          [
            34.76804240347557,
            32.00392185754201
          ],
          [
            34.76807,
            32.004053
          ],
          [
            34.768106,
            32.00434
          ],
          [
            34.768136,
            32.004627
          ],
          [
            34.768144,
            32.004691
          ],
          [
            34.768039,
            32.004703
          ],
          [
            34.767951,
            32.004714
          ],
          [
            34.767359,
            32.004759
          ],
          [
            34.767278,
            32.004741
          ],
          [
            34.766988729353436,
            32.004762046006796
          ]
        ]
      }
    },
    {
      "type": "Feature",
      "properties": {
        "type": "deviation_path_edge",
        "from_stop_code": "36325",
        "to_stop_code": "33196",
        "stroke": "#00bcd4",
        "stroke-width": 3,
        "stroke-opacity": 0.95
      },
      "geometry": {
        "type": "LineString",
        "coordinates": [
          [
            34.766988729353436,
            32.004762046006796
          ],
          [
            34.766632,
            32.004788
          ],
          [
            34.766268,
            32.004831
          ],
          [
            34.766075,
            32.004854
          ],
          [
            34.765596,
            32.004926
          ],
          [
            34.765394,
            32.004994
          ],
          [
            34.765232,
            32.005083
          ],
          [
            34.765134,
            32.005157
          ],
          [
            34.765094,
            32.005186
          ],
          [
            34.764932,
            32.005371
          ],
          [
            34.76485,
            32.005481
          ],
          [
            34.764765,
            32.005654
          ],
          [
            34.764769,
            32.005701
          ],
          [
            34.764671,
            32.005998
          ],
          [
            34.764655,
            32.0061
          ],
          [
            34.764638,
            32.006202
          ],
          [
            34.764625,
            32.006337
          ],
          [
            34.764625,
            32.006499
          ],
          [
            34.76462798369883,
            32.0065500958424
          ]
        ]
      }
    },
    {
      "type": "Feature",
      "properties": {
        "type": "deviation_path_edge",
        "from_stop_code": "33196",
        "to_stop_code": "36182",
        "stroke": "#00bcd4",
        "stroke-width": 3,
        "stroke-opacity": 0.95
      },
      "geometry": {
        "type": "LineString",
        "coordinates": [
          [
            34.76462798369883,
            32.0065500958424
          ],
          [
            34.764657,
            32.007047
          ],
          [
            34.764689,
            32.007615
          ],
          [
            34.76472,
            32.007996
          ],
          [
            34.764702,
            32.008064
          ],
          [
            34.764763,
            32.00844
          ],
          [
            34.76478867360472,
            32.00871890870584
          ]
        ]
      }
    },
    {
      "type": "Feature",
      "properties": {
        "type": "deviation_path_edge",
        "from_stop_code": "36182",
        "to_stop_code": "36184",
        "stroke": "#00bcd4",
        "stroke-width": 3,
        "stroke-opacity": 0.95
      },
      "geometry": {
        "type": "LineString",
        "coordinates": [
          [
            34.76478867360472,
            32.00871890870584
          ],
          [
            34.764829,
            32.009157
          ],
          [
            34.764892,
            32.00985
          ],
          [
            34.764946,
            32.010006
          ],
          [
            34.76496,
            32.010253
          ],
          [
            34.76496441154225,
            32.01064758794549
          ]
        ]
      }
    },
    {
      "type": "Feature",
      "properties": {
        "type": "deviation_path_edge",
        "from_stop_code": "36184",
        "to_stop_code": "34067",
        "stroke": "#00bcd4",
        "stroke-width": 3,
        "stroke-opacity": 0.95
      },
      "geometry": {
        "type": "LineString",
        "coordinates": [
          [
            34.76496441154225,
            32.01064758794549
          ],
          [
            34.764969,
            32.011058
          ],
          [
            34.764966,
            32.012283
          ],
          [
            34.7649593016241,
            32.01254062984223
          ]
        ]
      }
    },
    {
      "type": "Feature",
      "properties": {
        "type": "deviation_path_edge",
        "from_stop_code": "34067",
        "to_stop_code": "37659",
        "stroke": "#00bcd4",
        "stroke-width": 3,
        "stroke-opacity": 0.95
      },
      "geometry": {
        "type": "LineString",
        "coordinates": [
          [
            34.7649593016241,
            32.01254062984223
          ],
          [
            34.764953,
            32.012783
          ],
          [
            34.764946,
            32.013187
          ],
          [
            34.764933,
            32.014057
          ],
          [
            34.764941,
            32.014428
          ],
          [
            34.764947,
            32.014506
          ],
          [
            34.764955,
            32.014789
          ],
          [
            34.764964,
            32.015168
          ],
          [
            34.764929,
            32.016009
          ],
          [
            34.764925,
            32.016067
          ],
          [
            34.764946,
            32.016472
          ],
          [
            34.7649404353505,
            32.01655236008537
          ]
        ]
      }
    },
    {
      "type": "Feature",
      "properties": {
        "type": "original_route_shape",
        "shape_id": "163518",
        "stroke": "#1f2a7a",
        "stroke-width": 3,
        "stroke-opacity": 0.85
      },
      "geometry": {
        "type": "LineString",
        "coordinates": [
          [
            34.74678443196522,
            32.00205463271845
          ],
          [
            34.746972,
            32.002394
          ],
          [
            34.747098,
            32.002566
          ],
          [
            34.74783,
            32.003594
          ],
          [
            34.747958,
            32.00365
          ],
          [
            34.74801,
            32.003663
          ],
          [
            34.748062,
            32.003669
          ],
          [
            34.748209,
            32.003655
          ],
          [
            34.748476,
            32.003536
          ],
          [
            34.749479,
            32.003166
          ],
          [
            34.749773,
            32.00307
          ],
          [
            34.749955,
            32.003011
          ],
          [
            34.750156,
            32.002966
          ],
          [
            34.750426,
            32.002918
          ],
          [
            34.751129,
            32.002807
          ],
          [
            34.751878,
            32.002708
          ],
          [
            34.752043,
            32.002676
          ],
          [
            34.753112,
            32.002469
          ],
          [
            34.753214,
            32.002452
          ],
          [
            34.75323,
            32.002448
          ],
          [
            34.753472,
            32.00239
          ],
          [
            34.754847,
            32.002058
          ],
          [
            34.755228,
            32.001967
          ],
          [
            34.755315,
            32.001949
          ],
          [
            34.755676,
            32.001878
          ],
          [
            34.755971,
            32.001822
          ],
          [
            34.75705,
            32.00162
          ],
          [
            34.758096,
            32.001455
          ],
          [
            34.758251,
            32.001431
          ],
          [
            34.759018,
            32.001323
          ],
          [
            34.759122,
            32.00131
          ],
          [
            34.759257,
            32.001296
          ],
          [
            34.759662,
            32.001255
          ],
          [
            34.759806,
            32.001241
          ],
          [
            34.7599,
            32.001231
          ],
          [
            34.760171,
            32.001204
          ],
          [
            34.760571,
            32.001163
          ],
          [
            34.761014,
            32.00114
          ],
          [
            34.761762,
            32.001095
          ],
          [
            34.762838,
            32.001048
          ],
          [
            34.763807,
            32.001012
          ],
          [
            34.7639,
            32.001007
          ],
          [
            34.764439,
            32.000981
          ],
          [
            34.764716,
            32.000967
          ],
          [
            34.765069,
            32.00095
          ],
          [
            34.7664,
            32.00089
          ],
          [
            34.766608,
            32.000874
          ],
          [
            34.767141,
            32.000844
          ],
          [
            34.767531,
            32.00082
          ],
          [
            34.76763,
            32.000845
          ],
          [
            34.767644,
            32.00093
          ],
          [
            34.767691,
            32.001256
          ],
          [
            34.767727,
            32.001505
          ],
          [
            34.767829,
            32.002342
          ],
          [
            34.767829,
            32.002343
          ],
          [
            34.767909,
            32.002867
          ],
          [
            34.767953,
            32.003497
          ],
          [
            34.768071,
            32.004065
          ],
          [
            34.768106,
            32.00434
          ],
          [
            34.768136,
            32.004627
          ],
          [
            34.768144,
            32.004691
          ],
          [
            34.768172,
            32.004907
          ],
          [
            34.768197,
            32.00519
          ],
          [
            34.768199,
            32.00525
          ],
          [
            34.768206,
            32.005464
          ],
          [
            34.768212,
            32.005617
          ],
          [
            34.768189,
            32.005691
          ],
          [
            34.768308,
            32.006451
          ],
          [
            34.768377,
            32.006753
          ],
          [
            34.768846,
            32.008261
          ],
          [
            34.769297,
            32.009735
          ],
          [
            34.769421,
            32.010451
          ],
          [
            34.76958,
            32.011425
          ],
          [
            34.769617,
            32.011651
          ],
          [
            34.769831,
            32.012993
          ],
          [
            34.769854,
            32.013159
          ],
          [
            34.769868,
            32.013237
          ],
          [
            34.769945,
            32.013689
          ],
          [
            34.769958,
            32.013769
          ],
          [
            34.7697,
            32.013802
          ],
          [
            34.76887,
            32.013915
          ],
          [
            34.768635,
            32.013955
          ],
          [
            34.76854,
            32.01397
          ],
          [
            34.767717,
            32.014097
          ],
          [
            34.767322,
            32.01415
          ],
          [
            34.767256,
            32.014161
          ],
          [
            34.767058,
            32.01419
          ],
          [
            34.766609,
            32.014257
          ],
          [
            34.7656,
            32.014391
          ],
          [
            34.765396,
            32.014432
          ],
          [
            34.765123,
            32.01454
          ],
          [
            34.76507,
            32.014575
          ],
          [
            34.765029,
            32.014625
          ],
          [
            34.764955,
            32.014789
          ],
          [
            34.764964,
            32.015168
          ],
          [
            34.764929,
            32.016009
          ],
          [
            34.764925,
            32.016067
          ],
          [
            34.764946,
            32.016472
          ],
          [
            34.764912,
            32.016963
          ],
          [
            34.76492,
            32.017358
          ],
          [
            34.76491,
            32.017547
          ],
          [
            34.76491,
            32.017593
          ],
          [
            34.764896,
            32.017923
          ],
          [
            34.764896,
            32.017929
          ],
          [
            34.764902,
            32.018371
          ],
          [
            34.764918,
            32.01858
          ],
          [
            34.764922,
            32.01865
          ],
          [
            34.764949,
            32.019142
          ],
          [
            34.764921,
            32.019349
          ],
          [
            34.764938,
            32.019526
          ],
          [
            34.765044,
            32.020385
          ],
          [
            34.765084,
            32.020513
          ],
          [
            34.765109,
            32.02079
          ],
          [
            34.765195,
            32.021718
          ],
          [
            34.765205,
            32.021842
          ],
          [
            34.765275,
            32.022496
          ],
          [
            34.765287,
            32.022645
          ],
          [
            34.765361,
            32.023285
          ],
          [
            34.765432,
            32.023446
          ],
          [
            34.765486,
            32.023655
          ],
          [
            34.765495,
            32.023691
          ],
          [
            34.765583,
            32.024167
          ],
          [
            34.765701,
            32.02486
          ],
          [
            34.76572,
            32.025064
          ],
          [
            34.765726,
            32.02522
          ],
          [
            34.765725,
            32.025389
          ],
          [
            34.765761,
            32.025544
          ],
          [
            34.765899,
            32.025889
          ],
          [
            34.765955,
            32.026073
          ],
          [
            34.765976,
            32.026139
          ],
          [
            34.766017,
            32.026275
          ],
          [
            34.766015,
            32.026365
          ],
          [
            34.766202,
            32.026943
          ],
          [
            34.766491,
            32.02778
          ],
          [
            34.766607,
            32.02802
          ],
          [
            34.766631,
            32.028079
          ],
          [
            34.766652,
            32.028164
          ],
          [
            34.766694,
            32.028376
          ],
          [
            34.766717,
            32.028493
          ],
          [
            34.766791,
            32.029088
          ],
          [
            34.766795,
            32.029145
          ],
          [
            34.766786,
            32.029248
          ],
          [
            34.766832,
            32.029388
          ],
          [
            34.766919,
            32.029596
          ],
          [
            34.766994,
            32.029728
          ],
          [
            34.767072,
            32.029866
          ],
          [
            34.767319,
            32.030198
          ],
          [
            34.767705,
            32.030548
          ],
          [
            34.768071,
            32.03083
          ],
          [
            34.768239,
            32.030914
          ],
          [
            34.768421,
            32.031028
          ],
          [
            34.768488,
            32.03107
          ],
          [
            34.76859,
            32.031123
          ],
          [
            34.768611,
            32.031132
          ],
          [
            34.768655,
            32.031152
          ],
          [
            34.769043,
            32.031256
          ],
          [
            34.76921,
            32.031293
          ],
          [
            34.769247,
            32.031301
          ],
          [
            34.769497,
            32.031344
          ],
          [
            34.769725,
            32.031363
          ],
          [
            34.770043,
            32.031367
          ],
          [
            34.770439,
            32.031371
          ],
          [
            34.770513,
            32.031372
          ],
          [
            34.770669,
            32.031414
          ],
          [
            34.770661,
            32.031459
          ],
          [
            34.77061,
            32.031817
          ],
          [
            34.770507,
            32.032617
          ],
          [
            34.770485,
            32.032785
          ],
          [
            34.770438,
            32.033103
          ],
          [
            34.770383,
            32.033315
          ],
          [
            34.770233,
            32.033799
          ],
          [
            34.770068,
            32.034146
          ],
          [
            34.769711,
            32.03468
          ],
          [
            34.769461,
            32.035036
          ],
          [
            34.769425,
            32.035087
          ],
          [
            34.769314,
            32.035404
          ],
          [
            34.76927,
            32.035538
          ],
          [
            34.769223,
            32.035859
          ],
          [
            34.769187,
            32.036111
          ],
          [
            34.769164,
            32.036463
          ],
          [
            34.769173,
            32.037017
          ],
          [
            34.769192,
            32.037294
          ],
          [
            34.769231,
            32.03753
          ],
          [
            34.769424,
            32.038487
          ],
          [
            34.769459,
            32.038662
          ],
          [
            34.769477,
            32.038764
          ],
          [
            34.76958704756185,
            32.039374366889405
          ]
        ]
      }
    },
    {
      "type": "Feature",
      "properties": {
        "type": "original_route_stop",
        "stop_code": "30018",
        "stop_name": "ת.רק''ל הקוממיות/דרך בגין",
        "marker-color": "#2ca02c",
        "marker-symbol": "bus",
        "marker-size": "medium"
      },
      "geometry": {
        "type": "Point",
        "coordinates": [
          34.746829,
          32.00203
        ]
      }
    },
    {
      "type": "Feature",
      "properties": {
        "type": "original_route_stop",
        "stop_code": "36177",
        "stop_name": "פארק אתגרים/משה דיין",
        "marker-color": "#2ca02c",
        "marker-symbol": "bus",
        "marker-size": "medium"
      },
      "geometry": {
        "type": "Point",
        "coordinates": [
          34.764568,
          32.000929
        ]
      }
    },
    {
      "type": "Feature",
      "properties": {
        "type": "original_route_stop",
        "stop_code": "35900",
        "stop_name": "אהרונוביץ'/משה דיין",
        "marker-color": "#2ca02c",
        "marker-symbol": "bus",
        "marker-size": "medium"
      },
      "geometry": {
        "type": "Point",
        "coordinates": [
          34.767782,
          32.001519
        ]
      }
    },
    {
      "type": "Feature",
      "properties": {
        "type": "original_route_stop",
        "stop_code": "36273",
        "stop_name": "אילת/צאלים",
        "marker-color": "#2ca02c",
        "marker-symbol": "bus",
        "marker-size": "medium"
      },
      "geometry": {
        "type": "Point",
        "coordinates": [
          34.76507,
          32.02016
        ]
      }
    },
    {
      "type": "Feature",
      "properties": {
        "type": "original_route_stop",
        "stop_code": "36285",
        "stop_name": "המעפילים/שד' דב הוז",
        "marker-color": "#2ca02c",
        "marker-symbol": "bus",
        "marker-size": "medium"
      },
      "geometry": {
        "type": "Point",
        "coordinates": [
          34.765658,
          32.024295
        ]
      }
    },
    {
      "type": "Feature",
      "properties": {
        "type": "original_route_stop",
        "stop_code": "33359",
        "stop_name": "המעפילים/הרמב''ם",
        "marker-color": "#2ca02c",
        "marker-symbol": "bus",
        "marker-size": "medium"
      },
      "geometry": {
        "type": "Point",
        "coordinates": [
          34.766071,
          32.026368
        ]
      }
    },
    {
      "type": "Feature",
      "properties": {
        "type": "original_route_stop",
        "stop_code": "36291",
        "stop_name": "המעפילים/הבנים",
        "marker-color": "#2ca02c",
        "marker-symbol": "bus",
        "marker-size": "medium"
      },
      "geometry": {
        "type": "Point",
        "coordinates": [
          34.766825,
          32.028933
        ]
      }
    },
    {
      "type": "Feature",
      "properties": {
        "type": "original_route_stop",
        "stop_code": "33389",
        "stop_name": "המעפילים/הלוחמים",
        "marker-color": "#2ca02c",
        "marker-symbol": "bus",
        "marker-size": "medium"
      },
      "geometry": {
        "type": "Point",
        "coordinates": [
          34.768935,
          32.03118
        ]
      }
    },
    {
      "type": "Feature",
      "properties": {
        "type": "original_route_stop",
        "stop_code": "36391",
        "stop_name": "קאנטרי חולון/הלוחמים",
        "marker-color": "#2ca02c",
        "marker-symbol": "bus",
        "marker-size": "medium"
      },
      "geometry": {
        "type": "Point",
        "coordinates": [
          34.77066,
          32.031845
        ]
      }
    },
    {
      "type": "Feature",
      "properties": {
        "type": "original_route_stop",
        "stop_code": "37487",
        "stop_name": "משרד הרישוי/הלוחמים",
        "marker-color": "#2ca02c",
        "marker-symbol": "bus",
        "marker-size": "medium"
      },
      "geometry": {
        "type": "Point",
        "coordinates": [
          34.770086,
          32.034209
        ]
      }
    },
    {
      "type": "Feature",
      "properties": {
        "type": "original_route_stop",
        "stop_code": "25260",
        "stop_name": "תל גיבורים/שז''ר",
        "marker-color": "#2ca02c",
        "marker-symbol": "bus",
        "marker-size": "medium"
      },
      "geometry": {
        "type": "Point",
        "coordinates": [
          34.769639,
          32.039365
        ]
      }
    },
    {
      "type": "Feature",
      "properties": {
        "type": "cancelled_stop",
        "stop_code": "33206",
        "stop_name": "אהרונוביץ'/הציונות",
        "marker-color": "#ff0000",
        "marker-symbol": "bus",
        "marker-size": "medium"
      },
      "geometry": {
        "type": "Point",
        "coordinates": [
          34.768546,
          32.00712
        ]
      }
    },
    {
      "type": "Feature",
      "properties": {
        "type": "cancelled_stop",
        "stop_code": "33222",
        "stop_name": "אהרונוביץ'/דוד רמז",
        "marker-color": "#ff0000",
        "marker-symbol": "bus",
        "marker-size": "medium"
      },
      "geometry": {
        "type": "Point",
        "coordinates": [
          34.769511,
          32.010679
        ]
      }
    },
    {
      "type": "Feature",
      "properties": {
        "type": "cancelled_stop",
        "stop_code": "33223",
        "stop_name": "אהרונוביץ'/הופיין",
        "marker-color": "#ff0000",
        "marker-symbol": "bus",
        "marker-size": "medium"
      },
      "geometry": {
        "type": "Point",
        "coordinates": [
          34.769841,
          32.012722
        ]
      }
    },
    {
      "type": "Feature",
      "properties": {
        "type": "cancelled_stop",
        "stop_code": "39750",
        "stop_name": "מרכז רפואי מכבי הופיין",
        "marker-color": "#ff0000",
        "marker-symbol": "bus",
        "marker-size": "medium"
      },
      "geometry": {
        "type": "Point",
        "coordinates": [
          34.766926,
          32.014255
        ]
      }
    },
    {
      "type": "Feature",
      "properties": {
        "type": "new_stop",
        "stop_code": "36325",
        "stop_name": "מקס וג'סי הכהן/אהרונוביץ'",
        "marker-color": "#1f9ed6",
        "marker-symbol": "bus",
        "marker-size": "medium"
      },
      "geometry": {
        "type": "Point",
        "coordinates": [
          34.766992,
          32.004807
        ]
      }
    },
    {
      "type": "Feature",
      "properties": {
        "type": "new_stop",
        "stop_code": "33196",
        "stop_name": "אילת/התנאים",
        "marker-color": "#1f9ed6",
        "marker-symbol": "bus",
        "marker-size": "medium"
      },
      "geometry": {
        "type": "Point",
        "coordinates": [
          34.764681,
          32.006547
        ]
      }
    },
    {
      "type": "Feature",
      "properties": {
        "type": "new_stop",
        "stop_code": "36182",
        "stop_name": "מכללת תלפיות/אילת",
        "marker-color": "#1f9ed6",
        "marker-symbol": "bus",
        "marker-size": "medium"
      },
      "geometry": {
        "type": "Point",
        "coordinates": [
          34.764842,
          32.008714
        ]
      }
    },
    {
      "type": "Feature",
      "properties": {
        "type": "new_stop",
        "stop_code": "36184",
        "stop_name": "אילת/דוד רמז",
        "marker-color": "#1f9ed6",
        "marker-symbol": "bus",
        "marker-size": "medium"
      },
      "geometry": {
        "type": "Point",
        "coordinates": [
          34.765017,
          32.010647
        ]
      }
    },
    {
      "type": "Feature",
      "properties": {
        "type": "new_stop",
        "stop_code": "34067",
        "stop_name": "אילת/יוספטל",
        "marker-color": "#1f9ed6",
        "marker-symbol": "bus",
        "marker-size": "medium"
      },
      "geometry": {
        "type": "Point",
        "coordinates": [
          34.765012,
          32.012542
        ]
      }
    },
    {
      "type": "Feature",
      "properties": {
        "type": "reported_block_stop",
        "stop_code": "33206",
        "stop_name": "אהרונוביץ'/הציונות",
        "marker-color": "#ff8800",
        "marker-symbol": "bus",
        "marker-size": "medium"
      },
      "geometry": {
        "type": "Point",
        "coordinates": [
          34.768546,
          32.00712
        ]
      }
    },
    {
      "type": "Feature",
      "properties": {
        "type": "reported_block_stop",
        "stop_code": "33222",
        "stop_name": "אהרונוביץ'/דוד רמז",
        "marker-color": "#ff8800",
        "marker-symbol": "bus",
        "marker-size": "medium"
      },
      "geometry": {
        "type": "Point",
        "coordinates": [
          34.769511,
          32.010679
        ]
      }
    },
    {
      "type": "Feature",
      "properties": {
        "type": "deviate_from_stop",
        "stop_code": "34494",
        "stop_name": "אהרונוביץ'/בגין",
        "marker-color": "#8000ff",
        "marker-symbol": "bus",
        "marker-size": "medium"
      },
      "geometry": {
        "type": "Point",
        "coordinates": [
          34.768094,
          32.003911
        ]
      }
    },
    {
      "type": "Feature",
      "properties": {
        "type": "deviate_to_stop",
        "stop_code": "37659",
        "stop_name": "אילת/חצרים",
        "marker-color": "#8000ff",
        "marker-symbol": "bus",
        "marker-size": "medium"
      },
      "geometry": {
        "type": "Point",
        "coordinates": [
          34.764993,
          32.016556
        ]
      }
    }
  ]
}