{
  "type": "FeatureCollection",
  "features": [
    {
      "type": "Feature",
      "properties": {
        "type": "deviation_path_edge",
        "from_stop_code": "21553",
        "to_stop_code": "25430",
        "stroke": "#00bcd4",
        "stroke-width": 3,
        "stroke-opacity": 0.95
      },
      "geometry": {
        "type": "LineString",
        "coordinates": [
          [
            34.77521181533629,
            32.05432112593011
          ],
          [
            34.775259,
            32.05444
          ],
          [
            34.775384,
            32.054723
          ],
          [
            34.775444,
            32.054833
          ],
          [
            34.77577,
            32.054793
          ],
          [
            34.7761,
            32.054717
          ],
          [
            34.77648835335958,
            32.05462443909564
          ]
        ]
      }
    },
    {
      "type": "Feature",
      "properties": {
        "type": "deviation_path_edge",
        "from_stop_code": "25430",
        "to_stop_code": "20309",
        "stroke": "#00bcd4",
        "stroke-width": 3,
        "stroke-opacity": 0.95
      },
      "geometry": {
        "type": "LineString",
        "coordinates": [
          [
            34.77648835335958,
            32.05462443909564
          ],
          [
            34.776679,
            32.054579
          ],
          [
            34.777223,
            32.054462
          ],
          [
            34.777483,
            32.0544
          ],
          [
            34.777712,
            32.054352
          ],
          [
            34.778283,
            32.054211
          ],
          [
            34.778396,
            32.054189
          ],
          [
            34.778515,
            32.054171
          ],
          [
            34.778925,
            32.054063
          ],
          [
            34.779319,
            32.053985
          ],
          [
            34.77959844804051,
            32.053944587514145
          ]
        ]
      }
    },
    {
      "type": "Feature",
      "properties": {
        "type": "deviation_path_edge",
        "from_stop_code": "20309",
        "to_stop_code": "25636",
        "stroke": "#00bcd4",
        "stroke-width": 3,
        "stroke-opacity": 0.95
      },
      "geometry": {
        "type": "LineString",
        "coordinates": [
          [
            34.77959844804051,
            32.053944587514145
          ],
          [
            34.779644,
            32.053938
          ],
          [
            34.77996,
            32.053895
          ],
          [
            34.780436,
            32.053829
          ],
          [
            34.781002,
            32.053766
          ],
          [
            34.781226,
            32.053733
          ],
          [
            34.781395,
            32.053724
          ],
          [
            34.781816,
            32.053704
          ],
          [
            34.781897,
            32.053731
          ],
          [
            34.781956,
            32.053762
          ],
          [
            34.782018,
            32.053808
          ],
          [
            34.782069,
            32.053868
          ],
          [
            34.782138,
            32.054008
          ],
          [
            34.782186,
            32.054162
          ],
          [
            34.782224,
            32.054313
          ],
          [
            34.78225,
            32.054398
          ],
          [
            34.782304,
            32.054464
          ],
          [
            34.782339,
            32.054499
          ],
          [
            34.782389,
            32.054543
          ],
          [
            34.782398,
            32.054549
          ],
          [
            34.78245,
            32.054561
          ],
          [
            34.782554,
            32.054552
          ],
          [
            34.782555,
            32.054552
          ],
          [
            34.78294,
            32.054456
          ],
          [
            34.783216,
            32.054375
          ],
          [
            34.783288,
            32.054362
          ],
          [
            34.783359,
            32.05435
          ],
          [
            34.783369,
            32.054421
          ],
          [
            34.78338504978978,
            32.05464283102296
          ]
        ]
      }
    },
    {
      "type": "Feature",
      "properties": {
        "type": "deviation_path_edge",
        "from_stop_code": "25636",
        "to_stop_code": "20160",
        "stroke": "#00bcd4",
        "stroke-width": 3,
        "stroke-opacity": 0.95
      },
      "geometry": {
        "type": "LineString",
        "coordinates": [
          [
            34.78338504978978,
            32.05464283102296
          ],
          [
            34.783397,
            32.054808
          ],
          [
            34.783401,
            32.054865
          ],
          [
            34.783423,
            32.055054
          ],
          [
            34.783443,
            32.055194
          ],
          [
            34.783491,
            32.055524
          ],
          [
            34.783599,
            32.056073
          ],
          [
            34.783648,
            32.056312
          ],
          [
            34.783711,
            32.056669
          ],
          [
            34.783752,
            32.056884
          ],
          [
            34.783817,
            32.05722
          ],
          [
            34.783834,
            32.057295
          ],
          [
            34.783947,
            32.057797
          ],
          [
            34.784069,
            32.058333
          ],
          [
            34.784031,
            32.058426
          ],
          [
            34.784014,
            32.058468
          ],
          [
            34.783994,
            32.058526
          ],
          [
            34.783965,
            32.058591
          ],
          [
            34.783938,
            32.058659
          ],
          [
            34.783909,
            32.058734
          ],
          [
            34.783851,
            32.058881
          ],
          [
            34.783794,
            32.059018
          ],
          [
            34.783744,
            32.059125
          ],
          [
            34.783735,
            32.059164
          ],
          [
            34.783713,
            32.059221
          ],
          [
            34.783673,
            32.0593
          ],
          [
            34.783652,
            32.059341
          ],
          [
            34.783629,
            32.059374
          ],
          [
            34.783548,
            32.05949
          ],
          [
            34.78351876243094,
            32.059522486187845
          ]
        ]
      }
    },
    {
      "type": "Feature",
      "properties": {
        "type": "deviation_path_edge",
        "from_stop_code": "20160",
        "to_stop_code": "21244",
        "stroke": "#00bcd4",
        "stroke-width": 3,
        "stroke-opacity": 0.95
      },
      "geometry": {
        "type": "LineString",
        "coordinates": [
          [
            34.78351876243094,
            32.059522486187845
          ],
          [
            34.783458,
            32.05959
          ],
          [
            34.783366,
            32.059676
          ],
          [
            34.783298,
            32.059742
          ],
          [
            34.783166,
            32.059853
          ],
          [
            34.782945,
            32.060036
          ],
          [
            34.782932,
            32.060047
          ],
          [
            34.782614,
            32.060345
          ],
          [
            34.782197,
            32.060704
          ],
          [
            34.782035,
            32.060842
          ],
          [
            34.781762,
            32.061067
          ],
          [
            34.781565,
            32.061212
          ],
          [
            34.781314,
            32.061437
          ],
          [
            34.780611,
            32.062068
          ],
          [
            34.780495,
            32.062169
          ],
          [
            34.780403,
            32.062272
          ],
          [
            34.780332,
            32.062328
          ],
          [
            34.780191,
            32.062438
          ],
          [
            34.779716,
            32.062809
          ],
          [
            34.779635,
            32.06299
          ],
          [
            34.779618,
            32.063037
          ],
          [
            34.779608,
            32.063062
          ],
          [
            34.779606,
            32.063092
          ],
          [
            34.779612,
            32.063127
          ],
          [
            34.77966,
            32.063189
          ],
          [
            34.779736,
            32.063262
          ],
          [
            34.779838,
            32.063344
          ],
          [
            34.78005010726496,
            32.06345706885331
          ]
        ]
      }
    },
    {
      "type": "Feature",
      "properties": {
        "type": "original_route_shape",
        "shape_id": "165642",
        "stroke": "#1f2a7a",
        "stroke-width": 3,
        "stroke-opacity": 0.85
      },
      "geometry": {
        "type": "LineString",
        "coordinates": [
          [
            34.78077491546087,
            32.047109746382596
          ],
          [
            34.780818,
            32.047239
          ],
          [
            34.780925,
            32.047367
          ],
          [
            34.78067,
            32.04741
          ],
          [
            34.780451,
            32.04746
          ],
          [
            34.78031,
            32.047487
          ],
          [
            34.780165,
            32.047514
          ],
          [
            34.779948,
            32.047549
          ],
          [
            34.779626,
            32.047591
          ],
          [
            34.779194,
            32.047685
          ],
          [
            34.779064,
            32.047707
          ],
          [
            34.779021,
            32.047716
          ],
          [
            34.778975,
            32.047726
          ],
          [
            34.778117,
            32.047938
          ],
          [
            34.776447,
            32.048466
          ],
          [
            34.775902,
            32.048639
          ],
          [
            34.775125,
            32.048884
          ],
          [
            34.774319,
            32.04918
          ],
          [
            34.773665,
            32.049436
          ],
          [
            34.773621,
            32.049524
          ],
          [
            34.773591,
            32.049591
          ],
          [
            34.773574,
            32.049627
          ],
          [
            34.773557,
            32.049678
          ],
          [
            34.77379,
            32.050428
          ],
          [
            34.773836,
            32.050579
          ],
          [
            34.773925,
            32.050862
          ],
          [
            34.774056,
            32.051284
          ],
          [
            34.774087,
            32.051384
          ],
          [
            34.774211,
            32.051726
          ],
          [
            34.774291,
            32.051949
          ],
          [
            34.774429,
            32.052327
          ],
          [
            34.774509,
            32.052547
          ],
          [
            34.774608,
            32.052804
          ],
          [
            34.774665,
            32.052947
          ],
          [
            34.774781,
            32.053237
          ],
          [
            34.77494,
            32.053636
          ],
          [
            34.775078,
            32.053984
          ],
          [
            34.77526,
            32.054442
          ],
          [
            34.775384,
            32.054722
          ],
          [
            34.775386,
            32.054727
          ],
          [
            34.775444,
            32.054833
          ],
          [
            34.775482,
            32.054902
          ],
          [
            34.775566,
            32.055048
          ],
          [
            34.775688,
            32.055279
          ],
          [
            34.775818,
            32.05551
          ],
          [
            34.775952,
            32.055747
          ],
          [
            34.776149,
            32.056089
          ],
          [
            34.776473,
            32.056623
          ],
          [
            34.776733,
            32.057072
          ],
          [
            34.776834,
            32.057245
          ],
          [
            34.777172,
            32.057813
          ],
          [
            34.777999,
            32.05744
          ],
          [
            34.778054,
            32.057415
          ],
          [
            34.778928,
            32.057037
          ],
          [
            34.779666,
            32.056718
          ],
          [
            34.77976,
            32.056676
          ],
          [
            34.779939,
            32.056598
          ],
          [
            34.780005,
            32.056674
          ],
          [
            34.779967,
            32.056845
          ],
          [
            34.779958,
            32.056883
          ],
          [
            34.779864,
            32.057166
          ],
          [
            34.779819,
            32.0573
          ],
          [
            34.779738,
            32.057471
          ],
          [
            34.779662,
            32.057649
          ],
          [
            34.779432,
            32.058004
          ],
          [
            34.77938,
            32.058068
          ],
          [
            34.779293,
            32.058197
          ],
          [
            34.779244,
            32.058237
          ],
          [
            34.779202,
            32.058276
          ],
          [
            34.779061,
            32.058403
          ],
          [
            34.778957,
            32.058498
          ],
          [
            34.778859,
            32.058558
          ],
          [
            34.778811,
            32.058592
          ],
          [
            34.778583,
            32.058718
          ],
          [
            34.778359,
            32.058825
          ],
          [
            34.778129,
            32.058931
          ],
          [
            34.778032,
            32.059007
          ],
          [
            34.778013,
            32.059027
          ],
          [
            34.778003,
            32.059055
          ],
          [
            34.777992,
            32.059101
          ],
          [
            34.777989,
            32.059122
          ],
          [
            34.777978,
            32.059189
          ],
          [
            34.778144,
            32.059474
          ],
          [
            34.77837,
            32.05961
          ],
          [
            34.77852,
            32.059715
          ],
          [
            34.778656,
            32.059806
          ],
          [
            34.778778,
            32.059901
          ],
          [
            34.778934,
            32.060079
          ],
          [
            34.779196,
            32.060404
          ],
          [
            34.77943,
            32.060703
          ],
          [
            34.779511,
            32.060807
          ],
          [
            34.779859,
            32.061291
          ],
          [
            34.780214,
            32.06175
          ],
          [
            34.780419,
            32.062029
          ],
          [
            34.780495,
            32.062169
          ],
          [
            34.780403,
            32.062272
          ],
          [
            34.780332,
            32.062328
          ],
          [
            34.780192,
            32.062437
          ],
          [
            34.779716,
            32.062809
          ],
          [
            34.779635,
            32.06299
          ],
          [
            34.779618,
            32.063037
          ],
          [
            34.779608,
            32.063062
          ],
          [
            34.779606,
            32.063092
          ],
          [
            34.779612,
            32.063127
          ],
          [
            34.77966,
            32.063189
          ],
          [
            34.779685,
            32.063213
          ],
          [
            34.779837,
            32.063344
          ],
          [
            34.779838,
            32.063344
          ],
          [
            34.780352,
            32.063618
          ],
          [
            34.780655,
            32.063778
          ],
          [
            34.780751,
            32.063833
          ],
          [
            34.781231,
            32.064109
          ],
          [
            34.781344,
            32.064171
          ],
          [
            34.781457,
            32.064226
          ],
          [
            34.781516,
            32.064257
          ],
          [
            34.781605,
            32.064294
          ],
          [
            34.78167,
            32.064317
          ],
          [
            34.781739,
            32.064333
          ],
          [
            34.781792,
            32.064342
          ],
          [
            34.781835,
            32.064343
          ],
          [
            34.781876,
            32.064345
          ],
          [
            34.781919,
            32.06434
          ],
          [
            34.781948,
            32.064336
          ],
          [
            34.781959,
            32.064334
          ],
          [
            34.78201,
            32.064318
          ],
          [
            34.782068,
            32.064292
          ],
          [
            34.78211,
            32.064256
          ],
          [
            34.782191,
            32.064204
          ],
          [
            34.782244,
            32.064176
          ],
          [
            34.782359,
            32.064122
          ],
          [
            34.782495,
            32.064071
          ],
          [
            34.782507,
            32.064066
          ],
          [
            34.782988,
            32.06391
          ],
          [
            34.783151,
            32.063857
          ],
          [
            34.783192,
            32.063848
          ],
          [
            34.783833,
            32.063695
          ],
          [
            34.78397,
            32.063663
          ],
          [
            34.784728,
            32.063496
          ],
          [
            34.784861,
            32.063468
          ],
          [
            34.784958,
            32.063448
          ],
          [
            34.785145,
            32.06339
          ],
          [
            34.785286,
            32.063368
          ],
          [
            34.785736,
            32.063939
          ],
          [
            34.786063,
            32.064561
          ],
          [
            34.786115,
            32.064659
          ],
          [
            34.786282,
            32.06511
          ],
          [
            34.78634,
            32.065292
          ],
          [
            34.786378,
            32.065387
          ],
          [
            34.786274,
            32.065404
          ],
          [
            34.785861,
            32.065504
          ],
          [
            34.785726,
            32.065535
          ],
          [
            34.78522,
            32.065648
          ],
          [
            34.785219,
            32.065648
          ],
          [
            34.785031,
            32.065692
          ],
          [
            34.784351,
            32.065841
          ],
          [
            34.7842,
            32.065881
          ],
          [
            34.78385,
            32.06598
          ],
          [
            34.783809,
            32.066022
          ],
          [
            34.783774,
            32.066063
          ],
          [
            34.783755,
            32.066087
          ],
          [
            34.783722,
            32.066127
          ],
          [
            34.783697,
            32.066167
          ],
          [
            34.783666,
            32.066225
          ],
          [
            34.783647,
            32.066273
          ],
          [
            34.783624,
            32.06634
          ],
          [
            34.783584,
            32.066479
          ],
          [
            34.783567,
            32.066538
          ],
          [
            34.783337,
            32.06755
          ],
          [
            34.783324,
            32.067619
          ],
          [
            34.783228,
            32.068017
          ],
          [
            34.783201,
            32.06813
          ],
          [
            34.783063,
            32.068703
          ],
          [
            34.782956,
            32.069124
          ],
          [
            34.782923,
            32.069258
          ],
          [
            34.782872,
            32.069484
          ],
          [
            34.782841,
            32.069576
          ],
          [
            34.782741,
            32.069938
          ],
          [
            34.78259,
            32.07029
          ],
          [
            34.782571,
            32.070335
          ],
          [
            34.782533,
            32.070421
          ],
          [
            34.78244,
            32.070561
          ],
          [
            34.782393,
            32.070638
          ],
          [
            34.782301,
            32.070778
          ],
          [
            34.782207,
            32.07087
          ],
          [
            34.782109,
            32.070951
          ],
          [
            34.782026,
            32.071026
          ],
          [
            34.781995,
            32.071078
          ],
          [
            34.781971,
            32.071121
          ],
          [
            34.781951,
            32.071174
          ],
          [
            34.781946,
            32.07119
          ],
          [
            34.781933,
            32.071404
          ],
          [
            34.781902,
            32.072041
          ],
          [
            34.781879,
            32.072676
          ],
          [
            34.78185,
            32.073217
          ],
          [
            34.781836,
            32.073489
          ],
          [
            34.781837,
            32.073561
          ],
          [
            34.781792,
            32.074292
          ],
          [
            34.781771,
            32.074687
          ],
          [
            34.781742,
            32.075109
          ],
          [
            34.781732,
            32.075268
          ],
          [
            34.781711,
            32.075477
          ],
          [
            34.781703,
            32.075574
          ],
          [
            34.781647,
            32.075929
          ],
          [
            34.781578,
            32.076256
          ],
          [
            34.781459,
            32.076863
          ],
          [
            34.781374,
            32.07752
          ],
          [
            34.781364,
            32.077574
          ],
          [
            34.781355,
            32.077812
          ],
          [
            34.781342,
            32.078163
          ],
          [
            34.781343,
            32.078519
          ],
          [
            34.781357,
            32.079471
          ],
          [
            34.781357,
            32.079563
          ],
          [
            34.781356,
            32.079917
          ],
          [
            34.781354,
            32.080341
          ],
          [
            34.781359,
            32.080919
          ],
          [
            34.781366,
            32.081516
          ],
          [
            34.781368,
            32.081844
          ],
          [
            34.781371,
            32.08217
          ],
          [
            34.781379,
            32.083004
          ],
          [
            34.781408,
            32.083234
          ],
          [
            34.781427,
            32.083389
          ],
          [
            34.781644,
            32.084448
          ],
          [
            34.78177,
            32.08507
          ],
          [
            34.781803,
            32.085219
          ],
          [
            34.781816,
            32.085285
          ],
          [
            34.781852,
            32.08548
          ],
          [
            34.782031,
            32.086359
          ],
          [
            34.782068,
            32.086527
          ],
          [
            34.782104,
            32.086704
          ],
          [
            34.782236,
            32.087346
          ],
          [
            34.78232,
            32.087752
          ],
          [
            34.782337,
            32.087835
          ],
          [
            34.782399,
            32.088105
          ],
          [
            34.78241,
            32.088176
          ],
          [
            34.78256,
            32.089128
          ],
          [
            34.782603,
            32.089353
          ],
          [
            34.782737,
            32.090057
          ],
          [
            34.782869,
            32.090734
          ],
          [
            34.78291,
            32.090907
          ],
          [
            34.782942,
            32.091016
          ],
          [
            34.783035,
            32.091608
          ],
          [
            34.783043,
            32.091653
          ],
          [
            34.783063,
            32.091745
          ],
          [
            34.783182,
            32.092344
          ],
          [
            34.783274,
            32.092872
          ],
          [
            34.783468,
            32.093842
          ],
          [
            34.783507,
            32.094039
          ],
          [
            34.783632,
            32.094607
          ],
          [
            34.783677,
            32.094793
          ],
          [
            34.783741,
            32.095243
          ],
          [
            34.783748,
            32.095387
          ],
          [
            34.783758,
            32.095601
          ],
          [
            34.783763,
            32.095726
          ],
          [
            34.783753,
            32.095893
          ],
          [
            34.78374275101378,
            32.096085168491484
          ]
        ]
      }
    },
    {
      "type": "Feature",
      "properties": {
        "type": "original_route_stop",
        "stop_code": "25426",
        "stop_name": "דרך קיבוץ גלויות/חכמי לובלין",
        "marker-color": "#2ca02c",
        "marker-symbol": "bus",
        "marker-size": "medium"
      },
      "geometry": {
        "type": "Point",
        "coordinates": [
          34.778574,
          32.047872
        ]
      }
    },
    {
      "type": "Feature",
      "properties": {
        "type": "original_route_stop",
        "stop_code": "20668",
        "stop_name": "דרך קיבוץ גלויות/מסילת ישרים",
        "marker-color": "#2ca02c",
        "marker-symbol": "bus",
        "marker-size": "medium"
      },
      "geometry": {
        "type": "Point",
        "coordinates": [
          34.775751,
          32.048734
        ]
      }
    },
    {
      "type": "Feature",
      "properties": {
        "type": "original_route_stop",
        "stop_code": "21551",
        "stop_name": "שדרות הר ציון/דרך קיבוץ גלויות",
        "marker-color": "#2ca02c",
        "marker-symbol": "bus",
        "marker-size": "medium"
      },
      "geometry": {
        "type": "Point",
        "coordinates": [
          34.773631,
          32.049738
        ]
      }
    },
    {
      "type": "Feature",
      "properties": {
        "type": "original_route_stop",
        "stop_code": "20139",
        "stop_name": "ישראל טל/המסגר",
        "marker-color": "#2ca02c",
        "marker-symbol": "bus",
        "marker-size": "medium"
      },
      "geometry": {
        "type": "Point",
        "coordinates": [
          34.784463,
          32.063508
        ]
      }
    },
    {
      "type": "Feature",
      "properties": {
        "type": "original_route_stop",
        "stop_code": "21237",
        "stop_name": "יצחק שדה/המסגר",
        "marker-color": "#2ca02c",
        "marker-symbol": "bus",
        "marker-size": "medium"
      },
      "geometry": {
        "type": "Point",
        "coordinates": [
          34.785302,
          32.065676
        ]
      }
    },
    {
      "type": "Feature",
      "properties": {
        "type": "original_route_stop",
        "stop_code": "20731",
        "stop_name": "קניון טי.אל.וי/קרליבך",
        "marker-color": "#2ca02c",
        "marker-symbol": "bus",
        "marker-size": "medium"
      },
      "geometry": {
        "type": "Point",
        "coordinates": [
          34.783206,
          32.068334
        ]
      }
    },
    {
      "type": "Feature",
      "properties": {
        "type": "original_route_stop",
        "stop_code": "20289",
        "stop_name": "הסינמטק/קרליבך",
        "marker-color": "#2ca02c",
        "marker-symbol": "bus",
        "marker-size": "medium"
      },
      "geometry": {
        "type": "Point",
        "coordinates": [
          34.782559,
          32.070473
        ]
      }
    },
    {
      "type": "Feature",
      "properties": {
        "type": "original_route_stop",
        "stop_code": "25625",
        "stop_name": "לונדון מיניסטור/אבן גבירול",
        "marker-color": "#2ca02c",
        "marker-symbol": "bus",
        "marker-size": "medium"
      },
      "geometry": {
        "type": "Point",
        "coordinates": [
          34.781836,
          32.074469
        ]
      }
    },
    {
      "type": "Feature",
      "properties": {
        "type": "original_route_stop",
        "stop_code": "25631",
        "stop_name": "אבן גבירול/השופטים",
        "marker-color": "#2ca02c",
        "marker-symbol": "bus",
        "marker-size": "medium"
      },
      "geometry": {
        "type": "Point",
        "coordinates": [
          34.781586,
          32.076487
        ]
      }
    },
    {
      "type": "Feature",
      "properties": {
        "type": "original_route_stop",
        "stop_code": "20152",
        "stop_name": "כיכר רבין/אבן גבירול",
        "marker-color": "#2ca02c",
        "marker-symbol": "bus",
        "marker-size": "medium"
      },
      "geometry": {
        "type": "Point",
        "coordinates": [
          34.781405,
          32.079138
        ]
      }
    },
    {
      "type": "Feature",
      "properties": {
        "type": "original_route_stop",
        "stop_code": "21123",
        "stop_name": "עיריית תל אביב-יפו/אבן גבירול",
        "marker-color": "#2ca02c",
        "marker-symbol": "bus",
        "marker-size": "medium"
      },
      "geometry": {
        "type": "Point",
        "coordinates": [
          34.781427,
          32.082493
        ]
      }
    },
    {
      "type": "Feature",
      "properties": {
        "type": "original_route_stop",
        "stop_code": "20700",
        "stop_name": "אבן גבירול/ארלוזורוב",
        "marker-color": "#2ca02c",
        "marker-symbol": "bus",
        "marker-size": "medium"
      },
      "geometry": {
        "type": "Point",
        "coordinates": [
          34.781789,
          32.084898
        ]
      }
    },
    {
      "type": "Feature",
      "properties": {
        "type": "original_route_stop",
        "stop_code": "20697",
        "stop_name": "אבן גבירול/ז'בוטינסקי",
        "marker-color": "#2ca02c",
        "marker-symbol": "bus",
        "marker-size": "medium"
      },
      "geometry": {
        "type": "Point",
        "coordinates": [
          34.782552,
          32.08874
        ]
      }
    },
    {
      "type": "Feature",
      "properties": {
        "type": "original_route_stop",
        "stop_code": "20674",
        "stop_name": "אבן גבירול/פנקס",
        "marker-color": "#2ca02c",
        "marker-symbol": "bus",
        "marker-size": "medium"
      },
      "geometry": {
        "type": "Point",
        "coordinates": [
          34.782879,
          32.090509
        ]
      }
    },
    {
      "type": "Feature",
      "properties": {
        "type": "original_route_stop",
        "stop_code": "23012",
        "stop_name": "כיכר מילאנו/אבן גבירול",
        "marker-color": "#2ca02c",
        "marker-symbol": "bus",
        "marker-size": "medium"
      },
      "geometry": {
        "type": "Point",
        "coordinates": [
          34.783627,
          32.09434
        ]
      }
    },
    {
      "type": "Feature",
      "properties": {
        "type": "cancelled_stop",
        "stop_code": "21554",
        "stop_name": "שד' הר ציון/וולפסון",
        "marker-color": "#ff0000",
        "marker-symbol": "bus",
        "marker-size": "medium"
      },
      "geometry": {
        "type": "Point",
        "coordinates": [
          34.776495,
          32.056561
        ]
      }
    },
    {
      "type": "Feature",
      "properties": {
        "type": "cancelled_stop",
        "stop_code": "25070",
        "stop_name": "ת. מרכזית תל אביב/לוינסקי",
        "marker-color": "#ff0000",
        "marker-symbol": "bus",
        "marker-size": "medium"
      },
      "geometry": {
        "type": "Point",
        "coordinates": [
          34.779058,
          32.05693
        ]
      }
    },
    {
      "type": "Feature",
      "properties": {
        "type": "cancelled_stop",
        "stop_code": "21482",
        "stop_name": "הגדוד העברי/שד' הר ציון",
        "marker-color": "#ff0000",
        "marker-symbol": "bus",
        "marker-size": "medium"
      },
      "geometry": {
        "type": "Point",
        "coordinates": [
          34.778725,
          32.058694
        ]
      }
    },
    {
      "type": "Feature",
      "properties": {
        "type": "cancelled_stop",
        "stop_code": "21588",
        "stop_name": "סלומון/הרכבת",
        "marker-color": "#ff0000",
        "marker-symbol": "bus",
        "marker-size": "medium"
      },
      "geometry": {
        "type": "Point",
        "coordinates": [
          34.780191,
          32.061639
        ]
      }
    },
    {
      "type": "Feature",
      "properties": {
        "type": "new_stop",
        "stop_code": "25430",
        "stop_name": "דרך שלמה/מסילת ישרים",
        "marker-color": "#1f9ed6",
        "marker-symbol": "bus",
        "marker-size": "medium"
      },
      "geometry": {
        "type": "Point",
        "coordinates": [
          34.776478,
          32.054581
        ]
      }
    },
    {
      "type": "Feature",
      "properties": {
        "type": "new_stop",
        "stop_code": "20309",
        "stop_name": "ת.מרכזית תל אביב/דרך שלמה",
        "marker-color": "#1f9ed6",
        "marker-symbol": "bus",
        "marker-size": "medium"
      },
      "geometry": {
        "type": "Point",
        "coordinates": [
          34.779592,
          32.0539
        ]
      }
    },
    {
      "type": "Feature",
      "properties": {
        "type": "new_stop",
        "stop_code": "25636",
        "stop_name": "ת. רכבת ההגנה/החרש",
        "marker-color": "#1f9ed6",
        "marker-symbol": "bus",
        "marker-size": "medium"
      },
      "geometry": {
        "type": "Point",
        "coordinates": [
          34.783438,
          32.054639
        ]
      }
    },
    {
      "type": "Feature",
      "properties": {
        "type": "new_stop",
        "stop_code": "20160",
        "stop_name": "הרכבת/המסגר",
        "marker-color": "#1f9ed6",
        "marker-symbol": "bus",
        "marker-size": "medium"
      },
      "geometry": {
        "type": "Point",
        "coordinates": [
          34.783556,
          32.059556
        ]
      }
    },
    {
      "type": "Feature",
      "properties": {
        "type": "reported_block_stop",
        "stop_code": "21554",
        "stop_name": "שד' הר ציון/וולפסון",
        "marker-color": "#ff8800",
        "marker-symbol": "bus",
        "marker-size": "medium"
      },
      "geometry": {
        "type": "Point",
        "coordinates": [
          34.776495,
          32.056561
        ]
      }
    },
    {
      "type": "Feature",
      "properties": {
        "type": "reported_block_stop",
        "stop_code": "25070",
        "stop_name": "ת. מרכזית תל אביב/לוינסקי",
        "marker-color": "#ff8800",
        "marker-symbol": "bus",
        "marker-size": "medium"
      },
      "geometry": {
        "type": "Point",
        "coordinates": [
          34.779058,
          32.05693
        ]
      }
    },
    {
      "type": "Feature",
      "properties": {
        "type": "deviate_from_stop",
        "stop_code": "21553",
        "stop_name": "שד' הר ציון/דרך שלמה",
        "marker-color": "#8000ff",
        "marker-symbol": "bus",
        "marker-size": "medium"
      },
      "geometry": {
        "type": "Point",
        "coordinates": [
          34.77526,
          32.054302
        ]
      }
    },
    {
      "type": "Feature",
      "properties": {
        "type": "deviate_to_stop",
        "stop_code": "21244",
        "stop_name": "דרך מנחם בגין/הרכבת",
        "marker-color": "#8000ff",
        "marker-symbol": "bus",
        "marker-size": "medium"
      },
      "geometry": {
        "type": "Point",
        "coordinates": [
          34.780072,
          32.063416
        ]
      }
    }
  ]
}