{
  "type": "FeatureCollection",
  "features": [
    {
      "type": "Feature",
      "properties": {
        "type": "deviation_path",
        "trip_id": "1308997_020826",
        "shape_id": "109938",
        "stroke": "#00bcd4",
        "stroke-width": 3,
        "stroke-opacity": 0.95
      },
      "geometry": {
        "type": "LineString",
        "coordinates": [
          [
            34.997151,
            32.812087
          ],
          [
            34.997178,
            32.81206
          ],
          [
            34.997303,
            32.811913
          ],
          [
            34.997422,
            32.811766
          ],
          [
            34.997661,
            32.811516
          ],
          [
            34.997774,
            32.811404
          ],
          [
            34.997895,
            32.811266
          ],
          [
            34.99796,
            32.811183
          ],
          [
            34.997974,
            32.810952
          ],
          [
            34.997956,
            32.810889
          ],
          [
            34.9979,
            32.810731
          ],
          [
            34.997618,
            32.810442
          ],
          [
            34.997444,
            32.810282
          ],
          [
            34.997166,
            32.809982
          ],
          [
            34.997072,
            32.809873
          ],
          [
            34.996966,
            32.809813
          ],
          [
            34.996861,
            32.809749
          ],
          [
            34.996504,
            32.809579
          ],
          [
            34.996311,
            32.80947
          ],
          [
            34.996236,
            32.80942
          ],
          [
            34.996141,
            32.809344
          ],
          [
            34.996065,
            32.809275
          ],
          [
            34.996016,
            32.809215
          ],
          [
            34.995974,
            32.809152
          ],
          [
            34.995629,
            32.808547
          ],
          [
            34.995524,
            32.808354
          ],
          [
            34.995463,
            32.808242
          ],
          [
            34.995392,
            32.808061
          ],
          [
            34.995257,
            32.807806
          ],
          [
            34.995158,
            32.80765
          ],
          [
            34.995143,
            32.807621
          ],
          [
            34.994987,
            32.807485
          ],
          [
            34.994924,
            32.807454
          ],
          [
            34.994897,
            32.807443
          ],
          [
            34.994841,
            32.807437
          ],
          [
            34.994754,
            32.807439
          ],
          [
            34.994713,
            32.807437
          ],
          [
            34.994683,
            32.807446
          ],
          [
            34.994474,
            32.807503
          ],
          [
            34.994206,
            32.807632
          ],
          [
            34.9940162489465,
            32.80770958709743
          ]
        ]
      }
    },
    {
      "type": "Feature",
      "properties": {
        "type": "original_route_shape",
        "shape_id": "157987",
        "stroke": "#1f2a7a",
        "stroke-width": 3,
        "stroke-opacity": 0.85
      },
      "geometry": {
        "type": "LineString",
        "coordinates": [
          [
            34.98283743867377,
            32.830742131700724
          ],
          [
            34.982639,
            32.830808
          ],
          [
            34.982621,
            32.830811
          ],
          [
            34.982559,
            32.830823
          ],
          [
            34.982493,
            32.830824
          ],
          [
            34.982445,
            32.830818
          ],
          [
            34.9824,
            32.830803
          ],
          [
            34.982373,
            32.830775
          ],
          [
            34.982356,
            32.830752
          ],
          [
            34.982349,
            32.830727
          ],
          [
            34.982345,
            32.830693
          ],
          [
            34.982346,
            32.830655
          ],
          [
            34.982351,
            32.830641
          ],
          [
            34.982361,
            32.830613
          ],
          [
            34.982386,
            32.83059
          ],
          [
            34.982421,
            32.83057
          ],
          [
            34.982468,
            32.830552
          ],
          [
            34.982523,
            32.830546
          ],
          [
            34.982579,
            32.830553
          ],
          [
            34.982632,
            32.830572
          ],
          [
            34.982688,
            32.830616
          ],
          [
            34.982716,
            32.830649
          ],
          [
            34.982736,
            32.830666
          ],
          [
            34.982769,
            32.830682
          ],
          [
            34.982805,
            32.830691
          ],
          [
            34.982855,
            32.830694
          ],
          [
            34.98301,
            32.830685
          ],
          [
            34.983558,
            32.830508
          ],
          [
            34.983892,
            32.830405
          ],
          [
            34.983899,
            32.830405
          ],
          [
            34.984051,
            32.830361
          ],
          [
            34.984169,
            32.83034
          ],
          [
            34.984295,
            32.830324
          ],
          [
            34.984405,
            32.830322
          ],
          [
            34.98448,
            32.830323
          ],
          [
            34.98456,
            32.830333
          ],
          [
            34.984637,
            32.830351
          ],
          [
            34.984704,
            32.830373
          ],
          [
            34.984812,
            32.830416
          ],
          [
            34.984938,
            32.830446
          ],
          [
            34.984978,
            32.830452
          ],
          [
            34.985018,
            32.830457
          ],
          [
            34.985058,
            32.830455
          ],
          [
            34.985102,
            32.830452
          ],
          [
            34.985124,
            32.830438
          ],
          [
            34.985138,
            32.830425
          ],
          [
            34.985154,
            32.830406
          ],
          [
            34.984643,
            32.829456
          ],
          [
            34.984564,
            32.829309
          ],
          [
            34.983944,
            32.82822
          ],
          [
            34.983812,
            32.828064
          ],
          [
            34.98379,
            32.828029
          ],
          [
            34.983741,
            32.827942
          ],
          [
            34.983686,
            32.827814
          ],
          [
            34.983574,
            32.827488
          ],
          [
            34.983535,
            32.827256
          ],
          [
            34.983515,
            32.8271
          ],
          [
            34.983512,
            32.826777
          ],
          [
            34.983521,
            32.82662
          ],
          [
            34.983547,
            32.826426
          ],
          [
            34.983559,
            32.826302
          ],
          [
            34.983801,
            32.825552
          ],
          [
            34.983937,
            32.825049
          ],
          [
            34.983982,
            32.82488
          ],
          [
            34.984047,
            32.824745
          ],
          [
            34.984139,
            32.824552
          ],
          [
            34.984181,
            32.82446
          ],
          [
            34.984246,
            32.824317
          ],
          [
            34.984284,
            32.824241
          ],
          [
            34.984288,
            32.824233
          ],
          [
            34.984329,
            32.824163
          ],
          [
            34.984402,
            32.824086
          ],
          [
            34.984468,
            32.824059
          ],
          [
            34.984533,
            32.824041
          ],
          [
            34.984647,
            32.824015
          ],
          [
            34.984713,
            32.823997
          ],
          [
            34.985013,
            32.823913
          ],
          [
            34.98525,
            32.823833
          ],
          [
            34.985582,
            32.823713
          ],
          [
            34.986536,
            32.823282
          ],
          [
            34.987511,
            32.82289
          ],
          [
            34.987635,
            32.82284
          ],
          [
            34.987829,
            32.822758
          ],
          [
            34.988249,
            32.822582
          ],
          [
            34.988878,
            32.822307
          ],
          [
            34.989774,
            32.821906
          ],
          [
            34.990121,
            32.821755
          ],
          [
            34.991204,
            32.821317
          ],
          [
            34.991216,
            32.821303
          ],
          [
            34.991231,
            32.821289
          ],
          [
            34.991237,
            32.821286
          ],
          [
            34.991124,
            32.82107
          ],
          [
            34.990928,
            32.820758
          ],
          [
            34.990833,
            32.820606
          ],
          [
            34.990708,
            32.820399
          ],
          [
            34.990525,
            32.820109
          ],
          [
            34.990052,
            32.819358
          ],
          [
            34.989748,
            32.818865
          ],
          [
            34.98974,
            32.818854
          ],
          [
            34.989701,
            32.818799
          ],
          [
            34.989635,
            32.818706
          ],
          [
            34.989287,
            32.81809
          ],
          [
            34.989083,
            32.817734
          ],
          [
            34.988956,
            32.817538
          ],
          [
            34.988881,
            32.81746
          ],
          [
            34.988866,
            32.81746
          ],
          [
            34.988844,
            32.817456
          ],
          [
            34.98883,
            32.817451
          ],
          [
            34.988812,
            32.817443
          ],
          [
            34.988798,
            32.817433
          ],
          [
            34.988787,
            32.817424
          ],
          [
            34.988778,
            32.817413
          ],
          [
            34.988767,
            32.817395
          ],
          [
            34.98876,
            32.817376
          ],
          [
            34.988758,
            32.817363
          ],
          [
            34.988757,
            32.81735
          ],
          [
            34.988759,
            32.817334
          ],
          [
            34.988762,
            32.817324
          ],
          [
            34.988767,
            32.817311
          ],
          [
            34.988774,
            32.817299
          ],
          [
            34.988783,
            32.817288
          ],
          [
            34.988793,
            32.817278
          ],
          [
            34.988804,
            32.81727
          ],
          [
            34.988816,
            32.817262
          ],
          [
            34.988828,
            32.817257
          ],
          [
            34.988837,
            32.817253
          ],
          [
            34.988852,
            32.81725
          ],
          [
            34.988874,
            32.817247
          ],
          [
            34.988897,
            32.817248
          ],
          [
            34.988912,
            32.81725
          ],
          [
            34.988925,
            32.817254
          ],
          [
            34.989013,
            32.817239
          ],
          [
            34.989103,
            32.81722
          ],
          [
            34.989302,
            32.81715
          ],
          [
            34.9896,
            32.817032
          ],
          [
            34.989777,
            32.816949
          ],
          [
            34.990685,
            32.816534
          ],
          [
            34.991618,
            32.816122
          ],
          [
            34.991709,
            32.816082
          ],
          [
            34.991804,
            32.816043
          ],
          [
            34.992059,
            32.815938
          ],
          [
            34.992208,
            32.815875
          ],
          [
            34.992193,
            32.815826
          ],
          [
            34.992181,
            32.815628
          ],
          [
            34.992161,
            32.815532
          ],
          [
            34.992151,
            32.815472
          ],
          [
            34.992136,
            32.815427
          ],
          [
            34.992103,
            32.815372
          ],
          [
            34.991955,
            32.815211
          ],
          [
            34.991903,
            32.815155
          ],
          [
            34.991871,
            32.815113
          ],
          [
            34.991852,
            32.815078
          ],
          [
            34.991826,
            32.815027
          ],
          [
            34.991821,
            32.81502
          ],
          [
            34.991811,
            32.814903
          ],
          [
            34.991813,
            32.814859
          ],
          [
            34.991833,
            32.81477
          ],
          [
            34.991902,
            32.81467
          ],
          [
            34.991993,
            32.814523
          ],
          [
            34.992051,
            32.814363
          ],
          [
            34.992152,
            32.814195
          ],
          [
            34.992197,
            32.814123
          ],
          [
            34.992276,
            32.813974
          ],
          [
            34.992347,
            32.813844
          ],
          [
            34.99251,
            32.813551
          ],
          [
            34.992679,
            32.81321
          ],
          [
            34.992718,
            32.813118
          ],
          [
            34.992804,
            32.813009
          ],
          [
            34.992978,
            32.812782
          ],
          [
            34.993033,
            32.812711
          ],
          [
            34.993096,
            32.812631
          ],
          [
            34.993203,
            32.8125
          ],
          [
            34.993417,
            32.812219
          ],
          [
            34.993457,
            32.81217
          ],
          [
            34.993578,
            32.812076
          ],
          [
            34.993746,
            32.811956
          ],
          [
            34.993899,
            32.811838
          ],
          [
            34.993975,
            32.811788
          ],
          [
            34.994019,
            32.811764
          ],
          [
            34.994061,
            32.811749
          ],
          [
            34.994109,
            32.811742
          ],
          [
            34.994155,
            32.811744
          ],
          [
            34.994206,
            32.811753
          ],
          [
            34.994247,
            32.811766
          ],
          [
            34.994252,
            32.811768
          ],
          [
            34.99431,
            32.811802
          ],
          [
            34.994385,
            32.811866
          ],
          [
            34.994455,
            32.811936
          ],
          [
            34.994792,
            32.812283
          ],
          [
            34.995016,
            32.812505
          ],
          [
            34.995202,
            32.812674
          ],
          [
            34.995299,
            32.812774
          ],
          [
            34.995529,
            32.812953
          ],
          [
            34.995636,
            32.812895
          ],
          [
            34.995857,
            32.81279
          ],
          [
            34.99624,
            32.812618
          ],
          [
            34.996538,
            32.812473
          ],
          [
            34.996729,
            32.812372
          ],
          [
            34.99685,
            32.812316
          ],
          [
            34.996939,
            32.812265
          ],
          [
            34.996993,
            32.812229
          ],
          [
            34.997099,
            32.812139
          ],
          [
            34.997178,
            32.81206
          ],
          [
            34.997303,
            32.811913
          ],
          [
            34.997422,
            32.811766
          ],
          [
            34.997661,
            32.811516
          ],
          [
            34.997774,
            32.811404
          ],
          [
            34.997895,
            32.811266
          ],
          [
            34.99796,
            32.811183
          ],
          [
            34.998099,
            32.810969
          ],
          [
            34.998247,
            32.810682
          ],
          [
            34.998518,
            32.810229
          ],
          [
            34.998714,
            32.80988
          ],
          [
            34.998786,
            32.809765
          ],
          [
            34.99886,
            32.809612
          ],
          [
            34.998989,
            32.809456
          ],
          [
            34.999091,
            32.809364
          ],
          [
            34.999319,
            32.809142
          ],
          [
            34.999543,
            32.808916
          ],
          [
            34.999717,
            32.808751
          ],
          [
            34.999773,
            32.808698
          ],
          [
            35.000272,
            32.808258
          ],
          [
            35.000428,
            32.808114
          ],
          [
            35.000496,
            32.80801
          ],
          [
            35.000547,
            32.807893
          ],
          [
            35.000563,
            32.807797
          ],
          [
            35.000666,
            32.807157
          ],
          [
            35.000682,
            32.807023
          ],
          [
            35.000689,
            32.806955
          ],
          [
            35.000712,
            32.806744
          ],
          [
            35.000725,
            32.806388
          ],
          [
            35.000743,
            32.806234
          ],
          [
            35.000758,
            32.805922
          ],
          [
            35.000762,
            32.805848
          ],
          [
            35.000673,
            32.805334
          ],
          [
            35.000608,
            32.805123
          ],
          [
            35.000567,
            32.805024
          ],
          [
            35.000516,
            32.804944
          ],
          [
            35.000333,
            32.804714
          ],
          [
            35.000242,
            32.804652
          ],
          [
            35.000157,
            32.804617
          ],
          [
            35.000082,
            32.804603
          ],
          [
            34.999952,
            32.804597
          ],
          [
            34.99982,
            32.804596
          ],
          [
            34.999703,
            32.804613
          ],
          [
            34.999539,
            32.804654
          ],
          [
            34.999386,
            32.804685
          ],
          [
            34.99926,
            32.804725
          ],
          [
            34.999033,
            32.8048
          ],
          [
            34.998986,
            32.804883
          ],
          [
            34.998946,
            32.804927
          ],
          [
            34.998899,
            32.80496
          ],
          [
            34.99882,
            32.804999
          ],
          [
            34.998635,
            32.805087
          ],
          [
            34.998518,
            32.805153
          ],
          [
            34.998288,
            32.805311
          ],
          [
            34.99805,
            32.805529
          ],
          [
            34.997891,
            32.805689
          ],
          [
            34.997697,
            32.805874
          ],
          [
            34.997565,
            32.806024
          ],
          [
            34.997421,
            32.806129
          ],
          [
            34.997381,
            32.806158
          ],
          [
            34.997213,
            32.806265
          ],
          [
            34.996173,
            32.806862
          ],
          [
            34.995946,
            32.806983
          ],
          [
            34.995818,
            32.807039
          ],
          [
            34.995752,
            32.807069
          ],
          [
            34.995558,
            32.807138
          ],
          [
            34.995147,
            32.807304
          ],
          [
            34.995096,
            32.807324
          ],
          [
            34.994956,
            32.807372
          ],
          [
            34.994929,
            32.807379
          ],
          [
            34.994713,
            32.807437
          ],
          [
            34.994683,
            32.807446
          ],
          [
            34.994474,
            32.807503
          ],
          [
            34.994206,
            32.807632
          ],
          [
            34.993981,
            32.807724
          ],
          [
            34.993806,
            32.807807
          ],
          [
            34.99369,
            32.807857
          ],
          [
            34.993304,
            32.808035
          ],
          [
            34.99297,
            32.808168
          ],
          [
            34.992755,
            32.808293
          ],
          [
            34.992743,
            32.808301
          ],
          [
            34.99273,
            32.808307
          ],
          [
            34.992715,
            32.808311
          ],
          [
            34.992705,
            32.808312
          ],
          [
            34.992694,
            32.808312
          ],
          [
            34.992475,
            32.808347
          ],
          [
            34.992299,
            32.808419
          ],
          [
            34.992159,
            32.808474
          ],
          [
            34.992036,
            32.808508
          ],
          [
            34.991966,
            32.808521
          ],
          [
            34.991889,
            32.808526
          ],
          [
            34.991628,
            32.808531
          ],
          [
            34.991528,
            32.808542
          ],
          [
            34.991425,
            32.808564
          ],
          [
            34.99133,
            32.808611
          ],
          [
            34.99123,
            32.808672
          ],
          [
            34.991066,
            32.808803
          ],
          [
            34.990896,
            32.809003
          ],
          [
            34.990642,
            32.809275
          ],
          [
            34.990554,
            32.809373
          ],
          [
            34.990474,
            32.809478
          ],
          [
            34.990361,
            32.809633
          ],
          [
            34.989883,
            32.81014
          ],
          [
            34.989778,
            32.810251
          ],
          [
            34.98963,
            32.810401
          ],
          [
            34.989529,
            32.810501
          ],
          [
            34.989396,
            32.810639
          ],
          [
            34.989227,
            32.810822
          ],
          [
            34.989049,
            32.810975
          ],
          [
            34.988984,
            32.811006
          ],
          [
            34.988923,
            32.81102
          ],
          [
            34.988872,
            32.811026
          ],
          [
            34.988861,
            32.811027
          ],
          [
            34.988786,
            32.811014
          ],
          [
            34.988706,
            32.810983
          ],
          [
            34.988657,
            32.810958
          ],
          [
            34.988617,
            32.810916
          ],
          [
            34.988592,
            32.810878
          ],
          [
            34.988576,
            32.810833
          ],
          [
            34.988564,
            32.810778
          ],
          [
            34.988568,
            32.810719
          ],
          [
            34.98865,
            32.810558
          ],
          [
            34.988741,
            32.810397
          ],
          [
            34.988883,
            32.810151
          ],
          [
            34.988991,
            32.80993
          ],
          [
            34.989068,
            32.809686
          ],
          [
            34.989237,
            32.809227
          ],
          [
            34.989394,
            32.808914
          ],
          [
            34.989514,
            32.808749
          ],
          [
            34.989561,
            32.808684
          ],
          [
            34.989656,
            32.808561
          ],
          [
            34.989794,
            32.808384
          ],
          [
            34.99021,
            32.807856
          ],
          [
            34.990351,
            32.807664
          ],
          [
            34.990617,
            32.807305
          ],
          [
            34.990792,
            32.80709
          ],
          [
            34.99093,
            32.806938
          ],
          [
            34.991056,
            32.806801
          ],
          [
            34.991209,
            32.806636
          ],
          [
            34.991389,
            32.806447
          ],
          [
            34.991448,
            32.806378
          ],
          [
            34.99156,
            32.80627
          ],
          [
            34.991721,
            32.806116
          ],
          [
            34.991808,
            32.806036
          ],
          [
            34.992243,
            32.805598
          ],
          [
            34.992301,
            32.80554
          ],
          [
            34.992513,
            32.805321
          ],
          [
            34.992566,
            32.805276
          ],
          [
            34.992628,
            32.805192
          ],
          [
            34.992643,
            32.805164
          ],
          [
            34.992659,
            32.805112
          ],
          [
            34.992647,
            32.805094
          ],
          [
            34.992641,
            32.805078
          ],
          [
            34.992638,
            32.805061
          ],
          [
            34.99264,
            32.805044
          ],
          [
            34.992644,
            32.805028
          ],
          [
            34.992653,
            32.805013
          ],
          [
            34.992665,
            32.804999
          ],
          [
            34.992622,
            32.804887
          ],
          [
            34.992552,
            32.804772
          ],
          [
            34.992533,
            32.804754
          ],
          [
            34.992371,
            32.804574
          ],
          [
            34.992298,
            32.804467
          ],
          [
            34.992241,
            32.804392
          ],
          [
            34.992206,
            32.804338
          ],
          [
            34.992177,
            32.80427
          ],
          [
            34.99216,
            32.8042
          ],
          [
            34.992151,
            32.804143
          ],
          [
            34.992144,
            32.804085
          ],
          [
            34.992141,
            32.804026
          ],
          [
            34.992148,
            32.803953
          ],
          [
            34.992177,
            32.803809
          ],
          [
            34.992257,
            32.803683
          ],
          [
            34.99235,
            32.803568
          ],
          [
            34.992528,
            32.803387
          ],
          [
            34.992606,
            32.803293
          ],
          [
            34.992643,
            32.803226
          ],
          [
            34.992679,
            32.803125
          ],
          [
            34.992728,
            32.80289
          ],
          [
            34.992753,
            32.802748
          ],
          [
            34.992776,
            32.802679
          ],
          [
            34.992809,
            32.802601
          ],
          [
            34.992857,
            32.802534
          ],
          [
            34.992925,
            32.802458
          ],
          [
            34.992977,
            32.802409
          ],
          [
            34.993036,
            32.802366
          ],
          [
            34.993232,
            32.80225
          ],
          [
            34.993373,
            32.802175
          ],
          [
            34.993443,
            32.802136
          ],
          [
            34.99362,
            32.802038
          ],
          [
            34.99402,
            32.801809
          ],
          [
            34.994199,
            32.801695
          ],
          [
            34.99477,
            32.80133
          ],
          [
            34.994878,
            32.80126
          ],
          [
            34.99539,
            32.800922
          ],
          [
            34.995696,
            32.800719
          ],
          [
            34.995999,
            32.800521
          ],
          [
            34.996138,
            32.800423
          ],
          [
            34.996218,
            32.800334
          ],
          [
            34.996259,
            32.800278
          ],
          [
            34.996286,
            32.800224
          ],
          [
            34.996303,
            32.800176
          ],
          [
            34.996304,
            32.800117
          ],
          [
            34.996288,
            32.800063
          ],
          [
            34.996247,
            32.8
          ],
          [
            34.996191,
            32.799958
          ],
          [
            34.996126,
            32.799928
          ],
          [
            34.996034,
            32.799915
          ],
          [
            34.99597,
            32.799919
          ],
          [
            34.995913,
            32.79993
          ],
          [
            34.995864,
            32.799951
          ],
          [
            34.995779,
            32.799997
          ],
          [
            34.995676,
            32.800064
          ],
          [
            34.995475,
            32.800196
          ],
          [
            34.995397,
            32.800242
          ],
          [
            34.99535,
            32.800187
          ],
          [
            34.995265,
            32.800087
          ],
          [
            34.995215,
            32.800044
          ],
          [
            34.995192,
            32.80003
          ],
          [
            34.995143,
            32.800009
          ],
          [
            34.995082,
            32.799992
          ],
          [
            34.994968,
            32.79997
          ],
          [
            34.994747,
            32.799952
          ],
          [
            34.994456,
            32.79994
          ],
          [
            34.99396,
            32.799916
          ],
          [
            34.993493,
            32.799848
          ],
          [
            34.993186,
            32.79979
          ],
          [
            34.992884,
            32.799751
          ],
          [
            34.992525,
            32.799737
          ],
          [
            34.991053,
            32.799729
          ],
          [
            34.990807,
            32.799722
          ],
          [
            34.990528,
            32.799727
          ],
          [
            34.990471,
            32.799728
          ],
          [
            34.990309,
            32.799724
          ],
          [
            34.990275,
            32.79972
          ],
          [
            34.990211,
            32.799714
          ],
          [
            34.990176,
            32.799708
          ],
          [
            34.990091,
            32.799694
          ],
          [
            34.989988,
            32.799668
          ],
          [
            34.989887,
            32.799636
          ],
          [
            34.989784,
            32.799596
          ],
          [
            34.989662,
            32.799542
          ],
          [
            34.989495,
            32.799451
          ],
          [
            34.989256,
            32.7993
          ],
          [
            34.988719,
            32.799023
          ],
          [
            34.988449,
            32.798881
          ],
          [
            34.988285,
            32.798797
          ],
          [
            34.988135,
            32.798721
          ],
          [
            34.988047,
            32.798673
          ],
          [
            34.987902,
            32.798589
          ],
          [
            34.987741,
            32.798479
          ],
          [
            34.987585,
            32.798401
          ],
          [
            34.98754,
            32.798379
          ],
          [
            34.987345,
            32.798296
          ],
          [
            34.987171,
            32.798209
          ],
          [
            34.986807,
            32.797977
          ],
          [
            34.986582,
            32.797827
          ],
          [
            34.986438,
            32.797736
          ],
          [
            34.986384,
            32.797704
          ],
          [
            34.986349,
            32.797674
          ],
          [
            34.986319,
            32.797634
          ],
          [
            34.986299,
            32.797601
          ],
          [
            34.986281,
            32.797562
          ],
          [
            34.986269,
            32.797529
          ],
          [
            34.986264,
            32.797479
          ],
          [
            34.986267,
            32.797422
          ],
          [
            34.986279,
            32.797374
          ],
          [
            34.986296,
            32.797342
          ],
          [
            34.98632,
            32.797312
          ],
          [
            34.986367,
            32.797275
          ],
          [
            34.986494,
            32.797198
          ],
          [
            34.986675,
            32.797113
          ],
          [
            34.986888,
            32.797019
          ],
          [
            34.987071,
            32.796942
          ],
          [
            34.987189,
            32.796882
          ],
          [
            34.987269,
            32.796838
          ],
          [
            34.98734,
            32.796785
          ],
          [
            34.987416,
            32.796715
          ],
          [
            34.987704,
            32.796419
          ],
          [
            34.98783,
            32.796193
          ],
          [
            34.987869,
            32.796104
          ],
          [
            34.987892,
            32.796053
          ],
          [
            34.987903,
            32.795927
          ],
          [
            34.98791,
            32.795835
          ],
          [
            34.987917,
            32.79576
          ],
          [
            34.987944,
            32.795597
          ],
          [
            34.987982,
            32.795365
          ],
          [
            34.988014,
            32.795116
          ],
          [
            34.988041,
            32.794972
          ],
          [
            34.987888,
            32.794707
          ],
          [
            34.987756,
            32.79453
          ],
          [
            34.987632,
            32.794363
          ],
          [
            34.987558,
            32.79427
          ],
          [
            34.987497,
            32.794178
          ],
          [
            34.987444,
            32.794095
          ],
          [
            34.987388,
            32.794018
          ],
          [
            34.987347,
            32.793928
          ],
          [
            34.987323,
            32.793856
          ],
          [
            34.987297,
            32.793784
          ],
          [
            34.987271,
            32.793671
          ],
          [
            34.987256,
            32.793584
          ],
          [
            34.987256,
            32.793566
          ],
          [
            34.987255,
            32.793481
          ],
          [
            34.987271,
            32.793381
          ],
          [
            34.987271,
            32.793338
          ],
          [
            34.987357,
            32.793042
          ],
          [
            34.987509,
            32.792684
          ],
          [
            34.987542,
            32.792592
          ],
          [
            34.987566,
            32.79252
          ],
          [
            34.987581,
            32.792435
          ],
          [
            34.987584,
            32.792358
          ],
          [
            34.987575,
            32.792096
          ],
          [
            34.987558,
            32.791899
          ],
          [
            34.987512,
            32.79167
          ],
          [
            34.9875,
            32.79162
          ],
          [
            34.987426,
            32.791413
          ],
          [
            34.987379,
            32.7913
          ],
          [
            34.987327,
            32.791182
          ],
          [
            34.987165,
            32.790885
          ],
          [
            34.986992,
            32.790531
          ],
          [
            34.986809,
            32.790264
          ],
          [
            34.986773,
            32.790219
          ],
          [
            34.986695,
            32.790125
          ],
          [
            34.986681,
            32.790131
          ],
          [
            34.986629,
            32.790139
          ],
          [
            34.986619,
            32.790139
          ],
          [
            34.986599,
            32.790137
          ],
          [
            34.986579,
            32.790132
          ],
          [
            34.986569,
            32.790129
          ],
          [
            34.98655,
            32.79012
          ],
          [
            34.986532,
            32.79011
          ],
          [
            34.986516,
            32.790097
          ],
          [
            34.986498,
            32.790079
          ],
          [
            34.986489,
            32.790066
          ],
          [
            34.986478,
            32.790049
          ],
          [
            34.98647,
            32.79003
          ],
          [
            34.986464,
            32.790011
          ],
          [
            34.986461,
            32.789991
          ],
          [
            34.986461,
            32.78997
          ],
          [
            34.986463,
            32.78995
          ],
          [
            34.986468,
            32.789929
          ],
          [
            34.986474,
            32.789911
          ],
          [
            34.986484,
            32.789893
          ],
          [
            34.986495,
            32.789876
          ],
          [
            34.986502,
            32.789868
          ],
          [
            34.986515,
            32.789855
          ],
          [
            34.986533,
            32.789841
          ],
          [
            34.986541,
            32.789836
          ],
          [
            34.98656,
            32.789826
          ],
          [
            34.986579,
            32.789819
          ],
          [
            34.986589,
            32.789816
          ],
          [
            34.986599,
            32.789814
          ],
          [
            34.98662,
            32.789812
          ],
          [
            34.98663,
            32.789812
          ],
          [
            34.986651,
            32.789814
          ],
          [
            34.986661,
            32.789816
          ],
          [
            34.986681,
            32.789821
          ],
          [
            34.986701,
            32.789829
          ],
          [
            34.98671,
            32.789833
          ],
          [
            34.986719,
            32.789839
          ],
          [
            34.986733,
            32.789849
          ],
          [
            34.986743,
            32.789858
          ],
          [
            34.986757,
            32.789873
          ],
          [
            34.986769,
            32.789889
          ],
          [
            34.986779,
            32.789907
          ],
          [
            34.986913,
            32.789941
          ],
          [
            34.987282,
            32.789995
          ],
          [
            34.987716,
            32.790052
          ],
          [
            34.98831,
            32.790129
          ],
          [
            34.988769,
            32.790167
          ],
          [
            34.988962,
            32.790181
          ],
          [
            34.989064,
            32.790187
          ],
          [
            34.989272,
            32.790159
          ],
          [
            34.989522,
            32.790116
          ],
          [
            34.989752,
            32.790037
          ],
          [
            34.9898,
            32.789994
          ],
          [
            34.9899,
            32.789905
          ],
          [
            34.989968,
            32.78982
          ],
          [
            34.989976,
            32.789639
          ],
          [
            34.989967,
            32.78956
          ],
          [
            34.989945,
            32.789375
          ],
          [
            34.989959,
            32.789168
          ],
          [
            34.989783,
            32.788725
          ],
          [
            34.989683,
            32.788372
          ],
          [
            34.989664,
            32.788305
          ],
          [
            34.989596,
            32.788161
          ],
          [
            34.989385,
            32.787841
          ],
          [
            34.989212,
            32.787617
          ],
          [
            34.989174,
            32.787568
          ],
          [
            34.988974,
            32.787333
          ],
          [
            34.988764,
            32.787097
          ],
          [
            34.988596,
            32.786884
          ],
          [
            34.98852,
            32.786797
          ],
          [
            34.988406,
            32.786665
          ],
          [
            34.98812,
            32.786401
          ],
          [
            34.987944,
            32.78625
          ],
          [
            34.987681,
            32.786047
          ],
          [
            34.987342,
            32.785788
          ],
          [
            34.986688,
            32.785316
          ],
          [
            34.98646,
            32.78519
          ],
          [
            34.986243,
            32.785148
          ],
          [
            34.986192,
            32.785152
          ],
          [
            34.986118,
            32.785169
          ],
          [
            34.986015,
            32.785325
          ],
          [
            34.985812,
            32.785814
          ],
          [
            34.985679,
            32.786405
          ],
          [
            34.985624,
            32.786907
          ],
          [
            34.985614,
            32.787061
          ],
          [
            34.98561,
            32.787195
          ],
          [
            34.985533,
            32.787298
          ],
          [
            34.985497,
            32.787324
          ],
          [
            34.985459,
            32.787347
          ],
          [
            34.985412,
            32.787364
          ],
          [
            34.985292,
            32.787372
          ],
          [
            34.98479,
            32.787243
          ],
          [
            34.984565,
            32.787185
          ],
          [
            34.984225,
            32.787139
          ],
          [
            34.983994,
            32.787107
          ],
          [
            34.983993,
            32.787107
          ],
          [
            34.983417,
            32.787042
          ],
          [
            34.983194,
            32.787023
          ],
          [
            34.983004,
            32.787049
          ],
          [
            34.983004,
            32.78705
          ],
          [
            34.983003,
            32.787054
          ],
          [
            34.983,
            32.787059
          ],
          [
            34.982997,
            32.787064
          ],
          [
            34.982995,
            32.787067
          ],
          [
            34.982992,
            32.787069
          ],
          [
            34.982988,
            32.787073
          ],
          [
            34.982984,
            32.787075
          ],
          [
            34.982981,
            32.787077
          ],
          [
            34.982977,
            32.787079
          ],
          [
            34.982973,
            32.787082
          ],
          [
            34.982969,
            32.787082
          ],
          [
            34.982964,
            32.787084
          ],
          [
            34.982961,
            32.787084
          ],
          [
            34.982957,
            32.787085
          ],
          [
            34.982948,
            32.787083
          ],
          [
            34.982945,
            32.787084
          ],
          [
            34.982939,
            32.787082
          ],
          [
            34.982935,
            32.78708
          ],
          [
            34.982933,
            32.787078
          ],
          [
            34.982932,
            32.787078
          ],
          [
            34.982927,
            32.787076
          ],
          [
            34.982924,
            32.787073
          ],
          [
            34.982919,
            32.78707
          ],
          [
            34.982916,
            32.787068
          ],
          [
            34.982911,
            32.787063
          ],
          [
            34.982909,
            32.78706
          ],
          [
            34.982905,
            32.787056
          ],
          [
            34.982902,
            32.787051
          ],
          [
            34.982899,
            32.787047
          ],
          [
            34.982896,
            32.787043
          ],
          [
            34.98289,
            32.787032
          ],
          [
            34.982888,
            32.787028
          ],
          [
            34.982886,
            32.787022
          ],
          [
            34.982884,
            32.787016
          ],
          [
            34.982882,
            32.787011
          ],
          [
            34.982881,
            32.787006
          ],
          [
            34.98288,
            32.787
          ],
          [
            34.982879,
            32.786988
          ],
          [
            34.982878,
            32.786982
          ],
          [
            34.982879,
            32.786977
          ],
          [
            34.982878,
            32.786971
          ],
          [
            34.982879,
            32.786965
          ],
          [
            34.98288,
            32.78696
          ],
          [
            34.98288,
            32.786954
          ],
          [
            34.982882,
            32.78695
          ],
          [
            34.982884,
            32.786944
          ],
          [
            34.982885,
            32.786939
          ],
          [
            34.982887,
            32.786934
          ],
          [
            34.98289,
            32.786931
          ],
          [
            34.982892,
            32.786926
          ],
          [
            34.982894,
            32.786922
          ],
          [
            34.982898,
            32.786918
          ],
          [
            34.982902,
            32.786915
          ],
          [
            34.982881,
            32.786823
          ],
          [
            34.982873,
            32.786774
          ],
          [
            34.982852,
            32.786681
          ],
          [
            34.982836,
            32.786647
          ],
          [
            34.982777,
            32.786585
          ],
          [
            34.982699,
            32.78653
          ],
          [
            34.982585,
            32.786487
          ],
          [
            34.982499,
            32.786459
          ],
          [
            34.98246,
            32.786446
          ],
          [
            34.982098581115864,
            32.786324593139696
          ]
        ]
      }
    },
    {
      "type": "Feature",
      "properties": {
        "type": "original_route_stop",
        "stop_code": "47181",
        "stop_name": "ת. רכבת בת גלים",
        "marker-color": "#2ca02c",
        "marker-symbol": "bus",
        "marker-size": "medium"
      },
      "geometry": {
        "type": "Point",
        "coordinates": [
          34.982852,
          32.830786
        ]
      }
    },
    {
      "type": "Feature",
      "properties": {
        "type": "original_route_stop",
        "stop_code": "47532",
        "stop_name": "עליית הנוער/מסוף אוטובוסים",
        "marker-color": "#2ca02c",
        "marker-symbol": "bus",
        "marker-size": "medium"
      },
      "geometry": {
        "type": "Point",
        "coordinates": [
          34.98441,
          32.830277
        ]
      }
    },
    {
      "type": "Feature",
      "properties": {
        "type": "original_route_stop",
        "stop_code": "42947",
        "stop_name": "צומת דולפין/שדרות רוטשילד",
        "marker-color": "#2ca02c",
        "marker-symbol": "bus",
        "marker-size": "medium"
      },
      "geometry": {
        "type": "Point",
        "coordinates": [
          34.983474,
          32.827198
        ]
      }
    },
    {
      "type": "Feature",
      "properties": {
        "type": "original_route_stop",
        "stop_code": "43032",
        "stop_name": "מרכז רפואי לין/רוטשילד",
        "marker-color": "#2ca02c",
        "marker-symbol": "bus",
        "marker-size": "medium"
      },
      "geometry": {
        "type": "Point",
        "coordinates": [
          34.983761,
          32.825496
        ]
      }
    },
    {
      "type": "Feature",
      "properties": {
        "type": "original_route_stop",
        "stop_code": "47881",
        "stop_name": "בית חולים איטלקי/המגינים",
        "marker-color": "#2ca02c",
        "marker-symbol": "bus",
        "marker-size": "medium"
      },
      "geometry": {
        "type": "Point",
        "coordinates": [
          34.989222,
          32.822102
        ]
      }
    },
    {
      "type": "Feature",
      "properties": {
        "type": "original_route_stop",
        "stop_code": "41539",
        "stop_name": "המגינים/בן גוריון",
        "marker-color": "#2ca02c",
        "marker-symbol": "bus",
        "marker-size": "medium"
      },
      "geometry": {
        "type": "Point",
        "coordinates": [
          34.990833,
          32.821417
        ]
      }
    },
    {
      "type": "Feature",
      "properties": {
        "type": "original_route_stop",
        "stop_code": "41167",
        "stop_name": "בן גוריון/המגינים",
        "marker-color": "#2ca02c",
        "marker-symbol": "bus",
        "marker-size": "medium"
      },
      "geometry": {
        "type": "Point",
        "coordinates": [
          34.990958,
          32.820902
        ]
      }
    },
    {
      "type": "Feature",
      "properties": {
        "type": "original_route_stop",
        "stop_code": "41703",
        "stop_name": "בן גוריון/אלנבי",
        "marker-color": "#2ca02c",
        "marker-symbol": "bus",
        "marker-size": "medium"
      },
      "geometry": {
        "type": "Point",
        "coordinates": [
          34.989446,
          32.818475
        ]
      }
    },
    {
      "type": "Feature",
      "properties": {
        "type": "original_route_stop",
        "stop_code": "41138",
        "stop_name": "הגפן/בן גוריון",
        "marker-color": "#2ca02c",
        "marker-symbol": "bus",
        "marker-size": "medium"
      },
      "geometry": {
        "type": "Point",
        "coordinates": [
          34.98953,
          32.81701
        ]
      }
    },
    {
      "type": "Feature",
      "properties": {
        "type": "original_route_stop",
        "stop_code": "41139",
        "stop_name": "הגפן/הפרסים",
        "marker-color": "#2ca02c",
        "marker-symbol": "bus",
        "marker-size": "medium"
      },
      "geometry": {
        "type": "Point",
        "coordinates": [
          34.990983,
          32.816351
        ]
      }
    },
    {
      "type": "Feature",
      "properties": {
        "type": "original_route_stop",
        "stop_code": "41568",
        "stop_name": "הרצליה/הציונות",
        "marker-color": "#2ca02c",
        "marker-symbol": "bus",
        "marker-size": "medium"
      },
      "geometry": {
        "type": "Point",
        "coordinates": [
          34.9922,
          32.814008
        ]
      }
    },
    {
      "type": "Feature",
      "properties": {
        "type": "original_route_stop",
        "stop_code": "41142",
        "stop_name": "הרצליה/הנביאים",
        "marker-color": "#2ca02c",
        "marker-symbol": "bus",
        "marker-size": "medium"
      },
      "geometry": {
        "type": "Point",
        "coordinates": [
          34.993619,
          32.811988
        ]
      }
    },
    {
      "type": "Feature",
      "properties": {
        "type": "original_route_stop",
        "stop_code": "41144",
        "stop_name": "תחנת כרמלית/הנביאים",
        "marker-color": "#2ca02c",
        "marker-symbol": "bus",
        "marker-size": "medium"
      },
      "geometry": {
        "type": "Point",
        "coordinates": [
          34.995015,
          32.812434
        ]
      }
    },
    {
      "type": "Feature",
      "properties": {
        "type": "original_route_stop",
        "stop_code": "43190",
        "stop_name": "הרצל/הנביאים",
        "marker-color": "#2ca02c",
        "marker-symbol": "bus",
        "marker-size": "medium"
      },
      "geometry": {
        "type": "Point",
        "coordinates": [
          34.995882,
          32.812728
        ]
      }
    },
    {
      "type": "Feature",
      "properties": {
        "type": "original_route_stop",
        "stop_code": "41630",
        "stop_name": "ארלוזורוב/בר גיורא",
        "marker-color": "#2ca02c",
        "marker-symbol": "bus",
        "marker-size": "medium"
      },
      "geometry": {
        "type": "Point",
        "coordinates": [
          34.992432,
          32.808415
        ]
      }
    },
    {
      "type": "Feature",
      "properties": {
        "type": "original_route_stop",
        "stop_code": "41695",
        "stop_name": "גולומב/ראובן",
        "marker-color": "#2ca02c",
        "marker-symbol": "bus",
        "marker-size": "medium"
      },
      "geometry": {
        "type": "Point",
        "coordinates": [
          34.99006,
          32.810024
        ]
      }
    },
    {
      "type": "Feature",
      "properties": {
        "type": "original_route_stop",
        "stop_code": "41124",
        "stop_name": "תחנת כרמלית/גולומב",
        "marker-color": "#2ca02c",
        "marker-symbol": "bus",
        "marker-size": "medium"
      },
      "geometry": {
        "type": "Point",
        "coordinates": [
          34.989778,
          32.808323
        ]
      }
    },
    {
      "type": "Feature",
      "properties": {
        "type": "original_route_stop",
        "stop_code": "42166",
        "stop_name": "בית חולים בני ציון/גולומב",
        "marker-color": "#2ca02c",
        "marker-symbol": "bus",
        "marker-size": "medium"
      },
      "geometry": {
        "type": "Point",
        "coordinates": [
          34.991901,
          32.805872
        ]
      }
    },
    {
      "type": "Feature",
      "properties": {
        "type": "original_route_stop",
        "stop_code": "41125",
        "stop_name": "מרפאות חוץ/וינגייט",
        "marker-color": "#2ca02c",
        "marker-symbol": "bus",
        "marker-size": "medium"
      },
      "geometry": {
        "type": "Point",
        "coordinates": [
          34.992401,
          32.804682
        ]
      }
    },
    {
      "type": "Feature",
      "properties": {
        "type": "original_route_stop",
        "stop_code": "41076",
        "stop_name": "וינגייט/חנה סנש",
        "marker-color": "#2ca02c",
        "marker-symbol": "bus",
        "marker-size": "medium"
      },
      "geometry": {
        "type": "Point",
        "coordinates": [
          34.99388,
          32.801835
        ]
      }
    },
    {
      "type": "Feature",
      "properties": {
        "type": "original_route_stop",
        "stop_code": "41074",
        "stop_name": "האסיף/קיש",
        "marker-color": "#2ca02c",
        "marker-symbol": "bus",
        "marker-size": "medium"
      },
      "geometry": {
        "type": "Point",
        "coordinates": [
          34.994937,
          32.800013
        ]
      }
    },
    {
      "type": "Feature",
      "properties": {
        "type": "original_route_stop",
        "stop_code": "41991",
        "stop_name": "אסיף/הטנא",
        "marker-color": "#2ca02c",
        "marker-symbol": "bus",
        "marker-size": "medium"
      },
      "geometry": {
        "type": "Point",
        "coordinates": [
          34.989546,
          32.799532
        ]
      }
    },
    {
      "type": "Feature",
      "properties": {
        "type": "original_route_stop",
        "stop_code": "41075",
        "stop_name": "האסיף/ביכורים",
        "marker-color": "#2ca02c",
        "marker-symbol": "bus",
        "marker-size": "medium"
      },
      "geometry": {
        "type": "Point",
        "coordinates": [
          34.98789,
          32.798636
        ]
      }
    },
    {
      "type": "Feature",
      "properties": {
        "type": "original_route_stop",
        "stop_code": "41018",
        "stop_name": "יותם/שמשון",
        "marker-color": "#2ca02c",
        "marker-symbol": "bus",
        "marker-size": "medium"
      },
      "geometry": {
        "type": "Point",
        "coordinates": [
          34.98795,
          32.795198
        ]
      }
    },
    {
      "type": "Feature",
      "properties": {
        "type": "original_route_stop",
        "stop_code": "41699",
        "stop_name": "יותם/אהוד",
        "marker-color": "#2ca02c",
        "marker-symbol": "bus",
        "marker-size": "medium"
      },
      "geometry": {
        "type": "Point",
        "coordinates": [
          34.987496,
          32.792564
        ]
      }
    },
    {
      "type": "Feature",
      "properties": {
        "type": "original_route_stop",
        "stop_code": "40991",
        "stop_name": "יותם/מוריה",
        "marker-color": "#2ca02c",
        "marker-symbol": "bus",
        "marker-size": "medium"
      },
      "geometry": {
        "type": "Point",
        "coordinates": [
          34.986861,
          32.79043
        ]
      }
    },
    {
      "type": "Feature",
      "properties": {
        "type": "original_route_stop",
        "stop_code": "40988",
        "stop_name": "קרית ספר/מוריה",
        "marker-color": "#2ca02c",
        "marker-symbol": "bus",
        "marker-size": "medium"
      },
      "geometry": {
        "type": "Point",
        "coordinates": [
          34.98761,
          32.789992
        ]
      }
    },
    {
      "type": "Feature",
      "properties": {
        "type": "original_route_stop",
        "stop_code": "42003",
        "stop_name": "ד'ישראלי/בלוך",
        "marker-color": "#2ca02c",
        "marker-symbol": "bus",
        "marker-size": "medium"
      },
      "geometry": {
        "type": "Point",
        "coordinates": [
          34.989869,
          32.789084
        ]
      }
    },
    {
      "type": "Feature",
      "properties": {
        "type": "original_route_stop",
        "stop_code": "40992",
        "stop_name": "ד'ישראלי",
        "marker-color": "#2ca02c",
        "marker-symbol": "bus",
        "marker-size": "medium"
      },
      "geometry": {
        "type": "Point",
        "coordinates": [
          34.988806,
          32.78722
        ]
      }
    },
    {
      "type": "Feature",
      "properties": {
        "type": "original_route_stop",
        "stop_code": "40993",
        "stop_name": "ד'ישראלי/מרכז חורב",
        "marker-color": "#2ca02c",
        "marker-symbol": "bus",
        "marker-size": "medium"
      },
      "geometry": {
        "type": "Point",
        "coordinates": [
          34.986517,
          32.785275
        ]
      }
    },
    {
      "type": "Feature",
      "properties": {
        "type": "original_route_stop",
        "stop_code": "43100",
        "stop_name": "מרכז חורב/חורב",
        "marker-color": "#2ca02c",
        "marker-symbol": "bus",
        "marker-size": "medium"
      },
      "geometry": {
        "type": "Point",
        "coordinates": [
          34.985923,
          32.785681
        ]
      }
    },
    {
      "type": "Feature",
      "properties": {
        "type": "original_route_stop",
        "stop_code": "41895",
        "stop_name": "מאפו/חורב",
        "marker-color": "#2ca02c",
        "marker-symbol": "bus",
        "marker-size": "medium"
      },
      "geometry": {
        "type": "Point",
        "coordinates": [
          34.984538,
          32.787227
        ]
      }
    },
    {
      "type": "Feature",
      "properties": {
        "type": "original_route_stop",
        "stop_code": "43104",
        "stop_name": "בית חולים כרמל/רנ''ק",
        "marker-color": "#2ca02c",
        "marker-symbol": "bus",
        "marker-size": "medium"
      },
      "geometry": {
        "type": "Point",
        "coordinates": [
          34.982084,
          32.786368
        ]
      }
    },
    {
      "type": "Feature",
      "properties": {
        "type": "cancelled_stop",
        "stop_code": "41709",
        "stop_name": "הרצל/הלל יפה",
        "marker-color": "#ff0000",
        "marker-symbol": "bus",
        "marker-size": "medium"
      },
      "geometry": {
        "type": "Point",
        "coordinates": [
          34.998423,
          32.810287
        ]
      }
    },
    {
      "type": "Feature",
      "properties": {
        "type": "cancelled_stop",
        "stop_code": "43093",
        "stop_name": "הרצל/חיים וייצמן",
        "marker-color": "#ff0000",
        "marker-symbol": "bus",
        "marker-size": "medium"
      },
      "geometry": {
        "type": "Point",
        "coordinates": [
          34.999343,
          32.809048
        ]
      }
    },
    {
      "type": "Feature",
      "properties": {
        "type": "cancelled_stop",
        "stop_code": "41698",
        "stop_name": "שוק תלפיות/ארלוזורוב",
        "marker-color": "#ff0000",
        "marker-symbol": "bus",
        "marker-size": "medium"
      },
      "geometry": {
        "type": "Point",
        "coordinates": [
          35.000565,
          32.807448
        ]
      }
    },
    {
      "type": "Feature",
      "properties": {
        "type": "cancelled_stop",
        "stop_code": "42698",
        "stop_name": "ארלוזורוב/מיכאל",
        "marker-color": "#ff0000",
        "marker-symbol": "bus",
        "marker-size": "medium"
      },
      "geometry": {
        "type": "Point",
        "coordinates": [
          35.000709,
          32.805854
        ]
      }
    },
    {
      "type": "Feature",
      "properties": {
        "type": "cancelled_stop",
        "stop_code": "41250",
        "stop_name": "ארלוזורוב/גאולה",
        "marker-color": "#ff0000",
        "marker-symbol": "bus",
        "marker-size": "medium"
      },
      "geometry": {
        "type": "Point",
        "coordinates": [
          34.998293,
          32.805373
        ]
      }
    },
    {
      "type": "Feature",
      "properties": {
        "type": "cancelled_stop",
        "stop_code": "41251",
        "stop_name": "ארלוזורוב/בלפור",
        "marker-color": "#ff0000",
        "marker-symbol": "bus",
        "marker-size": "medium"
      },
      "geometry": {
        "type": "Point",
        "coordinates": [
          34.995586,
          32.807177
        ]
      }
    },
    {
      "type": "Feature",
      "properties": {
        "type": "new_stop",
        "stop_code": "41163",
        "stop_name": "מדעטק/בלפור",
        "marker-color": "#1f9ed6",
        "marker-symbol": "bus",
        "marker-size": "medium"
      },
      "geometry": {
        "type": "Point",
        "coordinates": [
          34.996176,
          32.809435
        ]
      }
    },
    {
      "type": "Feature",
      "properties": {
        "type": "reported_block_stop",
        "stop_code": "41698",
        "stop_name": "שוק תלפיות/ארלוזורוב",
        "marker-color": "#ff8800",
        "marker-symbol": "bus",
        "marker-size": "medium"
      },
      "geometry": {
        "type": "Point",
        "coordinates": [
          35.000565,
          32.807448
        ]
      }
    },
    {
      "type": "Feature",
      "properties": {
        "type": "reported_block_stop",
        "stop_code": "42698",
        "stop_name": "ארלוזורוב/מיכאל",
        "marker-color": "#ff8800",
        "marker-symbol": "bus",
        "marker-size": "medium"
      },
      "geometry": {
        "type": "Point",
        "coordinates": [
          35.000709,
          32.805854
        ]
      }
    },
    {
      "type": "Feature",
      "properties": {
        "type": "deviate_from_stop",
        "stop_code": "43191",
        "stop_name": "הרצל/שמריהו לוין",
        "marker-color": "#8000ff",
        "marker-symbol": "bus",
        "marker-size": "medium"
      },
      "geometry": {
        "type": "Point",
        "coordinates": [
          34.997116,
          32.812052
        ]
      }
    },
    {
      "type": "Feature",
      "properties": {
        "type": "deviate_to_stop",
        "stop_code": "41565",
        "stop_name": "ארלוזורוב/בלפור",
        "marker-color": "#8000ff",
        "marker-symbol": "bus",
        "marker-size": "medium"
      },
      "geometry": {
        "type": "Point",
        "coordinates": [
          34.994034,
          32.807753
        ]
      }
    }
  ]
}