{
  "type": "FeatureCollection",
  "features": [
    {
      "type": "Feature",
      "properties": {
        "type": "deviation_path_edge",
        "from_stop_code": "28665",
        "to_stop_code": "21644",
        "stroke": "#00bcd4",
        "stroke-width": 3,
        "stroke-opacity": 0.95
      },
      "geometry": {
        "type": "LineString",
        "coordinates": [
          [
            34.80070978921923,
            32.082577301960264
          ],
          [
            34.800782,
            32.082601
          ],
          [
            34.800926,
            32.082658
          ],
          [
            34.801047,
            32.0827
          ],
          [
            34.801148,
            32.082737
          ],
          [
            34.801196,
            32.082755
          ],
          [
            34.801318,
            32.082788
          ],
          [
            34.801405,
            32.082803
          ],
          [
            34.801493,
            32.082813
          ],
          [
            34.801576,
            32.082816
          ],
          [
            34.801735,
            32.082816
          ],
          [
            34.802345,
            32.082907
          ],
          [
            34.802467,
            32.082912
          ],
          [
            34.802591,
            32.082919
          ],
          [
            34.802664,
            32.082918
          ],
          [
            34.803435,
            32.082907
          ],
          [
            34.803667,
            32.082896
          ],
          [
            34.803815,
            32.082911
          ],
          [
            34.80504105793818,
            32.08315832776099
          ]
        ]
      }
    },
    {
      "type": "Feature",
      "properties": {
        "type": "deviation_path_edge",
        "from_stop_code": "21644",
        "to_stop_code": "21195",
        "stroke": "#00bcd4",
        "stroke-width": 3,
        "stroke-opacity": 0.95
      },
      "geometry": {
        "type": "LineString",
        "coordinates": [
          [
            34.80504105793818,
            32.08315832776099
          ],
          [
            34.805669,
            32.083285
          ],
          [
            34.805851,
            32.083326
          ],
          [
            34.806534,
            32.083527
          ],
          [
            34.807035,
            32.083667
          ],
          [
            34.807788,
            32.083876
          ],
          [
            34.807919,
            32.083896
          ],
          [
            34.808346,
            32.084011
          ],
          [
            34.808893,
            32.084197
          ],
          [
            34.809116,
            32.084289
          ],
          [
            34.809267,
            32.084366
          ],
          [
            34.809335,
            32.084401
          ],
          [
            34.809452,
            32.084478
          ],
          [
            34.809547,
            32.084541
          ],
          [
            34.80956387403711,
            32.08455256803677
          ]
        ]
      }
    },
    {
      "type": "Feature",
      "properties": {
        "type": "deviation_path_edge",
        "from_stop_code": "21195",
        "to_stop_code": "26271",
        "stroke": "#00bcd4",
        "stroke-width": 3,
        "stroke-opacity": 0.95
      },
      "geometry": {
        "type": "LineString",
        "coordinates": [
          [
            34.80956387403711,
            32.08455256803677
          ],
          [
            34.8099,
            32.084783
          ],
          [
            34.810597,
            32.085462
          ],
          [
            34.810812,
            32.085699
          ],
          [
            34.810855,
            32.085736
          ],
          [
            34.81137001011224,
            32.08618379190181
          ]
        ]
      }
    },
    {
      "type": "Feature",
      "properties": {
        "type": "deviation_path_edge",
        "from_stop_code": "26271",
        "to_stop_code": "23026",
        "stroke": "#00bcd4",
        "stroke-width": 3,
        "stroke-opacity": 0.95
      },
      "geometry": {
        "type": "LineString",
        "coordinates": [
          [
            34.81137001011224,
            32.08618379190181
          ],
          [
            34.811376,
            32.086189
          ],
          [
            34.811717,
            32.086453
          ],
          [
            34.812145,
            32.086705
          ],
          [
            34.812621,
            32.086997
          ],
          [
            34.812785,
            32.087128
          ],
          [
            34.813533,
            32.087632
          ],
          [
            34.813806,
            32.087827
          ],
          [
            34.814161,
            32.088075
          ],
          [
            34.814365,
            32.088196
          ],
          [
            34.814419,
            32.088224
          ],
          [
            34.814605,
            32.088296
          ],
          [
            34.814685,
            32.088341
          ],
          [
            34.814963,
            32.088502
          ],
          [
            34.81508562220762,
            32.08855473390276
          ]
        ]
      }
    },
    {
      "type": "Feature",
      "properties": {
        "type": "deviation_path_edge",
        "from_stop_code": "23026",
        "to_stop_code": "21540",
        "stroke": "#00bcd4",
        "stroke-width": 3,
        "stroke-opacity": 0.95
      },
      "geometry": {
        "type": "LineString",
        "coordinates": [
          [
            34.81508562220762,
            32.08855473390276
          ],
          [
            34.815156,
            32.088585
          ],
          [
            34.815574,
            32.08871
          ],
          [
            34.815882,
            32.088803
          ],
          [
            34.81599,
            32.088828
          ],
          [
            34.816377,
            32.088918
          ],
          [
            34.817004,
            32.089066
          ],
          [
            34.817136,
            32.089097
          ],
          [
            34.817567,
            32.089188
          ],
          [
            34.817947,
            32.089285
          ],
          [
            34.817995,
            32.089297
          ],
          [
            34.81812367551291,
            32.08933943554149
          ]
        ]
      }
    },
    {
      "type": "Feature",
      "properties": {
        "type": "deviation_path_edge",
        "from_stop_code": "21540",
        "to_stop_code": "20177",
        "stroke": "#00bcd4",
        "stroke-width": 3,
        "stroke-opacity": 0.95
      },
      "geometry": {
        "type": "LineString",
        "coordinates": [
          [
            34.81812367551291,
            32.08933943554149
          ],
          [
            34.818277,
            32.08939
          ],
          [
            34.81898,
            32.089709
          ],
          [
            34.819323,
            32.089854
          ],
          [
            34.81965,
            32.09
          ],
          [
            34.819958,
            32.090124
          ],
          [
            34.820211,
            32.090207
          ],
          [
            34.820512,
            32.090297
          ],
          [
            34.821427,
            32.09048
          ],
          [
            34.822186,
            32.090645
          ],
          [
            34.822581,
            32.090719
          ],
          [
            34.822616,
            32.090724
          ],
          [
            34.822741,
            32.090742
          ],
          [
            34.822734,
            32.090862
          ],
          [
            34.82268673185889,
            32.09118331081637
          ]
        ]
      }
    },
    {
      "type": "Feature",
      "properties": {
        "type": "deviation_path_edge",
        "from_stop_code": "20177",
        "to_stop_code": "21165",
        "stroke": "#00bcd4",
        "stroke-width": 3,
        "stroke-opacity": 0.95
      },
      "geometry": {
        "type": "LineString",
        "coordinates": [
          [
            34.82268673185889,
            32.09118331081637
          ],
          [
            34.82265,
            32.091433
          ],
          [
            34.822508,
            32.092133
          ],
          [
            34.822467,
            32.092355
          ],
          [
            34.822431,
            32.092573
          ],
          [
            34.822422,
            32.092644
          ],
          [
            34.822347,
            32.092976
          ],
          [
            34.822303,
            32.093239
          ],
          [
            34.822274,
            32.093408
          ],
          [
            34.822246,
            32.093585
          ],
          [
            34.822231,
            32.093676
          ],
          [
            34.822224,
            32.09371
          ],
          [
            34.822209,
            32.09379
          ],
          [
            34.822142030136696,
            32.09413304970796
          ]
        ]
      }
    },
    {
      "type": "Feature",
      "properties": {
        "type": "deviation_path_edge",
        "from_stop_code": "21165",
        "to_stop_code": "20643",
        "stroke": "#00bcd4",
        "stroke-width": 3,
        "stroke-opacity": 0.95
      },
      "geometry": {
        "type": "LineString",
        "coordinates": [
          [
            34.822142030136696,
            32.09413304970796
          ],
          [
            34.822111,
            32.094292
          ],
          [
            34.822083,
            32.094416
          ],
          [
            34.821996,
            32.094877
          ],
          [
            34.821919,
            32.095169
          ],
          [
            34.821904,
            32.095233
          ],
          [
            34.821848,
            32.095461
          ],
          [
            34.821834,
            32.095901
          ],
          [
            34.821738,
            32.096369
          ],
          [
            34.821719,
            32.09674
          ],
          [
            34.821719,
            32.096755
          ],
          [
            34.82172,
            32.096783
          ],
          [
            34.821732,
            32.096822
          ],
          [
            34.821845,
            32.096947
          ],
          [
            34.822074,
            32.097049
          ],
          [
            34.822098,
            32.097059
          ],
          [
            34.822305,
            32.097126
          ],
          [
            34.822803,
            32.097269
          ],
          [
            34.823017,
            32.097334
          ],
          [
            34.82309,
            32.097355
          ],
          [
            34.823657,
            32.097514
          ],
          [
            34.824075,
            32.097634
          ],
          [
            34.82436,
            32.09771
          ],
          [
            34.825068,
            32.097968
          ],
          [
            34.825955,
            32.098227
          ],
          [
            34.826157,
            32.098286
          ],
          [
            34.826294,
            32.098326
          ],
          [
            34.826793107711175,
            32.09846173033521
          ]
        ]
      }
    },
    {
      "type": "Feature",
      "properties": {
        "type": "original_route_shape",
        "shape_id": "163930",
        "stroke": "#1f2a7a",
        "stroke-width": 3,
        "stroke-opacity": 0.85
      },
      "geometry": {
        "type": "LineString",
        "coordinates": [
          [
            34.788431262416495,
            32.076777441361855
          ],
          [
            34.788822,
            32.07691
          ],
          [
            34.788917,
            32.076942
          ],
          [
            34.789457,
            32.077118
          ],
          [
            34.789918,
            32.077271
          ],
          [
            34.790403,
            32.077422
          ],
          [
            34.790828,
            32.077562
          ],
          [
            34.791185,
            32.077688
          ],
          [
            34.791379,
            32.077757
          ],
          [
            34.791535,
            32.077805
          ],
          [
            34.791641,
            32.077837
          ],
          [
            34.791839,
            32.077902
          ],
          [
            34.792009,
            32.077943
          ],
          [
            34.792358,
            32.078013
          ],
          [
            34.792491,
            32.07804
          ],
          [
            34.792585,
            32.078053
          ],
          [
            34.792626,
            32.078052
          ],
          [
            34.792659,
            32.078051
          ],
          [
            34.792739,
            32.078042
          ],
          [
            34.792809,
            32.078022
          ],
          [
            34.792859,
            32.078019
          ],
          [
            34.792911,
            32.078019
          ],
          [
            34.792961,
            32.07803
          ],
          [
            34.793011,
            32.078049
          ],
          [
            34.793386,
            32.078787
          ],
          [
            34.793413,
            32.078841
          ],
          [
            34.793449,
            32.078897
          ],
          [
            34.793528,
            32.079024
          ],
          [
            34.793737,
            32.079317
          ],
          [
            34.793818,
            32.079432
          ],
          [
            34.793877,
            32.079526
          ],
          [
            34.793929,
            32.079624
          ],
          [
            34.793954,
            32.079666
          ],
          [
            34.79399,
            32.079775
          ],
          [
            34.794056,
            32.079988
          ],
          [
            34.794145,
            32.080267
          ],
          [
            34.794213,
            32.080539
          ],
          [
            34.794232,
            32.080616
          ],
          [
            34.794501,
            32.081843
          ],
          [
            34.794587,
            32.082191
          ],
          [
            34.794725,
            32.082374
          ],
          [
            34.794773,
            32.082405
          ],
          [
            34.794779,
            32.082409
          ],
          [
            34.794842,
            32.082424
          ],
          [
            34.795073,
            32.082416
          ],
          [
            34.795154,
            32.082383
          ],
          [
            34.795258,
            32.082338
          ],
          [
            34.795371,
            32.082284
          ],
          [
            34.795502,
            32.082194
          ],
          [
            34.795872,
            32.081904
          ],
          [
            34.795965,
            32.081829
          ],
          [
            34.79608,
            32.08173
          ],
          [
            34.796122,
            32.081689
          ],
          [
            34.796297,
            32.08152
          ],
          [
            34.796526,
            32.081271
          ],
          [
            34.796773,
            32.081002
          ],
          [
            34.796842,
            32.080929
          ],
          [
            34.796954,
            32.080806
          ],
          [
            34.79707,
            32.080866
          ],
          [
            34.797279,
            32.080992
          ],
          [
            34.79739,
            32.081053
          ],
          [
            34.797482,
            32.081103
          ],
          [
            34.797893,
            32.081316
          ],
          [
            34.79822,
            32.0815
          ],
          [
            34.798821,
            32.081806
          ],
          [
            34.799092,
            32.081938
          ],
          [
            34.79952,
            32.082116
          ],
          [
            34.799808,
            32.082233
          ],
          [
            34.799994,
            32.08231
          ],
          [
            34.8002,
            32.08241
          ],
          [
            34.800782,
            32.082601
          ],
          [
            34.800926,
            32.082658
          ],
          [
            34.801047,
            32.0827
          ],
          [
            34.801148,
            32.082737
          ],
          [
            34.801196,
            32.082755
          ],
          [
            34.801318,
            32.082788
          ],
          [
            34.801405,
            32.082803
          ],
          [
            34.801493,
            32.082813
          ],
          [
            34.801576,
            32.082816
          ],
          [
            34.801735,
            32.082816
          ],
          [
            34.802345,
            32.082907
          ],
          [
            34.802467,
            32.082912
          ],
          [
            34.802591,
            32.082919
          ],
          [
            34.802664,
            32.082918
          ],
          [
            34.803435,
            32.082907
          ],
          [
            34.803442,
            32.082966
          ],
          [
            34.803398,
            32.083603
          ],
          [
            34.803407,
            32.083819
          ],
          [
            34.803439,
            32.084023
          ],
          [
            34.803471,
            32.084119
          ],
          [
            34.803491,
            32.084179
          ],
          [
            34.803632,
            32.084501
          ],
          [
            34.803683,
            32.084569
          ],
          [
            34.803761,
            32.08467
          ],
          [
            34.80397,
            32.084942
          ],
          [
            34.804301,
            32.08533
          ],
          [
            34.804462,
            32.085523
          ],
          [
            34.804515,
            32.085584
          ],
          [
            34.804648,
            32.085736
          ],
          [
            34.804838,
            32.085959
          ],
          [
            34.804893,
            32.086027
          ],
          [
            34.804977,
            32.086132
          ],
          [
            34.805045,
            32.086217
          ],
          [
            34.805277,
            32.08645
          ],
          [
            34.805638,
            32.086864
          ],
          [
            34.805976,
            32.087251
          ],
          [
            34.806024,
            32.087299
          ],
          [
            34.806166,
            32.087453
          ],
          [
            34.806247,
            32.087541
          ],
          [
            34.806399,
            32.087649
          ],
          [
            34.806757,
            32.087873
          ],
          [
            34.807152,
            32.088123
          ],
          [
            34.807472,
            32.088332
          ],
          [
            34.807627,
            32.088439
          ],
          [
            34.807909,
            32.088603
          ],
          [
            34.808578,
            32.088969
          ],
          [
            34.809119,
            32.089293
          ],
          [
            34.809358,
            32.089457
          ],
          [
            34.809863,
            32.089761
          ],
          [
            34.810028,
            32.089865
          ],
          [
            34.810551,
            32.090162
          ],
          [
            34.810931,
            32.090377
          ],
          [
            34.811388,
            32.090561
          ],
          [
            34.811746,
            32.090671
          ],
          [
            34.812919,
            32.091004
          ],
          [
            34.813278,
            32.091106
          ],
          [
            34.813692,
            32.091223
          ],
          [
            34.81405,
            32.091373
          ],
          [
            34.814558,
            32.091687
          ],
          [
            34.815357,
            32.092188
          ],
          [
            34.815599,
            32.092335
          ],
          [
            34.815764,
            32.092435
          ],
          [
            34.815997,
            32.092577
          ],
          [
            34.817235,
            32.093356
          ],
          [
            34.817316,
            32.093409
          ],
          [
            34.81738,
            32.093449
          ],
          [
            34.818031,
            32.093879
          ],
          [
            34.818521,
            32.094212
          ],
          [
            34.818587,
            32.094257
          ],
          [
            34.818643,
            32.094295
          ],
          [
            34.819386,
            32.094819
          ],
          [
            34.819446,
            32.094866
          ],
          [
            34.819565,
            32.094958
          ],
          [
            34.819704,
            32.09505
          ],
          [
            34.819954,
            32.095214
          ],
          [
            34.820025,
            32.095261
          ],
          [
            34.820235,
            32.095401
          ],
          [
            34.820331,
            32.095466
          ],
          [
            34.820693,
            32.095782
          ],
          [
            34.821054,
            32.09616
          ],
          [
            34.821137,
            32.096259
          ],
          [
            34.821379,
            32.096541
          ],
          [
            34.821463,
            32.096636
          ],
          [
            34.821551,
            32.096735
          ],
          [
            34.821845,
            32.096947
          ],
          [
            34.822074,
            32.097049
          ],
          [
            34.822098,
            32.097059
          ],
          [
            34.822304,
            32.097126
          ],
          [
            34.822803,
            32.097269
          ],
          [
            34.823017,
            32.097334
          ],
          [
            34.82309,
            32.097355
          ],
          [
            34.823657,
            32.097514
          ],
          [
            34.824075,
            32.097634
          ],
          [
            34.82436,
            32.09771
          ],
          [
            34.825068,
            32.097968
          ],
          [
            34.825955,
            32.098227
          ],
          [
            34.826157,
            32.098286
          ],
          [
            34.826294,
            32.098326
          ],
          [
            34.827923,
            32.098769
          ],
          [
            34.828452,
            32.09891
          ],
          [
            34.828546,
            32.098994
          ],
          [
            34.828477,
            32.099335
          ],
          [
            34.828469,
            32.099388
          ],
          [
            34.828434,
            32.099536
          ],
          [
            34.828363,
            32.099753
          ],
          [
            34.828272,
            32.100052
          ],
          [
            34.828157,
            32.100494
          ],
          [
            34.828084,
            32.100908
          ],
          [
            34.828062,
            32.101031
          ],
          [
            34.828028,
            32.101269
          ],
          [
            34.827998,
            32.101508
          ],
          [
            34.827982,
            32.101634
          ],
          [
            34.827971,
            32.101751
          ],
          [
            34.827963,
            32.101837
          ],
          [
            34.827909,
            32.102394
          ],
          [
            34.827902,
            32.102474
          ],
          [
            34.827884,
            32.102687
          ],
          [
            34.82784,
            32.103211
          ],
          [
            34.82782,
            32.103465
          ],
          [
            34.827817,
            32.103488
          ],
          [
            34.827804,
            32.103654
          ],
          [
            34.827796,
            32.10376
          ],
          [
            34.827796,
            32.103827
          ],
          [
            34.827795,
            32.103958
          ],
          [
            34.827794,
            32.104029
          ],
          [
            34.827795,
            32.104558
          ],
          [
            34.827793,
            32.10457
          ],
          [
            34.827792,
            32.104597
          ],
          [
            34.827789,
            32.104719
          ],
          [
            34.827792,
            32.104783
          ],
          [
            34.827789,
            32.104864
          ],
          [
            34.827776,
            32.105127
          ],
          [
            34.827773,
            32.105213
          ],
          [
            34.827772,
            32.105249
          ],
          [
            34.827743125483124,
            32.105458720175214
          ]
        ]
      }
    },
    {
      "type": "Feature",
      "properties": {
        "type": "original_route_stop",
        "stop_code": "23025",
        "stop_name": "בית המשפט/שד' שאול המלך",
        "marker-color": "#2ca02c",
        "marker-symbol": "bus",
        "marker-size": "medium"
      },
      "geometry": {
        "type": "Point",
        "coordinates": [
          34.788446,
          32.076734
        ]
      }
    },
    {
      "type": "Feature",
      "properties": {
        "type": "original_route_stop",
        "stop_code": "21303",
        "stop_name": "בית הדר דפנה/שד' שאול המלך",
        "marker-color": "#2ca02c",
        "marker-symbol": "bus",
        "marker-size": "medium"
      },
      "geometry": {
        "type": "Point",
        "coordinates": [
          34.790544,
          32.07742
        ]
      }
    },
    {
      "type": "Feature",
      "properties": {
        "type": "original_route_stop",
        "stop_code": "21140",
        "stop_name": "ת. רכבת תל אביב סבידור/על פרשת דרכים",
        "marker-color": "#2ca02c",
        "marker-symbol": "bus",
        "marker-size": "medium"
      },
      "geometry": {
        "type": "Point",
        "coordinates": [
          34.795464,
          32.082162
        ]
      }
    },
    {
      "type": "Feature",
      "properties": {
        "type": "original_route_stop",
        "stop_code": "21450",
        "stop_name": "ת. רכבת בני ברק/מבצע קדש",
        "marker-color": "#2ca02c",
        "marker-symbol": "bus",
        "marker-size": "medium"
      },
      "geometry": {
        "type": "Point",
        "coordinates": [
          34.827868,
          32.103514
        ]
      }
    },
    {
      "type": "Feature",
      "properties": {
        "type": "original_route_stop",
        "stop_code": "21449",
        "stop_name": "מבצע קדש/ראול ולנברג",
        "marker-color": "#2ca02c",
        "marker-symbol": "bus",
        "marker-size": "medium"
      },
      "geometry": {
        "type": "Point",
        "coordinates": [
          34.827796,
          32.105466
        ]
      }
    },
    {
      "type": "Feature",
      "properties": {
        "type": "cancelled_stop",
        "stop_code": "26248",
        "stop_name": "ת.רק''ל אבא הלל",
        "marker-color": "#ff0000",
        "marker-symbol": "bus",
        "marker-size": "medium"
      },
      "geometry": {
        "type": "Point",
        "coordinates": [
          34.803468,
          32.083873
        ]
      }
    },
    {
      "type": "Feature",
      "properties": {
        "type": "cancelled_stop",
        "stop_code": "26258",
        "stop_name": "דרך אבא הלל/ביאליק",
        "marker-color": "#ff0000",
        "marker-symbol": "bus",
        "marker-size": "medium"
      },
      "geometry": {
        "type": "Point",
        "coordinates": [
          34.807448,
          32.08826
        ]
      }
    },
    {
      "type": "Feature",
      "properties": {
        "type": "cancelled_stop",
        "stop_code": "26286",
        "stop_name": "דרך אבא הלל/רוקח",
        "marker-color": "#ff0000",
        "marker-symbol": "bus",
        "marker-size": "medium"
      },
      "geometry": {
        "type": "Point",
        "coordinates": [
          34.810376,
          32.090008
        ]
      }
    },
    {
      "type": "Feature",
      "properties": {
        "type": "cancelled_stop",
        "stop_code": "26289",
        "stop_name": "דרך אבא הלל/התקווה",
        "marker-color": "#ff0000",
        "marker-symbol": "bus",
        "marker-size": "medium"
      },
      "geometry": {
        "type": "Point",
        "coordinates": [
          34.813685,
          32.091173
        ]
      }
    },
    {
      "type": "Feature",
      "properties": {
        "type": "cancelled_stop",
        "stop_code": "26353",
        "stop_name": "דרך אבא הלל/רש''י",
        "marker-color": "#ff0000",
        "marker-symbol": "bus",
        "marker-size": "medium"
      },
      "geometry": {
        "type": "Point",
        "coordinates": [
          34.816607,
          32.092905
        ]
      }
    },
    {
      "type": "Feature",
      "properties": {
        "type": "cancelled_stop",
        "stop_code": "26369",
        "stop_name": "דרך אבא הלל /דרך ששת הימים",
        "marker-color": "#ff0000",
        "marker-symbol": "bus",
        "marker-size": "medium"
      },
      "geometry": {
        "type": "Point",
        "coordinates": [
          34.820452,
          32.095507
        ]
      }
    },
    {
      "type": "Feature",
      "properties": {
        "type": "new_stop",
        "stop_code": "21644",
        "stop_name": "ת.רק''ל אבא הלל/דרך ז'בוטינסקי",
        "marker-color": "#1f9ed6",
        "marker-symbol": "bus",
        "marker-size": "medium"
      },
      "geometry": {
        "type": "Point",
        "coordinates": [
          34.80505,
          32.083114
        ]
      }
    },
    {
      "type": "Feature",
      "properties": {
        "type": "new_stop",
        "stop_code": "21195",
        "stop_name": "דרך ז'בוטינסקי/החשמונאים",
        "marker-color": "#1f9ed6",
        "marker-symbol": "bus",
        "marker-size": "medium"
      },
      "geometry": {
        "type": "Point",
        "coordinates": [
          34.809591,
          32.084513
        ]
      }
    },
    {
      "type": "Feature",
      "properties": {
        "type": "new_stop",
        "stop_code": "26271",
        "stop_name": "דרך ז'בוטינסקי/ביאליק",
        "marker-color": "#1f9ed6",
        "marker-symbol": "bus",
        "marker-size": "medium"
      },
      "geometry": {
        "type": "Point",
        "coordinates": [
          34.811402,
          32.086147
        ]
      }
    },
    {
      "type": "Feature",
      "properties": {
        "type": "new_stop",
        "stop_code": "23026",
        "stop_name": "ת.רק''ל ביאליק/דרך ז'בוטינסקי",
        "marker-color": "#1f9ed6",
        "marker-symbol": "bus",
        "marker-size": "medium"
      },
      "geometry": {
        "type": "Point",
        "coordinates": [
          34.815104,
          32.088512
        ]
      }
    },
    {
      "type": "Feature",
      "properties": {
        "type": "new_stop",
        "stop_code": "21540",
        "stop_name": "דרך ז'בוטינסקי/רש''י",
        "marker-color": "#1f9ed6",
        "marker-symbol": "bus",
        "marker-size": "medium"
      },
      "geometry": {
        "type": "Point",
        "coordinates": [
          34.818138,
          32.089296
        ]
      }
    },
    {
      "type": "Feature",
      "properties": {
        "type": "new_stop",
        "stop_code": "20177",
        "stop_name": "ת.רק''ל בן גוריון/מרכז דן",
        "marker-color": "#1f9ed6",
        "marker-symbol": "bus",
        "marker-size": "medium"
      },
      "geometry": {
        "type": "Point",
        "coordinates": [
          34.822739,
          32.091191
        ]
      }
    },
    {
      "type": "Feature",
      "properties": {
        "type": "new_stop",
        "stop_code": "21165",
        "stop_name": "מגדל ויטה/דרך בן גוריון",
        "marker-color": "#1f9ed6",
        "marker-symbol": "bus",
        "marker-size": "medium"
      },
      "geometry": {
        "type": "Point",
        "coordinates": [
          34.822193,
          32.094143
        ]
      }
    },
    {
      "type": "Feature",
      "properties": {
        "type": "reported_block_stop",
        "stop_code": "26353",
        "stop_name": "דרך אבא הלל/רש''י",
        "marker-color": "#ff8800",
        "marker-symbol": "bus",
        "marker-size": "medium"
      },
      "geometry": {
        "type": "Point",
        "coordinates": [
          34.816607,
          32.092905
        ]
      }
    },
    {
      "type": "Feature",
      "properties": {
        "type": "reported_block_stop",
        "stop_code": "26369",
        "stop_name": "דרך אבא הלל /דרך ששת הימים",
        "marker-color": "#ff8800",
        "marker-symbol": "bus",
        "marker-size": "medium"
      },
      "geometry": {
        "type": "Point",
        "coordinates": [
          34.820452,
          32.095507
        ]
      }
    },
    {
      "type": "Feature",
      "properties": {
        "type": "deviate_from_stop",
        "stop_code": "28665",
        "stop_name": "הבורסה/דרך ז'בוטינסקי",
        "marker-color": "#8000ff",
        "marker-symbol": "bus",
        "marker-size": "medium"
      },
      "geometry": {
        "type": "Point",
        "coordinates": [
          34.800724,
          32.082534
        ]
      }
    },
    {
      "type": "Feature",
      "properties": {
        "type": "deviate_to_stop",
        "stop_code": "20643",
        "stop_name": "קניון איילון/דרך ששת הימים",
        "marker-color": "#8000ff",
        "marker-symbol": "bus",
        "marker-size": "medium"
      },
      "geometry": {
        "type": "Point",
        "coordinates": [
          34.826805,
          32.098418
        ]
      }
    }
  ]
}