{
  "type": "FeatureCollection",
  "features": [
    {
      "type": "Feature",
      "properties": {
        "type": "deviation_path",
        "trip_id": "1501132_020826",
        "shape_id": "142073",
        "stroke": "#00bcd4",
        "stroke-width": 3,
        "stroke-opacity": 0.95
      },
      "geometry": {
        "type": "LineString",
        "coordinates": [
          [
            34.97501917016849,
            32.81986520901883
          ],
          [
            34.974775,
            32.820096
          ],
          [
            34.974546,
            32.820319
          ],
          [
            34.974411,
            32.820491
          ],
          [
            34.974403,
            32.820502
          ],
          [
            34.974323,
            32.820615
          ],
          [
            34.974228,
            32.820841
          ],
          [
            34.974167,
            32.821013
          ],
          [
            34.974153,
            32.821107
          ],
          [
            34.974138,
            32.821203
          ],
          [
            34.974036,
            32.821186
          ],
          [
            34.973565,
            32.821108
          ],
          [
            34.973191,
            32.821023
          ],
          [
            34.973099,
            32.821006
          ],
          [
            34.972845,
            32.820964
          ],
          [
            34.972786,
            32.820967
          ],
          [
            34.972778,
            32.820973
          ],
          [
            34.972761,
            32.820979
          ],
          [
            34.972743,
            32.820982
          ],
          [
            34.972725,
            32.82098
          ],
          [
            34.972712,
            32.820976
          ],
          [
            34.972701,
            32.820969
          ],
          [
            34.97269,
            32.820961
          ],
          [
            34.97263,
            32.821073
          ],
          [
            34.972566,
            32.821279
          ],
          [
            34.972564,
            32.821424
          ],
          [
            34.972566,
            32.821499
          ],
          [
            34.972554,
            32.821517
          ],
          [
            34.972532,
            32.821544
          ],
          [
            34.972508,
            32.821559
          ],
          [
            34.972429,
            32.821548
          ],
          [
            34.972363,
            32.821535
          ],
          [
            34.972253,
            32.821508
          ],
          [
            34.972224,
            32.821494
          ],
          [
            34.97216,
            32.821462
          ],
          [
            34.971952,
            32.821442
          ],
          [
            34.971639,
            32.821392
          ],
          [
            34.97147504723541,
            32.821365837324805
          ]
        ]
      }
    },
    {
      "type": "Feature",
      "properties": {
        "type": "original_route_shape",
        "shape_id": "134722",
        "stroke": "#1f2a7a",
        "stroke-width": 3,
        "stroke-opacity": 0.85
      },
      "geometry": {
        "type": "LineString",
        "coordinates": [
          [
            34.998085172750855,
            32.79863199961775
          ],
          [
            34.997926,
            32.798642
          ],
          [
            34.997787,
            32.798666
          ],
          [
            34.997703,
            32.798683
          ],
          [
            34.997608,
            32.798714
          ],
          [
            34.997617,
            32.798724
          ],
          [
            34.997625,
            32.798738
          ],
          [
            34.997629,
            32.798748
          ],
          [
            34.997632,
            32.798763
          ],
          [
            34.997632,
            32.798774
          ],
          [
            34.997629,
            32.798789
          ],
          [
            34.997622,
            32.798804
          ],
          [
            34.997613,
            32.798817
          ],
          [
            34.997605,
            32.798826
          ],
          [
            34.997596,
            32.798833
          ],
          [
            34.997586,
            32.798839
          ],
          [
            34.997569,
            32.798846
          ],
          [
            34.997552,
            32.798851
          ],
          [
            34.997539,
            32.798852
          ],
          [
            34.997527,
            32.798853
          ],
          [
            34.997514,
            32.798851
          ],
          [
            34.997497,
            32.798847
          ],
          [
            34.99748,
            32.79884
          ],
          [
            34.997465,
            32.798831
          ],
          [
            34.997456,
            32.798823
          ],
          [
            34.997449,
            32.798815
          ],
          [
            34.99744,
            32.798801
          ],
          [
            34.997434,
            32.798786
          ],
          [
            34.997432,
            32.798772
          ],
          [
            34.997368,
            32.798788
          ],
          [
            34.9972,
            32.798843
          ],
          [
            34.996822,
            32.799007
          ],
          [
            34.996769,
            32.799031
          ],
          [
            34.996718,
            32.79906
          ],
          [
            34.996615,
            32.799131
          ],
          [
            34.996322,
            32.79941
          ],
          [
            34.99629,
            32.799476
          ],
          [
            34.996271,
            32.799523
          ],
          [
            34.996251,
            32.799604
          ],
          [
            34.996253,
            32.799665
          ],
          [
            34.996268,
            32.799728
          ],
          [
            34.996276,
            32.79978
          ],
          [
            34.996266,
            32.799817
          ],
          [
            34.996248,
            32.799843
          ],
          [
            34.996214,
            32.799876
          ],
          [
            34.996173,
            32.799902
          ],
          [
            34.996126,
            32.799928
          ],
          [
            34.996034,
            32.799915
          ],
          [
            34.99597,
            32.799919
          ],
          [
            34.995913,
            32.79993
          ],
          [
            34.995864,
            32.799951
          ],
          [
            34.995779,
            32.799997
          ],
          [
            34.995676,
            32.800064
          ],
          [
            34.995475,
            32.800196
          ],
          [
            34.995397,
            32.800242
          ],
          [
            34.994811,
            32.80058
          ],
          [
            34.994491,
            32.800764
          ],
          [
            34.994243,
            32.800895
          ],
          [
            34.994044,
            32.800979
          ],
          [
            34.993626,
            32.80117
          ],
          [
            34.992615,
            32.801551
          ],
          [
            34.992321,
            32.801676
          ],
          [
            34.992082,
            32.80178
          ],
          [
            34.991819,
            32.801871
          ],
          [
            34.99172,
            32.801918
          ],
          [
            34.991536,
            32.802029
          ],
          [
            34.991302,
            32.80219
          ],
          [
            34.991266,
            32.802235
          ],
          [
            34.991226,
            32.802275
          ],
          [
            34.991076,
            32.802407
          ],
          [
            34.991075,
            32.802416
          ],
          [
            34.991071,
            32.802429
          ],
          [
            34.991066,
            32.802437
          ],
          [
            34.991058,
            32.802448
          ],
          [
            34.991048,
            32.802457
          ],
          [
            34.991035,
            32.802465
          ],
          [
            34.99103,
            32.802467
          ],
          [
            34.991026,
            32.802469
          ],
          [
            34.991012,
            32.802473
          ],
          [
            34.990998,
            32.802474
          ],
          [
            34.990983,
            32.802473
          ],
          [
            34.990968,
            32.802469
          ],
          [
            34.990957,
            32.802465
          ],
          [
            34.990943,
            32.802456
          ],
          [
            34.990936,
            32.802449
          ],
          [
            34.99093,
            32.802442
          ],
          [
            34.990925,
            32.802435
          ],
          [
            34.990922,
            32.802428
          ],
          [
            34.990919,
            32.802418
          ],
          [
            34.990917,
            32.802409
          ],
          [
            34.990917,
            32.802401
          ],
          [
            34.990918,
            32.802391
          ],
          [
            34.990903,
            32.802348
          ],
          [
            34.990897,
            32.802313
          ],
          [
            34.990894,
            32.802247
          ],
          [
            34.990916,
            32.80197
          ],
          [
            34.990915,
            32.801923
          ],
          [
            34.990909,
            32.801886
          ],
          [
            34.990898,
            32.801854
          ],
          [
            34.990858,
            32.801805
          ],
          [
            34.990832,
            32.80178
          ],
          [
            34.990796,
            32.801757
          ],
          [
            34.99075,
            32.801741
          ],
          [
            34.990706,
            32.80173
          ],
          [
            34.990575,
            32.801716
          ],
          [
            34.990373,
            32.801734
          ],
          [
            34.990196,
            32.801756
          ],
          [
            34.989975,
            32.801797
          ],
          [
            34.989645,
            32.801875
          ],
          [
            34.989303,
            32.801952
          ],
          [
            34.988967,
            32.80203
          ],
          [
            34.988714,
            32.802093
          ],
          [
            34.988548,
            32.802132
          ],
          [
            34.988229,
            32.802199
          ],
          [
            34.98815,
            32.802217
          ],
          [
            34.98808,
            32.802234
          ],
          [
            34.987997,
            32.802262
          ],
          [
            34.98789,
            32.80231
          ],
          [
            34.987725,
            32.80239
          ],
          [
            34.987593,
            32.802469
          ],
          [
            34.987336,
            32.802594
          ],
          [
            34.987025,
            32.802736
          ],
          [
            34.986703,
            32.802895
          ],
          [
            34.986641,
            32.80293
          ],
          [
            34.986602,
            32.802958
          ],
          [
            34.986578,
            32.802979
          ],
          [
            34.986561,
            32.803003
          ],
          [
            34.986545,
            32.803034
          ],
          [
            34.986537,
            32.80306
          ],
          [
            34.986686,
            32.803206
          ],
          [
            34.986795,
            32.803332
          ],
          [
            34.987015,
            32.803618
          ],
          [
            34.987196,
            32.803862
          ],
          [
            34.987255,
            32.803937
          ],
          [
            34.98742,
            32.804141
          ],
          [
            34.987688,
            32.804459
          ],
          [
            34.987801,
            32.804609
          ],
          [
            34.987858,
            32.804761
          ],
          [
            34.98786,
            32.804874
          ],
          [
            34.987842,
            32.804977
          ],
          [
            34.98783,
            32.805037
          ],
          [
            34.987748,
            32.805237
          ],
          [
            34.987716,
            32.805308
          ],
          [
            34.987576,
            32.805665
          ],
          [
            34.98748,
            32.805906
          ],
          [
            34.987384,
            32.806172
          ],
          [
            34.987282,
            32.806413
          ],
          [
            34.987198,
            32.806612
          ],
          [
            34.98715,
            32.806725
          ],
          [
            34.987032,
            32.807019
          ],
          [
            34.986861,
            32.807302
          ],
          [
            34.986725,
            32.807459
          ],
          [
            34.98653,
            32.807682
          ],
          [
            34.98631,
            32.807931
          ],
          [
            34.986222,
            32.808023
          ],
          [
            34.986125,
            32.808122
          ],
          [
            34.985984,
            32.808286
          ],
          [
            34.985873,
            32.808409
          ],
          [
            34.985752,
            32.808567
          ],
          [
            34.985179,
            32.809171
          ],
          [
            34.984995,
            32.809375
          ],
          [
            34.984952,
            32.809422
          ],
          [
            34.9847,
            32.809688
          ],
          [
            34.984498,
            32.8099
          ],
          [
            34.984336,
            32.810083
          ],
          [
            34.984274,
            32.810149
          ],
          [
            34.983732,
            32.810747
          ],
          [
            34.983528,
            32.810982
          ],
          [
            34.983466,
            32.811053
          ],
          [
            34.983217,
            32.811316
          ],
          [
            34.982644,
            32.811988
          ],
          [
            34.982502,
            32.812156
          ],
          [
            34.982006,
            32.812722
          ],
          [
            34.981894,
            32.812849
          ],
          [
            34.981479,
            32.813262
          ],
          [
            34.981291,
            32.813461
          ],
          [
            34.981244,
            32.813538
          ],
          [
            34.981241,
            32.813555
          ],
          [
            34.981238,
            32.813567
          ],
          [
            34.981233,
            32.813578
          ],
          [
            34.981226,
            32.813589
          ],
          [
            34.981217,
            32.813599
          ],
          [
            34.981208,
            32.813608
          ],
          [
            34.981197,
            32.813616
          ],
          [
            34.981182,
            32.813623
          ],
          [
            34.981165,
            32.81363
          ],
          [
            34.981144,
            32.813634
          ],
          [
            34.981122,
            32.813635
          ],
          [
            34.981104,
            32.813633
          ],
          [
            34.981043,
            32.813642
          ],
          [
            34.980987,
            32.813666
          ],
          [
            34.979908,
            32.814254
          ],
          [
            34.979565,
            32.814434
          ],
          [
            34.979029,
            32.814711
          ],
          [
            34.978884,
            32.814811
          ],
          [
            34.97881,
            32.814902
          ],
          [
            34.978785,
            32.815014
          ],
          [
            34.978809,
            32.815137
          ],
          [
            34.978939,
            32.815375
          ],
          [
            34.97908,
            32.815587
          ],
          [
            34.97916,
            32.815733
          ],
          [
            34.979232,
            32.815864
          ],
          [
            34.979381,
            32.816135
          ],
          [
            34.979448,
            32.816228
          ],
          [
            34.979486,
            32.81627
          ],
          [
            34.979529,
            32.816325
          ],
          [
            34.979548,
            32.816363
          ],
          [
            34.979555,
            32.816399
          ],
          [
            34.979557,
            32.816407
          ],
          [
            34.97955,
            32.816454
          ],
          [
            34.979528,
            32.816496
          ],
          [
            34.979483,
            32.81656
          ],
          [
            34.979442,
            32.816588
          ],
          [
            34.979268,
            32.816697
          ],
          [
            34.978954,
            32.816959
          ],
          [
            34.978776,
            32.817078
          ],
          [
            34.978331,
            32.817262
          ],
          [
            34.977833,
            32.817482
          ],
          [
            34.977724,
            32.817536
          ],
          [
            34.977598,
            32.817613
          ],
          [
            34.977572,
            32.817674
          ],
          [
            34.977525,
            32.81773
          ],
          [
            34.977294,
            32.817954
          ],
          [
            34.977193,
            32.818045
          ],
          [
            34.976651,
            32.818495
          ],
          [
            34.976366,
            32.81874
          ],
          [
            34.976366,
            32.818752
          ],
          [
            34.976363,
            32.818767
          ],
          [
            34.976359,
            32.818777
          ],
          [
            34.976352,
            32.818789
          ],
          [
            34.976344,
            32.818799
          ],
          [
            34.976336,
            32.818807
          ],
          [
            34.976321,
            32.818816
          ],
          [
            34.97631,
            32.818822
          ],
          [
            34.976299,
            32.818825
          ],
          [
            34.976281,
            32.818829
          ],
          [
            34.976269,
            32.81883
          ],
          [
            34.976255,
            32.818829
          ],
          [
            34.976056,
            32.818986
          ],
          [
            34.976028,
            32.819009
          ],
          [
            34.975642,
            32.819324
          ],
          [
            34.975245,
            32.819667
          ],
          [
            34.975067,
            32.81982
          ],
          [
            34.974775,
            32.820096
          ],
          [
            34.974546,
            32.820319
          ],
          [
            34.974411,
            32.820491
          ],
          [
            34.974403,
            32.820502
          ],
          [
            34.974323,
            32.820615
          ],
          [
            34.974228,
            32.820841
          ],
          [
            34.974167,
            32.821013
          ],
          [
            34.974153,
            32.821107
          ],
          [
            34.974138,
            32.821203
          ],
          [
            34.974125,
            32.821297
          ],
          [
            34.974135,
            32.821834
          ],
          [
            34.974114,
            32.822284
          ],
          [
            34.974073,
            32.822461
          ],
          [
            34.974007,
            32.822657
          ],
          [
            34.973969,
            32.822749
          ],
          [
            34.973943,
            32.822805
          ],
          [
            34.973817,
            32.822952
          ],
          [
            34.973739,
            32.823027
          ],
          [
            34.973448,
            32.82322
          ],
          [
            34.973008,
            32.823522
          ],
          [
            34.972633,
            32.823761
          ],
          [
            34.972568,
            32.823799
          ],
          [
            34.97248,
            32.82385
          ],
          [
            34.972324,
            32.82392
          ],
          [
            34.971847,
            32.824152
          ],
          [
            34.97085,
            32.824683
          ],
          [
            34.970793,
            32.824618
          ],
          [
            34.970733,
            32.824425
          ],
          [
            34.970721,
            32.824392
          ],
          [
            34.970715,
            32.824342
          ],
          [
            34.970743,
            32.824062
          ],
          [
            34.970748,
            32.824017
          ],
          [
            34.970752,
            32.823931
          ],
          [
            34.970753,
            32.8239
          ],
          [
            34.970731,
            32.823737
          ],
          [
            34.97072,
            32.823598
          ],
          [
            34.970698,
            32.823484
          ],
          [
            34.970703,
            32.823395
          ],
          [
            34.970713,
            32.823352
          ],
          [
            34.970737,
            32.823319
          ],
          [
            34.970774,
            32.823294
          ],
          [
            34.970862,
            32.823257
          ],
          [
            34.970975,
            32.823237
          ],
          [
            34.970998,
            32.823234
          ],
          [
            34.971317,
            32.823203
          ],
          [
            34.971802,
            32.823115
          ],
          [
            34.972271,
            32.822985
          ],
          [
            34.972427,
            32.822936
          ],
          [
            34.972567,
            32.822849
          ],
          [
            34.972695,
            32.82277
          ],
          [
            34.972808,
            32.822678
          ],
          [
            34.972831,
            32.822638
          ],
          [
            34.972871,
            32.822569
          ],
          [
            34.972917,
            32.822442
          ],
          [
            34.972951,
            32.822304
          ],
          [
            34.972964,
            32.82217
          ],
          [
            34.972969,
            32.822042
          ],
          [
            34.97291,
            32.821879
          ],
          [
            34.972868,
            32.821805
          ],
          [
            34.972793,
            32.821714
          ],
          [
            34.972536,
            32.821574
          ],
          [
            34.972508,
            32.821559
          ],
          [
            34.972429,
            32.821548
          ],
          [
            34.972363,
            32.821535
          ],
          [
            34.972253,
            32.821508
          ],
          [
            34.972224,
            32.821494
          ],
          [
            34.97216,
            32.821462
          ],
          [
            34.971952,
            32.821442
          ],
          [
            34.971639,
            32.821392
          ],
          [
            34.971357,
            32.821347
          ],
          [
            34.971303,
            32.821338
          ],
          [
            34.971063,
            32.8213
          ],
          [
            34.970766,
            32.821253
          ],
          [
            34.970701,
            32.821242
          ],
          [
            34.970479,
            32.821213
          ],
          [
            34.970173,
            32.821161
          ],
          [
            34.969607,
            32.821065
          ],
          [
            34.969516,
            32.821026
          ],
          [
            34.969471,
            32.820958
          ],
          [
            34.9693,
            32.820363
          ],
          [
            34.969116,
            32.819847
          ],
          [
            34.969044,
            32.819798
          ],
          [
            34.968948,
            32.819781
          ],
          [
            34.96877,
            32.819801
          ],
          [
            34.968288,
            32.819874
          ],
          [
            34.968218,
            32.819904
          ],
          [
            34.968021,
            32.8201
          ],
          [
            34.967901,
            32.820212
          ],
          [
            34.967804,
            32.820304
          ],
          [
            34.966713,
            32.821363
          ],
          [
            34.96653,
            32.821545
          ],
          [
            34.966493,
            32.821624
          ],
          [
            34.966485,
            32.821639
          ],
          [
            34.966478,
            32.821647
          ],
          [
            34.96647,
            32.821654
          ],
          [
            34.966461,
            32.82166
          ],
          [
            34.966455,
            32.821663
          ],
          [
            34.966436,
            32.821671
          ],
          [
            34.966425,
            32.821674
          ],
          [
            34.966413,
            32.821675
          ],
          [
            34.966396,
            32.821675
          ],
          [
            34.966385,
            32.821673
          ],
          [
            34.966374,
            32.82167
          ],
          [
            34.966363,
            32.821666
          ],
          [
            34.966356,
            32.821662
          ],
          [
            34.966351,
            32.821666
          ],
          [
            34.96631,
            32.821746
          ],
          [
            34.96626,
            32.821827
          ],
          [
            34.966216,
            32.821906
          ],
          [
            34.966204,
            32.821961
          ],
          [
            34.966203,
            32.822005
          ],
          [
            34.96621,
            32.822141
          ],
          [
            34.966234,
            32.822229
          ],
          [
            34.966243,
            32.822294
          ],
          [
            34.966243,
            32.822354
          ],
          [
            34.96622,
            32.822428
          ],
          [
            34.966208,
            32.822488
          ],
          [
            34.966106,
            32.822469
          ],
          [
            34.965946,
            32.822432
          ],
          [
            34.965637,
            32.822344
          ],
          [
            34.965477,
            32.822278
          ],
          [
            34.96509,
            32.822114
          ],
          [
            34.965064,
            32.822103
          ],
          [
            34.964921,
            32.822027
          ],
          [
            34.964756,
            32.82195
          ],
          [
            34.964641,
            32.821883
          ],
          [
            34.964509,
            32.821798
          ],
          [
            34.964352,
            32.821705
          ],
          [
            34.964329,
            32.821702
          ],
          [
            34.964312,
            32.821695
          ],
          [
            34.964293,
            32.821689
          ],
          [
            34.964262,
            32.82166
          ],
          [
            34.964252,
            32.821637
          ],
          [
            34.964249,
            32.821611
          ],
          [
            34.964256,
            32.821585
          ],
          [
            34.964266,
            32.821565
          ],
          [
            34.964282,
            32.821551
          ],
          [
            34.963648,
            32.820938
          ],
          [
            34.963561,
            32.820854
          ],
          [
            34.962969,
            32.820331
          ],
          [
            34.962799,
            32.82018
          ],
          [
            34.962635,
            32.820079
          ],
          [
            34.962462,
            32.819992
          ],
          [
            34.962278,
            32.819911
          ],
          [
            34.962151,
            32.819869
          ],
          [
            34.962009,
            32.819846
          ],
          [
            34.961713,
            32.819867
          ],
          [
            34.96106,
            32.81995
          ],
          [
            34.960714,
            32.819991
          ],
          [
            34.960716,
            32.820001
          ],
          [
            34.960717,
            32.820013
          ],
          [
            34.960716,
            32.820025
          ],
          [
            34.960713,
            32.820037
          ],
          [
            34.960706,
            32.820054
          ],
          [
            34.960699,
            32.820065
          ],
          [
            34.960691,
            32.820075
          ],
          [
            34.960681,
            32.820083
          ],
          [
            34.96067,
            32.820091
          ],
          [
            34.960658,
            32.820098
          ],
          [
            34.960645,
            32.820103
          ],
          [
            34.960631,
            32.820107
          ],
          [
            34.960617,
            32.820109
          ],
          [
            34.960603,
            32.82011
          ],
          [
            34.960592,
            32.82011
          ],
          [
            34.960574,
            32.820108
          ],
          [
            34.960554,
            32.820102
          ],
          [
            34.960535,
            32.820093
          ],
          [
            34.960519,
            32.820081
          ],
          [
            34.960505,
            32.820067
          ],
          [
            34.960495,
            32.820051
          ],
          [
            34.960488,
            32.820033
          ],
          [
            34.960486,
            32.820018
          ],
          [
            34.960181,
            32.820057
          ],
          [
            34.959876,
            32.820097
          ],
          [
            34.95966,
            32.820126
          ],
          [
            34.959579,
            32.820135
          ],
          [
            34.959149,
            32.820187
          ],
          [
            34.958914,
            32.820215
          ],
          [
            34.958914,
            32.820242
          ],
          [
            34.958907,
            32.820263
          ],
          [
            34.958891,
            32.820287
          ],
          [
            34.958864,
            32.820303
          ],
          [
            34.958834,
            32.820314
          ],
          [
            34.958805,
            32.820314
          ],
          [
            34.958784,
            32.820312
          ],
          [
            34.958755,
            32.820305
          ],
          [
            34.958721,
            32.820278
          ],
          [
            34.958707,
            32.820241
          ],
          [
            34.958707,
            32.82021
          ],
          [
            34.958714,
            32.820192
          ],
          [
            34.958716,
            32.820185
          ],
          [
            34.958735,
            32.820163
          ],
          [
            34.958732,
            32.820063
          ],
          [
            34.95869,
            32.819844
          ],
          [
            34.95865,
            32.819655
          ],
          [
            34.958612,
            32.819459
          ],
          [
            34.958594,
            32.819279
          ],
          [
            34.958578,
            32.818959
          ],
          [
            34.958578,
            32.818913
          ],
          [
            34.958598,
            32.818798
          ],
          [
            34.958632,
            32.818687
          ],
          [
            34.958716,
            32.818405
          ],
          [
            34.958803,
            32.818201
          ],
          [
            34.959013,
            32.817905
          ],
          [
            34.959164,
            32.817705
          ],
          [
            34.959249,
            32.817583
          ],
          [
            34.959315,
            32.817459
          ],
          [
            34.959314,
            32.817448
          ],
          [
            34.959316,
            32.817437
          ],
          [
            34.959319,
            32.817427
          ],
          [
            34.959323,
            32.817417
          ],
          [
            34.959329,
            32.817407
          ],
          [
            34.959337,
            32.817398
          ],
          [
            34.959345,
            32.81739
          ],
          [
            34.95936,
            32.81738
          ],
          [
            34.959379,
            32.817372
          ],
          [
            34.959391,
            32.817369
          ],
          [
            34.959404,
            32.817366
          ],
          [
            34.959418,
            32.817365
          ],
          [
            34.959431,
            32.817365
          ],
          [
            34.959445,
            32.817367
          ],
          [
            34.959458,
            32.817369
          ],
          [
            34.95947,
            32.817373
          ],
          [
            34.959482,
            32.817379
          ],
          [
            34.959493,
            32.817385
          ],
          [
            34.959502,
            32.817392
          ],
          [
            34.959511,
            32.817401
          ],
          [
            34.959518,
            32.81741
          ],
          [
            34.959524,
            32.817419
          ],
          [
            34.959527,
            32.817428
          ],
          [
            34.959529,
            32.817435
          ],
          [
            34.959531,
            32.817445
          ],
          [
            34.95953,
            32.817461
          ],
          [
            34.959526,
            32.817477
          ],
          [
            34.959518,
            32.817492
          ],
          [
            34.959573,
            32.817504
          ],
          [
            34.959688,
            32.817545
          ],
          [
            34.95981,
            32.817578
          ],
          [
            34.959905,
            32.817587
          ],
          [
            34.96002,
            32.817573
          ],
          [
            34.960142,
            32.817536
          ],
          [
            34.960098,
            32.817812
          ],
          [
            34.960075,
            32.818055
          ],
          [
            34.960017,
            32.818211
          ],
          [
            34.959978,
            32.818367
          ],
          [
            34.959994,
            32.818409
          ],
          [
            34.96001,
            32.818482
          ],
          [
            34.960033,
            32.818532
          ],
          [
            34.960073,
            32.818594
          ],
          [
            34.96011,
            32.818642
          ],
          [
            34.960154,
            32.818688
          ],
          [
            34.960219,
            32.818734
          ],
          [
            34.960286,
            32.818767
          ],
          [
            34.960382,
            32.818796
          ],
          [
            34.960536,
            32.818828
          ],
          [
            34.960633,
            32.818843
          ],
          [
            34.960716,
            32.818848
          ],
          [
            34.960827,
            32.818845
          ],
          [
            34.961012,
            32.818784
          ],
          [
            34.961149,
            32.818719
          ],
          [
            34.961291,
            32.818661
          ],
          [
            34.961387,
            32.818627
          ],
          [
            34.961451,
            32.818603
          ],
          [
            34.961537,
            32.818579
          ],
          [
            34.961635,
            32.818564
          ],
          [
            34.96172,
            32.818555
          ],
          [
            34.961901,
            32.818543
          ],
          [
            34.96245,
            32.818515
          ],
          [
            34.962928,
            32.818493
          ],
          [
            34.963465,
            32.818473
          ],
          [
            34.963735,
            32.818468
          ],
          [
            34.963847,
            32.818441
          ],
          [
            34.963895,
            32.818411
          ],
          [
            34.963936,
            32.818278
          ],
          [
            34.964,
            32.818024
          ],
          [
            34.964013,
            32.817924
          ],
          [
            34.964369,
            32.817879
          ],
          [
            34.964599,
            32.817851
          ],
          [
            34.964945,
            32.817828
          ],
          [
            34.965634,
            32.817767
          ],
          [
            34.965821,
            32.817743
          ],
          [
            34.966713,
            32.817512
          ],
          [
            34.967162,
            32.817394
          ],
          [
            34.967518,
            32.817229
          ],
          [
            34.967803,
            32.817117
          ],
          [
            34.968108,
            32.817046
          ],
          [
            34.968228,
            32.817037
          ],
          [
            34.968348,
            32.817055
          ],
          [
            34.968463,
            32.817117
          ],
          [
            34.968529,
            32.817186
          ],
          [
            34.968567,
            32.817289
          ],
          [
            34.968551,
            32.817385
          ],
          [
            34.968475,
            32.817481
          ],
          [
            34.968379,
            32.817548
          ],
          [
            34.968308,
            32.817607
          ],
          [
            34.968241,
            32.817684
          ],
          [
            34.968063,
            32.817915
          ],
          [
            34.967911,
            32.818033
          ],
          [
            34.96762,
            32.818157
          ],
          [
            34.967521,
            32.8182
          ],
          [
            34.967374,
            32.818232
          ],
          [
            34.966798,
            32.818335
          ],
          [
            34.966284,
            32.818405
          ],
          [
            34.965678,
            32.818468
          ],
          [
            34.965558,
            32.818462
          ],
          [
            34.965355,
            32.818401
          ],
          [
            34.965122,
            32.81832
          ],
          [
            34.96478,
            32.81818
          ],
          [
            34.964736,
            32.81817
          ],
          [
            34.964402,
            32.818096
          ],
          [
            34.964358,
            32.818077
          ],
          [
            34.964325,
            32.818053
          ],
          [
            34.964163,
            32.817963
          ],
          [
            34.964117,
            32.817947
          ],
          [
            34.964013,
            32.817924
          ],
          [
            34.963506,
            32.817954
          ],
          [
            34.963308,
            32.817969
          ],
          [
            34.962642,
            32.818002
          ],
          [
            34.962437,
            32.817933
          ],
          [
            34.962371,
            32.817912
          ],
          [
            34.961852,
            32.817757
          ],
          [
            34.961569,
            32.817664
          ],
          [
            34.961313,
            32.817591
          ],
          [
            34.96113,
            32.817538
          ],
          [
            34.960913,
            32.817472
          ],
          [
            34.960653,
            32.81742
          ],
          [
            34.960366,
            32.817466
          ],
          [
            34.960142,
            32.817536
          ],
          [
            34.96002,
            32.817573
          ],
          [
            34.959905,
            32.817587
          ],
          [
            34.95981,
            32.817578
          ],
          [
            34.959688,
            32.817545
          ],
          [
            34.959573,
            32.817504
          ],
          [
            34.959518,
            32.817492
          ],
          [
            34.959511,
            32.817501
          ],
          [
            34.959502,
            32.817509
          ],
          [
            34.959487,
            32.817519
          ],
          [
            34.95947,
            32.817528
          ],
          [
            34.959451,
            32.817533
          ],
          [
            34.959437,
            32.817535
          ],
          [
            34.959424,
            32.817536
          ],
          [
            34.959404,
            32.817535
          ],
          [
            34.959384,
            32.817531
          ],
          [
            34.959372,
            32.817526
          ],
          [
            34.959361,
            32.817521
          ],
          [
            34.95935,
            32.817514
          ],
          [
            34.959341,
            32.817506
          ],
          [
            34.959329,
            32.817493
          ],
          [
            34.95932,
            32.817479
          ],
          [
            34.959317,
            32.817469
          ],
          [
            34.959315,
            32.817459
          ],
          [
            34.959314,
            32.817448
          ],
          [
            34.959316,
            32.817437
          ],
          [
            34.959319,
            32.817427
          ],
          [
            34.959323,
            32.817417
          ],
          [
            34.959329,
            32.817407
          ],
          [
            34.959337,
            32.817398
          ],
          [
            34.959345,
            32.81739
          ],
          [
            34.95936,
            32.81738
          ],
          [
            34.959459,
            32.81725
          ],
          [
            34.959564,
            32.817094
          ],
          [
            34.959694,
            32.816902
          ],
          [
            34.959813,
            32.816684
          ],
          [
            34.959819,
            32.81667
          ],
          [
            34.959889,
            32.81651
          ],
          [
            34.95996,
            32.816318
          ],
          [
            34.96,
            32.816161
          ],
          [
            34.960017,
            32.816054
          ],
          [
            34.960055,
            32.815791
          ],
          [
            34.960092,
            32.815598
          ],
          [
            34.960102,
            32.815541
          ],
          [
            34.960123,
            32.815443
          ],
          [
            34.960197,
            32.815119
          ],
          [
            34.960292,
            32.814765
          ],
          [
            34.96042,
            32.814407
          ],
          [
            34.960479,
            32.814239
          ],
          [
            34.960559,
            32.814055
          ],
          [
            34.960581,
            32.813992
          ],
          [
            34.960614,
            32.813914
          ],
          [
            34.96064,
            32.813626
          ],
          [
            34.960574,
            32.813161
          ],
          [
            34.960531,
            32.812713
          ],
          [
            34.960512,
            32.812551
          ],
          [
            34.960482,
            32.812196
          ],
          [
            34.960464,
            32.812193
          ],
          [
            34.960443,
            32.812186
          ],
          [
            34.96043,
            32.812179
          ],
          [
            34.960413,
            32.812167
          ],
          [
            34.960403,
            32.812157
          ],
          [
            34.960391,
            32.812141
          ],
          [
            34.960383,
            32.812124
          ],
          [
            34.96038,
            32.812111
          ],
          [
            34.960379,
            32.812092
          ],
          [
            34.96038,
            32.81208
          ],
          [
            34.960383,
            32.812067
          ],
          [
            34.960392,
            32.81205
          ],
          [
            34.960402,
            32.812036
          ],
          [
            34.9602,
            32.811526
          ],
          [
            34.960188,
            32.811452
          ],
          [
            34.960183,
            32.811393
          ],
          [
            34.960186,
            32.811341
          ],
          [
            34.960195,
            32.811284
          ],
          [
            34.960218,
            32.81119
          ],
          [
            34.960422,
            32.810812
          ],
          [
            34.96042,
            32.810798
          ],
          [
            34.960421,
            32.810785
          ],
          [
            34.960424,
            32.810773
          ],
          [
            34.96043,
            32.810764
          ],
          [
            34.960439,
            32.810752
          ],
          [
            34.960446,
            32.810746
          ],
          [
            34.960454,
            32.810741
          ],
          [
            34.960463,
            32.810736
          ],
          [
            34.960472,
            32.810733
          ],
          [
            34.960489,
            32.810729
          ],
          [
            34.960752,
            32.810407
          ],
          [
            34.961158,
            32.8099
          ],
          [
            34.961453,
            32.809537
          ],
          [
            34.961594,
            32.809385
          ],
          [
            34.961874,
            32.808993
          ],
          [
            34.961992,
            32.808813
          ],
          [
            34.962285,
            32.808395
          ],
          [
            34.962514,
            32.808065
          ],
          [
            34.962602,
            32.807937
          ],
          [
            34.962687,
            32.807814
          ],
          [
            34.962794,
            32.807548
          ],
          [
            34.962875,
            32.807346
          ],
          [
            34.962907,
            32.807269
          ],
          [
            34.96298,
            32.807008
          ],
          [
            34.963165,
            32.806566
          ],
          [
            34.963481,
            32.806165
          ],
          [
            34.963541,
            32.8061
          ],
          [
            34.963752,
            32.805929
          ],
          [
            34.963982,
            32.805762
          ],
          [
            34.964003,
            32.805749
          ],
          [
            34.964206,
            32.805624
          ],
          [
            34.96454,
            32.805422
          ],
          [
            34.964814,
            32.805209
          ],
          [
            34.965114,
            32.80494
          ],
          [
            34.965939,
            32.803862
          ],
          [
            34.96642,
            32.8032
          ],
          [
            34.966837,
            32.802645
          ],
          [
            34.966936,
            32.802499
          ],
          [
            34.967123,
            32.802161
          ],
          [
            34.967222,
            32.801965
          ],
          [
            34.967334,
            32.801651
          ],
          [
            34.967406,
            32.801264
          ],
          [
            34.967379,
            32.80079
          ],
          [
            34.967364,
            32.800509
          ],
          [
            34.967351,
            32.80044
          ],
          [
            34.967334,
            32.800317
          ],
          [
            34.967313,
            32.800094
          ],
          [
            34.967297,
            32.799989
          ],
          [
            34.96717,
            32.799159
          ],
          [
            34.9671,
            32.798654
          ],
          [
            34.967087,
            32.798558
          ],
          [
            34.967042,
            32.798199
          ],
          [
            34.966992,
            32.798054
          ],
          [
            34.966895,
            32.797897
          ],
          [
            34.966884,
            32.797891
          ],
          [
            34.966874,
            32.797885
          ],
          [
            34.966865,
            32.797878
          ],
          [
            34.966858,
            32.79787
          ],
          [
            34.966849,
            32.797856
          ],
          [
            34.966845,
            32.797847
          ],
          [
            34.966842,
            32.797837
          ],
          [
            34.966841,
            32.797827
          ],
          [
            34.966842,
            32.797816
          ],
          [
            34.966845,
            32.797801
          ],
          [
            34.966852,
            32.797787
          ],
          [
            34.966858,
            32.797778
          ],
          [
            34.966866,
            32.79777
          ],
          [
            34.966879,
            32.79776
          ],
          [
            34.966895,
            32.797752
          ],
          [
            34.966906,
            32.797748
          ],
          [
            34.966918,
            32.797745
          ],
          [
            34.96693,
            32.797743
          ],
          [
            34.966943,
            32.797742
          ],
          [
            34.966961,
            32.797744
          ],
          [
            34.967008,
            32.797571
          ],
          [
            34.967034,
            32.797437
          ],
          [
            34.96706,
            32.797275
          ],
          [
            34.967069,
            32.797114
          ],
          [
            34.967069,
            32.796923
          ],
          [
            34.967028,
            32.796566
          ],
          [
            34.96702,
            32.796566
          ],
          [
            34.967011,
            32.796564
          ],
          [
            34.966998,
            32.796559
          ],
          [
            34.966987,
            32.796553
          ],
          [
            34.966977,
            32.796545
          ],
          [
            34.966971,
            32.796539
          ],
          [
            34.966967,
            32.796532
          ],
          [
            34.966962,
            32.796522
          ],
          [
            34.966959,
            32.79651
          ],
          [
            34.966959,
            32.796499
          ],
          [
            34.966962,
            32.796488
          ],
          [
            34.966967,
            32.796477
          ],
          [
            34.966974,
            32.796467
          ],
          [
            34.966984,
            32.796459
          ],
          [
            34.966995,
            32.796452
          ],
          [
            34.967007,
            32.796447
          ],
          [
            34.96702,
            32.796444
          ],
          [
            34.967029,
            32.796443
          ],
          [
            34.967038,
            32.796443
          ],
          [
            34.967052,
            32.796445
          ],
          [
            34.967064,
            32.796449
          ],
          [
            34.967076,
            32.796455
          ],
          [
            34.967086,
            32.796463
          ],
          [
            34.967095,
            32.796472
          ],
          [
            34.967101,
            32.796482
          ],
          [
            34.967103,
            32.79649
          ],
          [
            34.967105,
            32.796497
          ],
          [
            34.967105,
            32.796509
          ],
          [
            34.967103,
            32.79652
          ],
          [
            34.967099,
            32.796531
          ],
          [
            34.967094,
            32.796538
          ],
          [
            34.967089,
            32.796544
          ],
          [
            34.967079,
            32.796552
          ],
          [
            34.967068,
            32.796559
          ],
          [
            34.967056,
            32.796563
          ],
          [
            34.967042,
            32.796566
          ],
          [
            34.967028,
            32.796566
          ],
          [
            34.96702,
            32.796566
          ],
          [
            34.967011,
            32.796564
          ],
          [
            34.966998,
            32.796559
          ],
          [
            34.966987,
            32.796553
          ],
          [
            34.966977,
            32.796545
          ],
          [
            34.966971,
            32.796539
          ],
          [
            34.966967,
            32.796532
          ],
          [
            34.966962,
            32.796522
          ],
          [
            34.966959,
            32.79651
          ],
          [
            34.966959,
            32.796499
          ],
          [
            34.966962,
            32.796488
          ],
          [
            34.966967,
            32.796477
          ],
          [
            34.966974,
            32.796467
          ],
          [
            34.966984,
            32.796459
          ],
          [
            34.966995,
            32.796452
          ],
          [
            34.967007,
            32.796447
          ],
          [
            34.96702,
            32.796444
          ],
          [
            34.967029,
            32.796443
          ],
          [
            34.967038,
            32.796443
          ],
          [
            34.967124,
            32.794426
          ],
          [
            34.967106,
            32.794424
          ],
          [
            34.967092,
            32.794421
          ],
          [
            34.967077,
            32.794417
          ],
          [
            34.967058,
            32.794408
          ],
          [
            34.967041,
            32.794395
          ],
          [
            34.967031,
            32.794386
          ],
          [
            34.967023,
            32.794375
          ],
          [
            34.967014,
            32.794359
          ],
          [
            34.966629,
            32.794362
          ],
          [
            34.966048,
            32.794371
          ],
          [
            34.965944,
            32.794373
          ],
          [
            34.965212,
            32.794354
          ],
          [
            34.964752,
            32.794358
          ],
          [
            34.964523,
            32.794352
          ],
          [
            34.964414,
            32.794351
          ],
          [
            34.964354,
            32.794333
          ],
          [
            34.964347,
            32.794348
          ],
          [
            34.964341,
            32.794357
          ],
          [
            34.964333,
            32.794366
          ],
          [
            34.964324,
            32.794374
          ],
          [
            34.964314,
            32.794382
          ],
          [
            34.964303,
            32.794388
          ],
          [
            34.964291,
            32.794393
          ],
          [
            34.964275,
            32.794397
          ],
          [
            34.964266,
            32.794398
          ],
          [
            34.964253,
            32.794399
          ],
          [
            34.964233,
            32.794398
          ],
          [
            34.96422,
            32.794395
          ],
          [
            34.964208,
            32.794391
          ],
          [
            34.964191,
            32.794383
          ],
          [
            34.96418,
            32.794376
          ],
          [
            34.964171,
            32.794368
          ],
          [
            34.96416,
            32.794355
          ],
          [
            34.964151,
            32.794339
          ],
          [
            34.964148,
            32.794329
          ],
          [
            34.964146,
            32.794321
          ],
          [
            34.964146,
            32.794307
          ],
          [
            34.964148,
            32.79429
          ],
          [
            34.964154,
            32.794274
          ],
          [
            34.964164,
            32.79426
          ],
          [
            34.964176,
            32.794247
          ],
          [
            34.964191,
            32.794236
          ],
          [
            34.964208,
            32.794228
          ],
          [
            34.964228,
            32.794222
          ],
          [
            34.964225,
            32.794166
          ],
          [
            34.964226,
            32.794086
          ],
          [
            34.964248,
            32.793707
          ],
          [
            34.964277,
            32.793381
          ],
          [
            34.964269,
            32.793166
          ],
          [
            34.964291,
            32.792752
          ],
          [
            34.964302,
            32.792634
          ],
          [
            34.96431,
            32.792599
          ],
          [
            34.964318,
            32.792448
          ],
          [
            34.964327,
            32.792374
          ],
          [
            34.964354,
            32.792155
          ],
          [
            34.964358,
            32.792093
          ],
          [
            34.964392,
            32.791596
          ],
          [
            34.964401,
            32.791461
          ],
          [
            34.964433,
            32.791183
          ],
          [
            34.964452,
            32.790655
          ],
          [
            34.964421,
            32.790554
          ],
          [
            34.964383,
            32.790504
          ],
          [
            34.964314,
            32.790456
          ],
          [
            34.964173,
            32.790397
          ],
          [
            34.963185,
            32.790383
          ],
          [
            34.963063,
            32.790373
          ],
          [
            34.962273,
            32.790356
          ],
          [
            34.962185,
            32.790362
          ],
          [
            34.962103,
            32.790363
          ],
          [
            34.961669,
            32.790356
          ],
          [
            34.961396,
            32.790343
          ],
          [
            34.961088,
            32.790327
          ],
          [
            34.960794,
            32.790305
          ],
          [
            34.960338,
            32.790255
          ],
          [
            34.960274,
            32.790247
          ],
          [
            34.960217,
            32.790243
          ],
          [
            34.959962,
            32.790247
          ],
          [
            34.959612,
            32.790236
          ],
          [
            34.959414,
            32.790239
          ],
          [
            34.959322,
            32.790248
          ],
          [
            34.959243,
            32.790258
          ],
          [
            34.959171,
            32.790277
          ],
          [
            34.959118,
            32.790296
          ],
          [
            34.959033,
            32.790338
          ],
          [
            34.958971,
            32.790371
          ],
          [
            34.958922,
            32.790415
          ],
          [
            34.958872,
            32.790467
          ],
          [
            34.958832,
            32.790513
          ],
          [
            34.958777,
            32.790613
          ],
          [
            34.958733,
            32.790701
          ],
          [
            34.958583,
            32.791034
          ],
          [
            34.958551,
            32.791147
          ],
          [
            34.9585,
            32.791279
          ],
          [
            34.958441,
            32.791394
          ],
          [
            34.958366,
            32.791488
          ],
          [
            34.958188,
            32.791677
          ],
          [
            34.95813,
            32.791728
          ],
          [
            34.958065,
            32.79179
          ],
          [
            34.957999,
            32.791836
          ],
          [
            34.95792,
            32.791913
          ],
          [
            34.957881,
            32.791961
          ],
          [
            34.957831,
            32.792024
          ],
          [
            34.957783,
            32.792098
          ],
          [
            34.957737,
            32.792185
          ],
          [
            34.957721,
            32.792231
          ],
          [
            34.957707,
            32.792282
          ],
          [
            34.957701,
            32.792308
          ],
          [
            34.957687,
            32.792386
          ],
          [
            34.95768,
            32.792433
          ],
          [
            34.957683,
            32.792558
          ],
          [
            34.957723,
            32.792638
          ],
          [
            34.957743,
            32.79267
          ],
          [
            34.957763,
            32.792695
          ],
          [
            34.957802,
            32.792736
          ],
          [
            34.957842,
            32.792766
          ],
          [
            34.957879,
            32.792788
          ],
          [
            34.95792,
            32.792805
          ],
          [
            34.957965,
            32.792813
          ],
          [
            34.958019,
            32.792819
          ],
          [
            34.958096,
            32.792817
          ],
          [
            34.958198,
            32.792808
          ],
          [
            34.958668,
            32.792745
          ],
          [
            34.958816,
            32.792743
          ],
          [
            34.958936,
            32.792752
          ],
          [
            34.958996,
            32.792763
          ],
          [
            34.959026,
            32.792768
          ],
          [
            34.959115,
            32.792788
          ],
          [
            34.959214,
            32.792815
          ],
          [
            34.959336,
            32.792864
          ],
          [
            34.959465,
            32.792924
          ],
          [
            34.959578,
            32.79298
          ],
          [
            34.959664,
            32.793026
          ],
          [
            34.959738,
            32.793094
          ],
          [
            34.959762,
            32.79312
          ],
          [
            34.959784,
            32.79315
          ],
          [
            34.959798,
            32.793181
          ],
          [
            34.959801,
            32.793196
          ],
          [
            34.959805,
            32.793213
          ],
          [
            34.959804,
            32.79324
          ],
          [
            34.959793,
            32.793265
          ],
          [
            34.959774,
            32.793286
          ],
          [
            34.959742,
            32.793305
          ],
          [
            34.959702,
            32.793323
          ],
          [
            34.959587,
            32.793323
          ]
        ]
      }
    },
    {
      "type": "Feature",
      "properties": {
        "type": "original_route_stop",
        "stop_code": "41225",
        "stop_name": "ליאון בלום",
        "marker-color": "#2ca02c",
        "marker-symbol": "bus",
        "marker-size": "medium"
      },
      "geometry": {
        "type": "Point",
        "coordinates": [
          34.998088,
          32.798677
        ]
      }
    },
    {
      "type": "Feature",
      "properties": {
        "type": "original_route_stop",
        "stop_code": "41226",
        "stop_name": "ליאון בלום/ויינגייט",
        "marker-color": "#2ca02c",
        "marker-symbol": "bus",
        "marker-size": "medium"
      },
      "geometry": {
        "type": "Point",
        "coordinates": [
          34.996422,
          32.799383
        ]
      }
    },
    {
      "type": "Feature",
      "properties": {
        "type": "original_route_stop",
        "stop_code": "41559",
        "stop_name": "קיש/האסיף",
        "marker-color": "#2ca02c",
        "marker-symbol": "bus",
        "marker-size": "medium"
      },
      "geometry": {
        "type": "Point",
        "coordinates": [
          34.994715,
          32.80069
        ]
      }
    },
    {
      "type": "Feature",
      "properties": {
        "type": "original_route_stop",
        "stop_code": "41560",
        "stop_name": "קיש/הנרייטה סאלד",
        "marker-color": "#2ca02c",
        "marker-symbol": "bus",
        "marker-size": "medium"
      },
      "geometry": {
        "type": "Point",
        "coordinates": [
          34.993051,
          32.801436
        ]
      }
    },
    {
      "type": "Feature",
      "properties": {
        "type": "original_route_stop",
        "stop_code": "42223",
        "stop_name": "קיש/יפה נוף",
        "marker-color": "#2ca02c",
        "marker-symbol": "bus",
        "marker-size": "medium"
      },
      "geometry": {
        "type": "Point",
        "coordinates": [
          34.991337,
          32.802226
        ]
      }
    },
    {
      "type": "Feature",
      "properties": {
        "type": "original_route_stop",
        "stop_code": "41557",
        "stop_name": "בית חולים אלישע/ווגווד",
        "marker-color": "#2ca02c",
        "marker-symbol": "bus",
        "marker-size": "medium"
      },
      "geometry": {
        "type": "Point",
        "coordinates": [
          34.990438,
          32.801774
        ]
      }
    },
    {
      "type": "Feature",
      "properties": {
        "type": "original_route_stop",
        "stop_code": "42816",
        "stop_name": "ווגווד/הנשיא",
        "marker-color": "#2ca02c",
        "marker-symbol": "bus",
        "marker-size": "medium"
      },
      "geometry": {
        "type": "Point",
        "coordinates": [
          34.987595,
          32.80252
        ]
      }
    },
    {
      "type": "Feature",
      "properties": {
        "type": "original_route_stop",
        "stop_code": "41063",
        "stop_name": "מרכז הכרמל/שדרות הנשיא",
        "marker-color": "#2ca02c",
        "marker-symbol": "bus",
        "marker-size": "medium"
      },
      "geometry": {
        "type": "Point",
        "coordinates": [
          34.986942,
          32.803439
        ]
      }
    },
    {
      "type": "Feature",
      "properties": {
        "type": "original_route_stop",
        "stop_code": "41671",
        "stop_name": "תחנת כרמלית/מרכז הכרמל",
        "marker-color": "#2ca02c",
        "marker-symbol": "bus",
        "marker-size": "medium"
      },
      "geometry": {
        "type": "Point",
        "coordinates": [
          34.987833,
          32.804567
        ]
      }
    },
    {
      "type": "Feature",
      "properties": {
        "type": "original_route_stop",
        "stop_code": "42016",
        "stop_name": "הנשיא/מרכז פנורמה",
        "marker-color": "#2ca02c",
        "marker-symbol": "bus",
        "marker-size": "medium"
      },
      "geometry": {
        "type": "Point",
        "coordinates": [
          34.986857,
          32.807383
        ]
      }
    },
    {
      "type": "Feature",
      "properties": {
        "type": "original_route_stop",
        "stop_code": "41064",
        "stop_name": "מלון דן כרמל/הנשיא",
        "marker-color": "#2ca02c",
        "marker-symbol": "bus",
        "marker-size": "medium"
      },
      "geometry": {
        "type": "Point",
        "coordinates": [
          34.985473,
          32.808933
        ]
      }
    },
    {
      "type": "Feature",
      "properties": {
        "type": "original_route_stop",
        "stop_code": "41070",
        "stop_name": "הנשיא/דפנה",
        "marker-color": "#2ca02c",
        "marker-symbol": "bus",
        "marker-size": "medium"
      },
      "geometry": {
        "type": "Point",
        "coordinates": [
          34.983397,
          32.811198
        ]
      }
    },
    {
      "type": "Feature",
      "properties": {
        "type": "original_route_stop",
        "stop_code": "41072",
        "stop_name": "הנשיא/החורשה",
        "marker-color": "#2ca02c",
        "marker-symbol": "bus",
        "marker-size": "medium"
      },
      "geometry": {
        "type": "Point",
        "coordinates": [
          34.980406,
          32.814037
        ]
      }
    },
    {
      "type": "Feature",
      "properties": {
        "type": "original_route_stop",
        "stop_code": "41826",
        "stop_name": "טשרניחובסקי/היובל",
        "marker-color": "#2ca02c",
        "marker-symbol": "bus",
        "marker-size": "medium"
      },
      "geometry": {
        "type": "Point",
        "coordinates": [
          34.978966,
          32.817008
        ]
      }
    },
    {
      "type": "Feature",
      "properties": {
        "type": "original_route_stop",
        "stop_code": "42939",
        "stop_name": "טשרניחובסקי/זאב",
        "marker-color": "#2ca02c",
        "marker-symbol": "bus",
        "marker-size": "medium"
      },
      "geometry": {
        "type": "Point",
        "coordinates": [
          34.976216,
          32.818921
        ]
      }
    },
    {
      "type": "Feature",
      "properties": {
        "type": "original_route_stop",
        "stop_code": "41086",
        "stop_name": "סטפן וייז/אמיל זולא",
        "marker-color": "#2ca02c",
        "marker-symbol": "bus",
        "marker-size": "medium"
      },
      "geometry": {
        "type": "Point",
        "coordinates": [
          34.969284,
          32.820501
        ]
      }
    },
    {
      "type": "Feature",
      "properties": {
        "type": "original_route_stop",
        "stop_code": "41085",
        "stop_name": "ויקטור הוגו/כל ישראל חברים",
        "marker-color": "#2ca02c",
        "marker-symbol": "bus",
        "marker-size": "medium"
      },
      "geometry": {
        "type": "Point",
        "coordinates": [
          34.967738,
          32.820437
        ]
      }
    },
    {
      "type": "Feature",
      "properties": {
        "type": "original_route_stop",
        "stop_code": "41561",
        "stop_name": "ויקטור הוגו/אמיל זולא",
        "marker-color": "#2ca02c",
        "marker-symbol": "bus",
        "marker-size": "medium"
      },
      "geometry": {
        "type": "Point",
        "coordinates": [
          34.966655,
          32.82149
        ]
      }
    },
    {
      "type": "Feature",
      "properties": {
        "type": "original_route_stop",
        "stop_code": "41090",
        "stop_name": "דרך צרפת/גורס",
        "marker-color": "#2ca02c",
        "marker-symbol": "bus",
        "marker-size": "medium"
      },
      "geometry": {
        "type": "Point",
        "coordinates": [
          34.964019,
          32.821366
        ]
      }
    },
    {
      "type": "Feature",
      "properties": {
        "type": "original_route_stop",
        "stop_code": "41091",
        "stop_name": "דרך צרפת/כרמיה",
        "marker-color": "#2ca02c",
        "marker-symbol": "bus",
        "marker-size": "medium"
      },
      "geometry": {
        "type": "Point",
        "coordinates": [
          34.962871,
          32.820309
        ]
      }
    },
    {
      "type": "Feature",
      "properties": {
        "type": "original_route_stop",
        "stop_code": "41092",
        "stop_name": "דרך צרפת/מרסיי",
        "marker-color": "#2ca02c",
        "marker-symbol": "bus",
        "marker-size": "medium"
      },
      "geometry": {
        "type": "Point",
        "coordinates": [
          34.961482,
          32.819942
        ]
      }
    },
    {
      "type": "Feature",
      "properties": {
        "type": "original_route_stop",
        "stop_code": "41053",
        "stop_name": "דרך צרפת/יציאת אירופה",
        "marker-color": "#2ca02c",
        "marker-symbol": "bus",
        "marker-size": "medium"
      },
      "geometry": {
        "type": "Point",
        "coordinates": [
          34.959306,
          32.820214
        ]
      }
    },
    {
      "type": "Feature",
      "properties": {
        "type": "original_route_stop",
        "stop_code": "41901",
        "stop_name": "אנקואה/בן צור",
        "marker-color": "#2ca02c",
        "marker-symbol": "bus",
        "marker-size": "medium"
      },
      "geometry": {
        "type": "Point",
        "coordinates": [
          34.958659,
          32.81841
        ]
      }
    },
    {
      "type": "Feature",
      "properties": {
        "type": "original_route_stop",
        "stop_code": "41047",
        "stop_name": "מרסיי/בר רב האי",
        "marker-color": "#2ca02c",
        "marker-symbol": "bus",
        "marker-size": "medium"
      },
      "geometry": {
        "type": "Point",
        "coordinates": [
          34.96013,
          32.818035
        ]
      }
    },
    {
      "type": "Feature",
      "properties": {
        "type": "original_route_stop",
        "stop_code": "41051",
        "stop_name": "סעדיה גאון/מרסיי",
        "marker-color": "#2ca02c",
        "marker-symbol": "bus",
        "marker-size": "medium"
      },
      "geometry": {
        "type": "Point",
        "coordinates": [
          34.96201,
          32.818492
        ]
      }
    },
    {
      "type": "Feature",
      "properties": {
        "type": "original_route_stop",
        "stop_code": "41050",
        "stop_name": "בר רב האי/בודנהיימר",
        "marker-color": "#2ca02c",
        "marker-symbol": "bus",
        "marker-size": "medium"
      },
      "geometry": {
        "type": "Point",
        "coordinates": [
          34.964662,
          32.817802
        ]
      }
    },
    {
      "type": "Feature",
      "properties": {
        "type": "original_route_stop",
        "stop_code": "41556",
        "stop_name": "בר רב האי",
        "marker-color": "#2ca02c",
        "marker-symbol": "bus",
        "marker-size": "medium"
      },
      "geometry": {
        "type": "Point",
        "coordinates": [
          34.967436,
          32.817215
        ]
      }
    },
    {
      "type": "Feature",
      "properties": {
        "type": "original_route_stop",
        "stop_code": "41060",
        "stop_name": "בודנהיימר/גן דורון",
        "marker-color": "#2ca02c",
        "marker-symbol": "bus",
        "marker-size": "medium"
      },
      "geometry": {
        "type": "Point",
        "coordinates": [
          34.967855,
          32.818107
        ]
      }
    },
    {
      "type": "Feature",
      "properties": {
        "type": "original_route_stop",
        "stop_code": "41061",
        "stop_name": "בודנהיימר/סעדיה גאון",
        "marker-color": "#2ca02c",
        "marker-symbol": "bus",
        "marker-size": "medium"
      },
      "geometry": {
        "type": "Point",
        "coordinates": [
          34.965531,
          32.818501
        ]
      }
    },
    {
      "type": "Feature",
      "properties": {
        "type": "original_route_stop",
        "stop_code": "41048",
        "stop_name": "בר רב האי/סעדיה הגאון",
        "marker-color": "#2ca02c",
        "marker-symbol": "bus",
        "marker-size": "medium"
      },
      "geometry": {
        "type": "Point",
        "coordinates": [
          34.963607,
          32.817993
        ]
      }
    },
    {
      "type": "Feature",
      "properties": {
        "type": "original_route_stop",
        "stop_code": "41049",
        "stop_name": "בר רב האי/מרסיי",
        "marker-color": "#2ca02c",
        "marker-symbol": "bus",
        "marker-size": "medium"
      },
      "geometry": {
        "type": "Point",
        "coordinates": [
          34.96155,
          32.817706
        ]
      }
    },
    {
      "type": "Feature",
      "properties": {
        "type": "original_route_stop",
        "stop_code": "41045",
        "stop_name": "אנקווה/בר רב האי",
        "marker-color": "#2ca02c",
        "marker-symbol": "bus",
        "marker-size": "medium"
      },
      "geometry": {
        "type": "Point",
        "coordinates": [
          34.959509,
          32.817085
        ]
      }
    },
    {
      "type": "Feature",
      "properties": {
        "type": "original_route_stop",
        "stop_code": "41046",
        "stop_name": "אנקואה/האצל",
        "marker-color": "#2ca02c",
        "marker-symbol": "bus",
        "marker-size": "medium"
      },
      "geometry": {
        "type": "Point",
        "coordinates": [
          34.960151,
          32.815088
        ]
      }
    },
    {
      "type": "Feature",
      "properties": {
        "type": "original_route_stop",
        "stop_code": "47963",
        "stop_name": "המלך שלמה/אצל",
        "marker-color": "#2ca02c",
        "marker-symbol": "bus",
        "marker-size": "medium"
      },
      "geometry": {
        "type": "Point",
        "coordinates": [
          34.960491,
          32.812854
        ]
      }
    },
    {
      "type": "Feature",
      "properties": {
        "type": "original_route_stop",
        "stop_code": "41022",
        "stop_name": "המלך שלמה/המלך עוזיהו",
        "marker-color": "#2ca02c",
        "marker-symbol": "bus",
        "marker-size": "medium"
      },
      "geometry": {
        "type": "Point",
        "coordinates": [
          34.960566,
          32.810555
        ]
      }
    },
    {
      "type": "Feature",
      "properties": {
        "type": "original_route_stop",
        "stop_code": "41836",
        "stop_name": "המלך שלמה/המלך חזקיהו",
        "marker-color": "#2ca02c",
        "marker-symbol": "bus",
        "marker-size": "medium"
      },
      "geometry": {
        "type": "Point",
        "coordinates": [
          34.96185,
          32.808936
        ]
      }
    },
    {
      "type": "Feature",
      "properties": {
        "type": "original_route_stop",
        "stop_code": "47342",
        "stop_name": "המלך שלמה/המלך שאול",
        "marker-color": "#2ca02c",
        "marker-symbol": "bus",
        "marker-size": "medium"
      },
      "geometry": {
        "type": "Point",
        "coordinates": [
          34.962806,
          32.807377
        ]
      }
    },
    {
      "type": "Feature",
      "properties": {
        "type": "original_route_stop",
        "stop_code": "41837",
        "stop_name": "המלך שלמה/המלך שאול א",
        "marker-color": "#2ca02c",
        "marker-symbol": "bus",
        "marker-size": "medium"
      },
      "geometry": {
        "type": "Point",
        "coordinates": [
          34.963105,
          32.806574
        ]
      }
    },
    {
      "type": "Feature",
      "properties": {
        "type": "original_route_stop",
        "stop_code": "42152",
        "stop_name": "בית עלמין/שער אורן",
        "marker-color": "#2ca02c",
        "marker-symbol": "bus",
        "marker-size": "medium"
      },
      "geometry": {
        "type": "Point",
        "coordinates": [
          34.964784,
          32.80517
        ]
      }
    },
    {
      "type": "Feature",
      "properties": {
        "type": "original_route_stop",
        "stop_code": "41754",
        "stop_name": "בית עלמין/שער ברוש",
        "marker-color": "#2ca02c",
        "marker-symbol": "bus",
        "marker-size": "medium"
      },
      "geometry": {
        "type": "Point",
        "coordinates": [
          34.966698,
          32.802746
        ]
      }
    },
    {
      "type": "Feature",
      "properties": {
        "type": "original_route_stop",
        "stop_code": "47347",
        "stop_name": "בית עלמין/שער הדס",
        "marker-color": "#2ca02c",
        "marker-symbol": "bus",
        "marker-size": "medium"
      },
      "geometry": {
        "type": "Point",
        "coordinates": [
          34.967316,
          32.80061
        ]
      }
    },
    {
      "type": "Feature",
      "properties": {
        "type": "original_route_stop",
        "stop_code": "41755",
        "stop_name": "בית עלמין/שער תמר",
        "marker-color": "#2ca02c",
        "marker-symbol": "bus",
        "marker-size": "medium"
      },
      "geometry": {
        "type": "Point",
        "coordinates": [
          34.967039,
          32.798602
        ]
      }
    },
    {
      "type": "Feature",
      "properties": {
        "type": "original_route_stop",
        "stop_code": "47344",
        "stop_name": "מגורשי ספרד/מסילת ישרים",
        "marker-color": "#2ca02c",
        "marker-symbol": "bus",
        "marker-size": "medium"
      },
      "geometry": {
        "type": "Point",
        "coordinates": [
          34.966987,
          32.797392
        ]
      }
    },
    {
      "type": "Feature",
      "properties": {
        "type": "original_route_stop",
        "stop_code": "41997",
        "stop_name": "אכסנית הנוער/מגורשי ספרד",
        "marker-color": "#2ca02c",
        "marker-symbol": "bus",
        "marker-size": "medium"
      },
      "geometry": {
        "type": "Point",
        "coordinates": [
          34.967062,
          32.794642
        ]
      }
    },
    {
      "type": "Feature",
      "properties": {
        "type": "original_route_stop",
        "stop_code": "41998",
        "stop_name": "ספורטן/צביה ויצחק",
        "marker-color": "#2ca02c",
        "marker-symbol": "bus",
        "marker-size": "medium"
      },
      "geometry": {
        "type": "Point",
        "coordinates": [
          34.965531,
          32.794407
        ]
      }
    },
    {
      "type": "Feature",
      "properties": {
        "type": "original_route_stop",
        "stop_code": "42503",
        "stop_name": "מרכז הקונגרסים/קדושי יסי",
        "marker-color": "#2ca02c",
        "marker-symbol": "bus",
        "marker-size": "medium"
      },
      "geometry": {
        "type": "Point",
        "coordinates": [
          34.964341,
          32.791559
        ]
      }
    },
    {
      "type": "Feature",
      "properties": {
        "type": "original_route_stop",
        "stop_code": "42656",
        "stop_name": "מת''מ",
        "marker-color": "#2ca02c",
        "marker-symbol": "bus",
        "marker-size": "medium"
      },
      "geometry": {
        "type": "Point",
        "coordinates": [
          34.96134,
          32.790385
        ]
      }
    },
    {
      "type": "Feature",
      "properties": {
        "type": "original_route_stop",
        "stop_code": "42501",
        "stop_name": "סחרוב",
        "marker-color": "#2ca02c",
        "marker-symbol": "bus",
        "marker-size": "medium"
      },
      "geometry": {
        "type": "Point",
        "coordinates": [
          34.958675,
          32.790898
        ]
      }
    },
    {
      "type": "Feature",
      "properties": {
        "type": "original_route_stop",
        "stop_code": "42657",
        "stop_name": "ת. מרכזית חוף הכרמל/הורדה",
        "marker-color": "#2ca02c",
        "marker-symbol": "bus",
        "marker-size": "medium"
      },
      "geometry": {
        "type": "Point",
        "coordinates": [
          34.959587,
          32.793368
        ]
      }
    },
    {
      "type": "Feature",
      "properties": {
        "type": "cancelled_stop",
        "stop_code": "42966",
        "stop_name": "טשרניחובסקי/פרץ חיות",
        "marker-color": "#ff0000",
        "marker-symbol": "bus",
        "marker-size": "medium"
      },
      "geometry": {
        "type": "Point",
        "coordinates": [
          34.974184,
          32.821624
        ]
      }
    },
    {
      "type": "Feature",
      "properties": {
        "type": "cancelled_stop",
        "stop_code": "41735",
        "stop_name": "טשרניחובסקי",
        "marker-color": "#ff0000",
        "marker-symbol": "bus",
        "marker-size": "medium"
      },
      "geometry": {
        "type": "Point",
        "coordinates": [
          34.973739,
          32.823084
        ]
      }
    },
    {
      "type": "Feature",
      "properties": {
        "type": "cancelled_stop",
        "stop_code": "41109",
        "stop_name": "אדמונד פלג/טשרניחובסקי",
        "marker-color": "#ff0000",
        "marker-symbol": "bus",
        "marker-size": "medium"
      },
      "geometry": {
        "type": "Point",
        "coordinates": [
          34.970697,
          32.823975
        ]
      }
    },
    {
      "type": "Feature",
      "properties": {
        "type": "cancelled_stop",
        "stop_code": "41736",
        "stop_name": "אדמונד פלג",
        "marker-color": "#ff0000",
        "marker-symbol": "bus",
        "marker-size": "medium"
      },
      "geometry": {
        "type": "Point",
        "coordinates": [
          34.972753,
          32.822661
        ]
      }
    },
    {
      "type": "Feature",
      "properties": {
        "type": "new_stop",
        "stop_code": "42965",
        "stop_name": "פרץ חיות/טשרניחובסקי",
        "marker-color": "#1f9ed6",
        "marker-symbol": "bus",
        "marker-size": "medium"
      },
      "geometry": {
        "type": "Point",
        "coordinates": [
          34.973488,
          32.821138
        ]
      }
    },
    {
      "type": "Feature",
      "properties": {
        "type": "reported_block_stop",
        "stop_code": "41109",
        "stop_name": "אדמונד פלג/טשרניחובסקי",
        "marker-color": "#ff8800",
        "marker-symbol": "bus",
        "marker-size": "medium"
      },
      "geometry": {
        "type": "Point",
        "coordinates": [
          34.970697,
          32.823975
        ]
      }
    },
    {
      "type": "Feature",
      "properties": {
        "type": "reported_block_stop",
        "stop_code": "41736",
        "stop_name": "אדמונד פלג",
        "marker-color": "#ff8800",
        "marker-symbol": "bus",
        "marker-size": "medium"
      },
      "geometry": {
        "type": "Point",
        "coordinates": [
          34.972753,
          32.822661
        ]
      }
    },
    {
      "type": "Feature",
      "properties": {
        "type": "deviate_from_stop",
        "stop_code": "41796",
        "stop_name": "טשרניחובסקי/ישעיהו",
        "marker-color": "#8000ff",
        "marker-symbol": "bus",
        "marker-size": "medium"
      },
      "geometry": {
        "type": "Point",
        "coordinates": [
          34.975053,
          32.819901
        ]
      }
    },
    {
      "type": "Feature",
      "properties": {
        "type": "deviate_to_stop",
        "stop_code": "41984",
        "stop_name": "קאודרס/סטפן וייז",
        "marker-color": "#8000ff",
        "marker-symbol": "bus",
        "marker-size": "medium"
      },
      "geometry": {
        "type": "Point",
        "coordinates": [
          34.971468,
          32.82141
        ]
      }
    }
  ]
}