{
  "type": "FeatureCollection",
  "features": [
    {
      "type": "Feature",
      "properties": {
        "type": "deviation_path",
        "trip_id": "12453787_020826",
        "shape_id": "164229",
        "stroke": "#00bcd4",
        "stroke-width": 3,
        "stroke-opacity": 0.95
      },
      "geometry": {
        "type": "LineString",
        "coordinates": [
          [
            34.86862745616794,
            32.088529896666465
          ],
          [
            34.868587,
            32.088273
          ],
          [
            34.868561,
            32.088095
          ],
          [
            34.868532,
            32.087901
          ],
          [
            34.868493,
            32.087635
          ],
          [
            34.868469,
            32.087507
          ],
          [
            34.868367,
            32.086897
          ],
          [
            34.868313,
            32.08662
          ],
          [
            34.868282,
            32.086464
          ],
          [
            34.868139,
            32.085721
          ],
          [
            34.868232,
            32.08571
          ],
          [
            34.869024,
            32.085621
          ],
          [
            34.869513,
            32.085584
          ],
          [
            34.869716,
            32.085552
          ],
          [
            34.869891,
            32.085511
          ],
          [
            34.870231,
            32.085389
          ],
          [
            34.870227,
            32.085382
          ],
          [
            34.870223,
            32.08536
          ],
          [
            34.870225,
            32.085338
          ],
          [
            34.870238,
            32.085312
          ],
          [
            34.870249,
            32.085298
          ],
          [
            34.870269,
            32.085284
          ],
          [
            34.870293,
            32.085274
          ],
          [
            34.870312,
            32.08527
          ],
          [
            34.870318,
            32.085269
          ],
          [
            34.870338,
            32.085268
          ],
          [
            34.870358,
            32.085271
          ],
          [
            34.870377,
            32.085277
          ],
          [
            34.870399,
            32.085289
          ],
          [
            34.870413,
            32.085301
          ],
          [
            34.870424,
            32.085315
          ],
          [
            34.870429,
            32.085325
          ],
          [
            34.870658,
            32.085251
          ],
          [
            34.87167,
            32.084903
          ],
          [
            34.871765,
            32.084875
          ],
          [
            34.872611,
            32.084625
          ],
          [
            34.872808,
            32.084509
          ],
          [
            34.872861,
            32.084499
          ],
          [
            34.872863,
            32.084486
          ],
          [
            34.872872,
            32.084467
          ],
          [
            34.87288,
            32.084457
          ],
          [
            34.872888,
            32.08445
          ],
          [
            34.872896,
            32.084444
          ],
          [
            34.872901,
            32.084442
          ],
          [
            34.872905,
            32.084439
          ],
          [
            34.87292,
            32.084433
          ],
          [
            34.872936,
            32.08443
          ],
          [
            34.872958,
            32.08443
          ],
          [
            34.872979,
            32.084434
          ],
          [
            34.872994,
            32.08444
          ],
          [
            34.872999,
            32.084443
          ],
          [
            34.873015,
            32.084455
          ],
          [
            34.873022,
            32.084463
          ],
          [
            34.873027,
            32.084471
          ],
          [
            34.873032,
            32.084482
          ],
          [
            34.87313,
            32.084483
          ],
          [
            34.873206,
            32.084489
          ],
          [
            34.873381,
            32.084523
          ],
          [
            34.874274,
            32.084678
          ],
          [
            34.874338,
            32.084691
          ],
          [
            34.875072,
            32.084801
          ],
          [
            34.87517,
            32.084816
          ],
          [
            34.876081,
            32.084962
          ],
          [
            34.876077,
            32.084947
          ],
          [
            34.876077,
            32.084937
          ],
          [
            34.876078,
            32.084927
          ],
          [
            34.876082,
            32.084912
          ],
          [
            34.876087,
            32.084903
          ],
          [
            34.876093,
            32.084894
          ],
          [
            34.8761,
            32.084886
          ],
          [
            34.876108,
            32.084879
          ],
          [
            34.876123,
            32.08487
          ],
          [
            34.876133,
            32.084866
          ],
          [
            34.876144,
            32.084862
          ],
          [
            34.876155,
            32.08486
          ],
          [
            34.876164,
            32.084859
          ],
          [
            34.876179,
            32.084859
          ],
          [
            34.876191,
            32.084861
          ],
          [
            34.876202,
            32.084863
          ],
          [
            34.876218,
            32.084869
          ],
          [
            34.876228,
            32.084875
          ],
          [
            34.876237,
            32.084881
          ],
          [
            34.876245,
            32.084889
          ],
          [
            34.876254,
            32.084901
          ],
          [
            34.876261,
            32.084915
          ],
          [
            34.876264,
            32.084925
          ],
          [
            34.876266,
            32.08494
          ],
          [
            34.876265,
            32.084949
          ],
          [
            34.876261,
            32.084964
          ],
          [
            34.876257,
            32.084973
          ],
          [
            34.876251,
            32.084982
          ],
          [
            34.876244,
            32.084991
          ],
          [
            34.877003,
            32.085098
          ],
          [
            34.878268,
            32.085301
          ],
          [
            34.878373,
            32.085317
          ],
          [
            34.87915019858095,
            32.08539932715775
          ]
        ]
      }
    },
    {
      "type": "Feature",
      "properties": {
        "type": "original_route_shape",
        "shape_id": "164073",
        "stroke": "#1f2a7a",
        "stroke-width": 3,
        "stroke-opacity": 0.85
      },
      "geometry": {
        "type": "LineString",
        "coordinates": [
          [
            34.840670228926875,
            32.071707864475684
          ],
          [
            34.840708,
            32.071768
          ],
          [
            34.840975,
            32.072212
          ],
          [
            34.84135,
            32.072669
          ],
          [
            34.84166,
            32.073039
          ],
          [
            34.841804,
            32.073223
          ],
          [
            34.841869,
            32.073295
          ],
          [
            34.842025,
            32.07371
          ],
          [
            34.842086,
            32.073859
          ],
          [
            34.842311,
            32.074524
          ],
          [
            34.842516,
            32.075143
          ],
          [
            34.84253,
            32.075257
          ],
          [
            34.842552,
            32.075392
          ],
          [
            34.842566,
            32.075515
          ],
          [
            34.842582,
            32.075703
          ],
          [
            34.84259,
            32.075795
          ],
          [
            34.842595,
            32.075848
          ],
          [
            34.8426,
            32.075901
          ],
          [
            34.842615,
            32.076122
          ],
          [
            34.842624,
            32.076309
          ],
          [
            34.842629,
            32.076402
          ],
          [
            34.842632,
            32.076446
          ],
          [
            34.842636,
            32.076519
          ],
          [
            34.842639,
            32.076571
          ],
          [
            34.842635,
            32.07674
          ],
          [
            34.842628,
            32.076848
          ],
          [
            34.84261,
            32.076967
          ],
          [
            34.842576,
            32.077101
          ],
          [
            34.84254,
            32.077191
          ],
          [
            34.842414,
            32.077527
          ],
          [
            34.842344,
            32.0777
          ],
          [
            34.842098,
            32.078329
          ],
          [
            34.842001,
            32.078574
          ],
          [
            34.841908,
            32.07881
          ],
          [
            34.841813,
            32.079067
          ],
          [
            34.841762,
            32.0792
          ],
          [
            34.841578,
            32.079721
          ],
          [
            34.841477,
            32.080035
          ],
          [
            34.84144,
            32.08015
          ],
          [
            34.841316,
            32.080696
          ],
          [
            34.841303,
            32.08076
          ],
          [
            34.841232,
            32.081099
          ],
          [
            34.84115,
            32.0815
          ],
          [
            34.841141,
            32.081671
          ],
          [
            34.841137,
            32.081749
          ],
          [
            34.841132,
            32.081844
          ],
          [
            34.841126,
            32.081934
          ],
          [
            34.841105,
            32.082244
          ],
          [
            34.841093,
            32.082366
          ],
          [
            34.841079,
            32.082499
          ],
          [
            34.841051,
            32.082673
          ],
          [
            34.841009,
            32.082819
          ],
          [
            34.840896,
            32.083121
          ],
          [
            34.84081,
            32.083323
          ],
          [
            34.840687,
            32.083588
          ],
          [
            34.84059,
            32.083796
          ],
          [
            34.840473,
            32.084037
          ],
          [
            34.840239,
            32.084516
          ],
          [
            34.84011,
            32.08478
          ],
          [
            34.8399,
            32.085218
          ],
          [
            34.83973,
            32.08563
          ],
          [
            34.839631,
            32.085871
          ],
          [
            34.839506,
            32.086178
          ],
          [
            34.839325,
            32.086599
          ],
          [
            34.839187,
            32.086937
          ],
          [
            34.839081,
            32.087197
          ],
          [
            34.839054,
            32.087267
          ],
          [
            34.838967,
            32.087492
          ],
          [
            34.838927,
            32.08764
          ],
          [
            34.838902,
            32.087791
          ],
          [
            34.838899,
            32.08782
          ],
          [
            34.838848,
            32.088306
          ],
          [
            34.838798,
            32.088783
          ],
          [
            34.838792,
            32.088853
          ],
          [
            34.838775,
            32.089047
          ],
          [
            34.838743,
            32.089414
          ],
          [
            34.838728,
            32.089744
          ],
          [
            34.83873,
            32.08982
          ],
          [
            34.838733,
            32.089837
          ],
          [
            34.838741,
            32.089902
          ],
          [
            34.838816,
            32.090089
          ],
          [
            34.838845,
            32.090162
          ],
          [
            34.839082,
            32.090662
          ],
          [
            34.839349,
            32.091354
          ],
          [
            34.839378,
            32.091443
          ],
          [
            34.839394,
            32.091508
          ],
          [
            34.839412,
            32.091609
          ],
          [
            34.839413,
            32.091968
          ],
          [
            34.839454,
            32.092604
          ],
          [
            34.839901,
            32.092637
          ],
          [
            34.840813,
            32.092576
          ],
          [
            34.840813,
            32.092574
          ],
          [
            34.841351,
            32.092544
          ],
          [
            34.842309,
            32.092487
          ],
          [
            34.842623,
            32.09247
          ],
          [
            34.844247,
            32.09238
          ],
          [
            34.844812,
            32.092365
          ],
          [
            34.84489,
            32.09236
          ],
          [
            34.845315,
            32.092356
          ],
          [
            34.845409,
            32.092355
          ],
          [
            34.845761,
            32.092364
          ],
          [
            34.845762,
            32.092364
          ],
          [
            34.845955,
            32.092362
          ],
          [
            34.846001,
            32.092362
          ],
          [
            34.847042,
            32.092364
          ],
          [
            34.847427,
            32.092389
          ],
          [
            34.847936,
            32.092407
          ],
          [
            34.849452,
            32.092453
          ],
          [
            34.849818,
            32.092481
          ],
          [
            34.850344,
            32.092496
          ],
          [
            34.851067,
            32.092529
          ],
          [
            34.851111,
            32.092531
          ],
          [
            34.852355,
            32.092581
          ],
          [
            34.852788,
            32.09259
          ],
          [
            34.853212,
            32.092562
          ],
          [
            34.853778,
            32.092501
          ],
          [
            34.853932,
            32.092489
          ],
          [
            34.854966,
            32.092419
          ],
          [
            34.85555,
            32.092361
          ],
          [
            34.855912,
            32.092325
          ],
          [
            34.855989,
            32.092317
          ],
          [
            34.856929,
            32.092225
          ],
          [
            34.857046,
            32.092216
          ],
          [
            34.857331,
            32.092193
          ],
          [
            34.857684,
            32.092157
          ],
          [
            34.858341,
            32.092091
          ],
          [
            34.859159,
            32.092008
          ],
          [
            34.859808,
            32.091927
          ],
          [
            34.860298,
            32.091902
          ],
          [
            34.861003,
            32.091865
          ],
          [
            34.861544,
            32.0918
          ],
          [
            34.861853,
            32.091762
          ],
          [
            34.861966,
            32.091749
          ],
          [
            34.862469,
            32.091701
          ],
          [
            34.863468,
            32.091602
          ],
          [
            34.864269,
            32.091517
          ],
          [
            34.864962,
            32.091465
          ],
          [
            34.865337,
            32.091439
          ],
          [
            34.866371,
            32.091349
          ],
          [
            34.866699,
            32.091325
          ],
          [
            34.867192,
            32.091275
          ],
          [
            34.868219,
            32.091171
          ],
          [
            34.868432,
            32.091152
          ],
          [
            34.868801,
            32.091065
          ],
          [
            34.868857,
            32.091046
          ],
          [
            34.868912,
            32.090997
          ],
          [
            34.868938,
            32.090943
          ],
          [
            34.868986,
            32.090682
          ],
          [
            34.868986,
            32.09068
          ],
          [
            34.868877,
            32.090115
          ],
          [
            34.868797,
            32.089581
          ],
          [
            34.86879,
            32.089577
          ],
          [
            34.868781,
            32.08957
          ],
          [
            34.868769,
            32.089557
          ],
          [
            34.868762,
            32.089548
          ],
          [
            34.868757,
            32.089538
          ],
          [
            34.868753,
            32.089522
          ],
          [
            34.868752,
            32.089511
          ],
          [
            34.868752,
            32.089501
          ],
          [
            34.868756,
            32.089485
          ],
          [
            34.868763,
            32.08947
          ],
          [
            34.868769,
            32.08946
          ],
          [
            34.868775,
            32.089453
          ],
          [
            34.868739,
            32.089251
          ],
          [
            34.868714,
            32.089081
          ],
          [
            34.868707,
            32.089035
          ],
          [
            34.868587,
            32.088273
          ],
          [
            34.868561,
            32.088095
          ],
          [
            34.868532,
            32.087901
          ],
          [
            34.868493,
            32.087635
          ],
          [
            34.868469,
            32.087507
          ],
          [
            34.868367,
            32.086897
          ],
          [
            34.868313,
            32.08662
          ],
          [
            34.868282,
            32.086464
          ],
          [
            34.868139,
            32.085721
          ],
          [
            34.868062,
            32.085124
          ],
          [
            34.86804,
            32.084956
          ],
          [
            34.868006,
            32.084767
          ],
          [
            34.867971,
            32.084388
          ],
          [
            34.867906,
            32.08404
          ],
          [
            34.867663,
            32.082644
          ],
          [
            34.867638,
            32.082468
          ],
          [
            34.867616,
            32.082312
          ],
          [
            34.86756,
            32.081915
          ],
          [
            34.86753,
            32.081735
          ],
          [
            34.867488,
            32.081517
          ],
          [
            34.867483,
            32.081446
          ],
          [
            34.868339,
            32.081553
          ],
          [
            34.869037,
            32.081641
          ],
          [
            34.869796,
            32.081736
          ],
          [
            34.870155,
            32.08178
          ],
          [
            34.870489,
            32.081822
          ],
          [
            34.870586,
            32.081833
          ],
          [
            34.870897,
            32.081869
          ],
          [
            34.871353,
            32.0819
          ],
          [
            34.872388,
            32.081892
          ],
          [
            34.872581,
            32.081893
          ],
          [
            34.873151,
            32.081811
          ],
          [
            34.87424,
            32.08178
          ],
          [
            34.875177,
            32.081783
          ],
          [
            34.87535,
            32.081777
          ],
          [
            34.875813,
            32.081763
          ],
          [
            34.87589,
            32.081761
          ],
          [
            34.876828,
            32.081734
          ],
          [
            34.878217,
            32.081694
          ],
          [
            34.878318,
            32.081691
          ],
          [
            34.878319,
            32.081768
          ],
          [
            34.878331,
            32.082812
          ],
          [
            34.87834,
            32.083363
          ],
          [
            34.878362,
            32.084281
          ],
          [
            34.878384,
            32.085137
          ],
          [
            34.878373,
            32.085317
          ],
          [
            34.879402,
            32.085426
          ],
          [
            34.879646,
            32.085445
          ],
          [
            34.880374,
            32.085531
          ],
          [
            34.88108,
            32.085614
          ],
          [
            34.881331,
            32.085647
          ],
          [
            34.882126,
            32.085704
          ],
          [
            34.882166,
            32.085711
          ],
          [
            34.882541,
            32.085778
          ],
          [
            34.883128,
            32.085847
          ],
          [
            34.883455,
            32.085871
          ],
          [
            34.883834,
            32.085872
          ],
          [
            34.88443,
            32.085899
          ],
          [
            34.884973,
            32.085941
          ],
          [
            34.885198,
            32.085969
          ],
          [
            34.885792,
            32.086034
          ],
          [
            34.886211,
            32.086085
          ],
          [
            34.88655,
            32.086104
          ],
          [
            34.887057,
            32.086126
          ],
          [
            34.887112,
            32.086127
          ],
          [
            34.887539,
            32.086155
          ],
          [
            34.888123,
            32.086283
          ],
          [
            34.888313,
            32.086324
          ],
          [
            34.88883,
            32.086471
          ],
          [
            34.889391,
            32.086594
          ],
          [
            34.889764,
            32.086689
          ],
          [
            34.890216,
            32.086828
          ],
          [
            34.890805,
            32.087025
          ],
          [
            34.891209,
            32.08717
          ],
          [
            34.891362,
            32.087225
          ],
          [
            34.892222,
            32.087531
          ],
          [
            34.892637,
            32.087731
          ],
          [
            34.893221,
            32.088011
          ],
          [
            34.893303,
            32.08805
          ],
          [
            34.893686,
            32.088199
          ],
          [
            34.893787,
            32.088245
          ],
          [
            34.894054,
            32.088382
          ],
          [
            34.894142,
            32.088422
          ],
          [
            34.894435,
            32.088548
          ],
          [
            34.894883,
            32.088756
          ],
          [
            34.895038,
            32.088828
          ],
          [
            34.895595,
            32.08909
          ],
          [
            34.895874,
            32.089204
          ],
          [
            34.895879,
            32.0892
          ],
          [
            34.895895,
            32.089191
          ],
          [
            34.895913,
            32.089184
          ],
          [
            34.895939,
            32.08918
          ],
          [
            34.895959,
            32.089181
          ],
          [
            34.895984,
            32.089187
          ],
          [
            34.896001,
            32.089195
          ],
          [
            34.896021,
            32.08921
          ],
          [
            34.896036,
            32.089229
          ],
          [
            34.896045,
            32.08925
          ],
          [
            34.896046,
            32.089259
          ],
          [
            34.896048,
            32.089273
          ],
          [
            34.896045,
            32.089296
          ],
          [
            34.896035,
            32.089317
          ],
          [
            34.89602,
            32.089336
          ],
          [
            34.896006,
            32.089347
          ],
          [
            34.895983,
            32.089358
          ],
          [
            34.895964,
            32.089363
          ],
          [
            34.895945,
            32.089365
          ],
          [
            34.895932,
            32.089364
          ],
          [
            34.895751,
            32.08954
          ],
          [
            34.895543,
            32.089785
          ],
          [
            34.895181,
            32.090295
          ],
          [
            34.894947,
            32.090708
          ],
          [
            34.894316,
            32.091695
          ],
          [
            34.894263,
            32.09178
          ],
          [
            34.894029,
            32.092128
          ],
          [
            34.893975,
            32.092187
          ],
          [
            34.893964,
            32.0922
          ],
          [
            34.89385,
            32.0923
          ],
          [
            34.893646,
            32.092388
          ],
          [
            34.893305,
            32.092537
          ],
          [
            34.893181,
            32.092555
          ],
          [
            34.892537,
            32.092838
          ],
          [
            34.892292,
            32.092939
          ],
          [
            34.89165,
            32.093342
          ],
          [
            34.891382,
            32.09351
          ],
          [
            34.891202,
            32.09363
          ],
          [
            34.890904,
            32.093827
          ],
          [
            34.890859,
            32.093866
          ],
          [
            34.890779,
            32.093936
          ],
          [
            34.890281,
            32.094371
          ],
          [
            34.889787,
            32.094804
          ],
          [
            34.889624,
            32.094946
          ],
          [
            34.889436,
            32.095123
          ],
          [
            34.889264,
            32.095285
          ],
          [
            34.889222,
            32.095324
          ],
          [
            34.889168,
            32.095375
          ],
          [
            34.889069,
            32.095322
          ],
          [
            34.888812,
            32.095203
          ],
          [
            34.888623,
            32.095138
          ],
          [
            34.888319,
            32.095039
          ],
          [
            34.887857,
            32.094939
          ],
          [
            34.887675,
            32.094927
          ],
          [
            34.887459,
            32.094913
          ],
          [
            34.886934,
            32.094845
          ],
          [
            34.886635,
            32.094794
          ],
          [
            34.88631,
            32.09473
          ],
          [
            34.885694,
            32.094606
          ],
          [
            34.885706,
            32.094897
          ],
          [
            34.885733,
            32.095163
          ],
          [
            34.885744,
            32.095304
          ],
          [
            34.885781,
            32.095853
          ],
          [
            34.885795,
            32.096073
          ],
          [
            34.885852,
            32.096906
          ],
          [
            34.885769,
            32.096865
          ],
          [
            34.885385,
            32.096858
          ],
          [
            34.88538875979516,
            32.09736839219304
          ]
        ]
      }
    },
    {
      "type": "Feature",
      "properties": {
        "type": "original_route_stop",
        "stop_code": "26504",
        "stop_name": "בירנבוים/הרב עוזיאל",
        "marker-color": "#2ca02c",
        "marker-symbol": "bus",
        "marker-size": "medium"
      },
      "geometry": {
        "type": "Point",
        "coordinates": [
          34.840713,
          32.071681
        ]
      }
    },
    {
      "type": "Feature",
      "properties": {
        "type": "original_route_stop",
        "stop_code": "26506",
        "stop_name": "הרב כהנמן/קבוץ גלויות",
        "marker-color": "#2ca02c",
        "marker-symbol": "bus",
        "marker-size": "medium"
      },
      "geometry": {
        "type": "Point",
        "coordinates": [
          34.842492,
          32.074906
        ]
      }
    },
    {
      "type": "Feature",
      "properties": {
        "type": "original_route_stop",
        "stop_code": "23060",
        "stop_name": "הרב כהנמן/קוקה קולה",
        "marker-color": "#2ca02c",
        "marker-symbol": "bus",
        "marker-size": "medium"
      },
      "geometry": {
        "type": "Point",
        "coordinates": [
          34.842242,
          32.078104
        ]
      }
    },
    {
      "type": "Feature",
      "properties": {
        "type": "original_route_stop",
        "stop_code": "21371",
        "stop_name": "כהנמן/הרב זוננפלד",
        "marker-color": "#2ca02c",
        "marker-symbol": "bus",
        "marker-size": "medium"
      },
      "geometry": {
        "type": "Point",
        "coordinates": [
          34.841412,
          32.080511
        ]
      }
    },
    {
      "type": "Feature",
      "properties": {
        "type": "original_route_stop",
        "stop_code": "36553",
        "stop_name": "מחלף גהה/ז'בוטינסקי",
        "marker-color": "#2ca02c",
        "marker-symbol": "bus",
        "marker-size": "medium"
      },
      "geometry": {
        "type": "Point",
        "coordinates": [
          34.848695,
          32.092385
        ]
      }
    },
    {
      "type": "Feature",
      "properties": {
        "type": "original_route_stop",
        "stop_code": "32274",
        "stop_name": "דרך זאב ז'בוטינסקי/היצירה",
        "marker-color": "#2ca02c",
        "marker-symbol": "bus",
        "marker-size": "medium"
      },
      "geometry": {
        "type": "Point",
        "coordinates": [
          34.850598,
          32.092462
        ]
      }
    },
    {
      "type": "Feature",
      "properties": {
        "type": "original_route_stop",
        "stop_code": "32270",
        "stop_name": "ת.רק''ל שנקר/דרך ז'בוטינסקי",
        "marker-color": "#2ca02c",
        "marker-symbol": "bus",
        "marker-size": "medium"
      },
      "geometry": {
        "type": "Point",
        "coordinates": [
          34.854627,
          32.092397
        ]
      }
    },
    {
      "type": "Feature",
      "properties": {
        "type": "original_route_stop",
        "stop_code": "32267",
        "stop_name": "דרך זאב ז'בוטינסקי/הסיבים",
        "marker-color": "#2ca02c",
        "marker-symbol": "bus",
        "marker-size": "medium"
      },
      "geometry": {
        "type": "Point",
        "coordinates": [
          34.858206,
          32.092059
        ]
      }
    },
    {
      "type": "Feature",
      "properties": {
        "type": "original_route_stop",
        "stop_code": "31366",
        "stop_name": "ת.רק''ל שחם/דרך ז'בוטינסקי",
        "marker-color": "#2ca02c",
        "marker-symbol": "bus",
        "marker-size": "medium"
      },
      "geometry": {
        "type": "Point",
        "coordinates": [
          34.86044,
          32.091849
        ]
      }
    },
    {
      "type": "Feature",
      "properties": {
        "type": "original_route_stop",
        "stop_code": "32269",
        "stop_name": "בי''ח בלינסון/גשר מבצע ארנון",
        "marker-color": "#2ca02c",
        "marker-symbol": "bus",
        "marker-size": "medium"
      },
      "geometry": {
        "type": "Point",
        "coordinates": [
          34.86787,
          32.091161
        ]
      }
    },
    {
      "type": "Feature",
      "properties": {
        "type": "original_route_stop",
        "stop_code": "32247",
        "stop_name": "דוד פרנקפורטר/רוטשילד",
        "marker-color": "#2ca02c",
        "marker-symbol": "bus",
        "marker-size": "medium"
      },
      "geometry": {
        "type": "Point",
        "coordinates": [
          34.881445,
          32.08561
        ]
      }
    },
    {
      "type": "Feature",
      "properties": {
        "type": "original_route_stop",
        "stop_code": "31652",
        "stop_name": "הסתדרות/חיים עוזר",
        "marker-color": "#2ca02c",
        "marker-symbol": "bus",
        "marker-size": "medium"
      },
      "geometry": {
        "type": "Point",
        "coordinates": [
          34.886717,
          32.086066
        ]
      }
    },
    {
      "type": "Feature",
      "properties": {
        "type": "original_route_stop",
        "stop_code": "32244",
        "stop_name": "וולפסון/עירייה",
        "marker-color": "#2ca02c",
        "marker-symbol": "bus",
        "marker-size": "medium"
      },
      "geometry": {
        "type": "Point",
        "coordinates": [
          34.888401,
          32.086301
        ]
      }
    },
    {
      "type": "Feature",
      "properties": {
        "type": "original_route_stop",
        "stop_code": "32348",
        "stop_name": "דוד וולפסון/ליפה ויניצקי",
        "marker-color": "#2ca02c",
        "marker-symbol": "bus",
        "marker-size": "medium"
      },
      "geometry": {
        "type": "Point",
        "coordinates": [
          34.891554,
          32.087244
        ]
      }
    },
    {
      "type": "Feature",
      "properties": {
        "type": "original_route_stop",
        "stop_code": "32246",
        "stop_name": "וולפסון /עין גנים",
        "marker-color": "#2ca02c",
        "marker-symbol": "bus",
        "marker-size": "medium"
      },
      "geometry": {
        "type": "Point",
        "coordinates": [
          34.893069,
          32.087887
        ]
      }
    },
    {
      "type": "Feature",
      "properties": {
        "type": "original_route_stop",
        "stop_code": "38244",
        "stop_name": "דוד וולפסון/א.ד.גורדון",
        "marker-color": "#2ca02c",
        "marker-symbol": "bus",
        "marker-size": "medium"
      },
      "geometry": {
        "type": "Point",
        "coordinates": [
          34.895244,
          32.088873
        ]
      }
    },
    {
      "type": "Feature",
      "properties": {
        "type": "original_route_stop",
        "stop_code": "32370",
        "stop_name": "חזון אי''ש/בי''ס שמעוני",
        "marker-color": "#2ca02c",
        "marker-symbol": "bus",
        "marker-size": "medium"
      },
      "geometry": {
        "type": "Point",
        "coordinates": [
          34.895123,
          32.090502
        ]
      }
    },
    {
      "type": "Feature",
      "properties": {
        "type": "original_route_stop",
        "stop_code": "38277",
        "stop_name": "אברבנאל/זרח ברנט",
        "marker-color": "#2ca02c",
        "marker-symbol": "bus",
        "marker-size": "medium"
      },
      "geometry": {
        "type": "Point",
        "coordinates": [
          34.893599,
          32.092459
        ]
      }
    },
    {
      "type": "Feature",
      "properties": {
        "type": "original_route_stop",
        "stop_code": "38283",
        "stop_name": "המכבים/שלונסקי",
        "marker-color": "#2ca02c",
        "marker-symbol": "bus",
        "marker-size": "medium"
      },
      "geometry": {
        "type": "Point",
        "coordinates": [
          34.89007,
          32.094621
        ]
      }
    },
    {
      "type": "Feature",
      "properties": {
        "type": "original_route_stop",
        "stop_code": "39628",
        "stop_name": "ת.רק''ל/תחנה מרכזית למערב",
        "marker-color": "#2ca02c",
        "marker-symbol": "bus",
        "marker-size": "medium"
      },
      "geometry": {
        "type": "Point",
        "coordinates": [
          34.886466,
          32.094807
        ]
      }
    },
    {
      "type": "Feature",
      "properties": {
        "type": "original_route_stop",
        "stop_code": "33607",
        "stop_name": "בר כוכבא/ת.מרכזית פתח תקווה",
        "marker-color": "#2ca02c",
        "marker-symbol": "bus",
        "marker-size": "medium"
      },
      "geometry": {
        "type": "Point",
        "coordinates": [
          34.885777,
          32.095071
        ]
      }
    },
    {
      "type": "Feature",
      "properties": {
        "type": "original_route_stop",
        "stop_code": "33598",
        "stop_name": "מסוף משה ארנס/הורדה",
        "marker-color": "#2ca02c",
        "marker-symbol": "bus",
        "marker-size": "medium"
      },
      "geometry": {
        "type": "Point",
        "coordinates": [
          34.885442,
          32.097368
        ]
      }
    },
    {
      "type": "Feature",
      "properties": {
        "type": "cancelled_stop",
        "stop_code": "38316",
        "stop_name": "חווה חקלאית/קפלן",
        "marker-color": "#ff0000",
        "marker-symbol": "bus",
        "marker-size": "medium"
      },
      "geometry": {
        "type": "Point",
        "coordinates": [
          34.867941,
          32.08464
        ]
      }
    },
    {
      "type": "Feature",
      "properties": {
        "type": "cancelled_stop",
        "stop_code": "38313",
        "stop_name": "קפלן / הנרקיסים",
        "marker-color": "#ff0000",
        "marker-symbol": "bus",
        "marker-size": "medium"
      },
      "geometry": {
        "type": "Point",
        "coordinates": [
          34.867655,
          32.082906
        ]
      }
    },
    {
      "type": "Feature",
      "properties": {
        "type": "cancelled_stop",
        "stop_code": "32241",
        "stop_name": "חטיבת ביניים עלומים/דגל ראובן",
        "marker-color": "#ff0000",
        "marker-symbol": "bus",
        "marker-size": "medium"
      },
      "geometry": {
        "type": "Point",
        "coordinates": [
          34.869173,
          32.081612
        ]
      }
    },
    {
      "type": "Feature",
      "properties": {
        "type": "cancelled_stop",
        "stop_code": "32240",
        "stop_name": "דגל ראובן / וייצמן",
        "marker-color": "#ff0000",
        "marker-symbol": "bus",
        "marker-size": "medium"
      },
      "geometry": {
        "type": "Point",
        "coordinates": [
          34.873983,
          32.081742
        ]
      }
    },
    {
      "type": "Feature",
      "properties": {
        "type": "cancelled_stop",
        "stop_code": "32237",
        "stop_name": "קופ''ח/דגל ראובן",
        "marker-color": "#ff0000",
        "marker-symbol": "bus",
        "marker-size": "medium"
      },
      "geometry": {
        "type": "Point",
        "coordinates": [
          34.876424,
          32.081701
        ]
      }
    },
    {
      "type": "Feature",
      "properties": {
        "type": "cancelled_stop",
        "stop_code": "32390",
        "stop_name": "טרומפלדור/בנימין יהלום",
        "marker-color": "#ff0000",
        "marker-symbol": "bus",
        "marker-size": "medium"
      },
      "geometry": {
        "type": "Point",
        "coordinates": [
          34.878402,
          32.083733
        ]
      }
    },
    {
      "type": "Feature",
      "properties": {
        "type": "new_stop",
        "stop_code": "32376",
        "stop_name": "ארלוזורוב/צה''ל",
        "marker-color": "#1f9ed6",
        "marker-symbol": "bus",
        "marker-size": "medium"
      },
      "geometry": {
        "type": "Point",
        "coordinates": [
          34.869311,
          32.085554
        ]
      }
    },
    {
      "type": "Feature",
      "properties": {
        "type": "new_stop",
        "stop_code": "33553",
        "stop_name": "חיים ארלוזורוב/הרצפלד",
        "marker-color": "#1f9ed6",
        "marker-symbol": "bus",
        "marker-size": "medium"
      },
      "geometry": {
        "type": "Point",
        "coordinates": [
          34.873652,
          32.084529
        ]
      }
    },
    {
      "type": "Feature",
      "properties": {
        "type": "reported_block_stop",
        "stop_code": "32241",
        "stop_name": "חטיבת ביניים עלומים/דגל ראובן",
        "marker-color": "#ff8800",
        "marker-symbol": "bus",
        "marker-size": "medium"
      },
      "geometry": {
        "type": "Point",
        "coordinates": [
          34.869173,
          32.081612
        ]
      }
    },
    {
      "type": "Feature",
      "properties": {
        "type": "reported_block_stop",
        "stop_code": "32240",
        "stop_name": "דגל ראובן / וייצמן",
        "marker-color": "#ff8800",
        "marker-symbol": "bus",
        "marker-size": "medium"
      },
      "geometry": {
        "type": "Point",
        "coordinates": [
          34.873983,
          32.081742
        ]
      }
    },
    {
      "type": "Feature",
      "properties": {
        "type": "deviate_from_stop",
        "stop_code": "38315",
        "stop_name": "בית חולים שניידר",
        "marker-color": "#8000ff",
        "marker-symbol": "bus",
        "marker-size": "medium"
      },
      "geometry": {
        "type": "Point",
        "coordinates": [
          34.868576,
          32.088538
        ]
      }
    },
    {
      "type": "Feature",
      "properties": {
        "type": "deviate_to_stop",
        "stop_code": "32494",
        "stop_name": "פרנקפורטר/טרומפלדור",
        "marker-color": "#8000ff",
        "marker-symbol": "bus",
        "marker-size": "medium"
      },
      "geometry": {
        "type": "Point",
        "coordinates": [
          34.879155,
          32.085354
        ]
      }
    }
  ]
}