{
  "type": "FeatureCollection",
  "features": [
    {
      "type": "Feature",
      "properties": {
        "type": "deviation_path",
        "trip_id": "12301534_020826",
        "shape_id": "146343",
        "stroke": "#00bcd4",
        "stroke-width": 3,
        "stroke-opacity": 0.95
      },
      "geometry": {
        "type": "LineString",
        "coordinates": [
          [
            34.97371274484541,
            32.8230444132125
          ],
          [
            34.973448,
            32.82322
          ],
          [
            34.973008,
            32.823522
          ],
          [
            34.972633,
            32.823761
          ],
          [
            34.972568,
            32.823799
          ],
          [
            34.97248,
            32.82385
          ],
          [
            34.972324,
            32.82392
          ],
          [
            34.971847,
            32.824152
          ],
          [
            34.971796,
            32.824179
          ],
          [
            34.97085,
            32.824683
          ],
          [
            34.970713,
            32.824761
          ],
          [
            34.970617,
            32.824816
          ],
          [
            34.970264,
            32.825039
          ],
          [
            34.97006,
            32.825171
          ],
          [
            34.969777,
            32.825342
          ],
          [
            34.968958,
            32.825815
          ],
          [
            34.968953,
            32.825829
          ],
          [
            34.968947,
            32.82584
          ],
          [
            34.96894,
            32.825851
          ],
          [
            34.968925,
            32.825866
          ],
          [
            34.968908,
            32.82588
          ],
          [
            34.968895,
            32.825888
          ],
          [
            34.968881,
            32.825895
          ],
          [
            34.968864,
            32.825901
          ],
          [
            34.968844,
            32.825906
          ],
          [
            34.968821,
            32.825909
          ],
          [
            34.968799,
            32.825909
          ],
          [
            34.968778,
            32.825905
          ],
          [
            34.968759,
            32.825898
          ],
          [
            34.968743,
            32.825888
          ],
          [
            34.968731,
            32.825876
          ],
          [
            34.968723,
            32.825865
          ],
          [
            34.968718,
            32.825852
          ],
          [
            34.968716,
            32.825841
          ],
          [
            34.968717,
            32.825823
          ],
          [
            34.968721,
            32.825809
          ],
          [
            34.968716,
            32.825807
          ],
          [
            34.968704,
            32.825796
          ],
          [
            34.968679,
            32.825745
          ],
          [
            34.968649,
            32.825651
          ],
          [
            34.968548,
            32.825254
          ],
          [
            34.968525,
            32.825149
          ],
          [
            34.968513,
            32.825078
          ],
          [
            34.968505,
            32.824995
          ],
          [
            34.96851,
            32.824926
          ],
          [
            34.968526,
            32.824849
          ],
          [
            34.968574,
            32.824744
          ],
          [
            34.968628,
            32.824668
          ],
          [
            34.968696,
            32.824608
          ],
          [
            34.968798,
            32.824535
          ],
          [
            34.969009,
            32.824401
          ],
          [
            34.969042,
            32.824373
          ],
          [
            34.9691,
            32.824311
          ],
          [
            34.969118,
            32.824266
          ],
          [
            34.969131,
            32.824202
          ],
          [
            34.969131,
            32.824135
          ],
          [
            34.969114,
            32.824069
          ],
          [
            34.969073,
            32.824003
          ],
          [
            34.969023,
            32.823947
          ],
          [
            34.968967,
            32.823908
          ],
          [
            34.968929,
            32.823895
          ],
          [
            34.968876,
            32.823872
          ],
          [
            34.968769,
            32.823852
          ],
          [
            34.968447,
            32.823806
          ],
          [
            34.968275,
            32.823776
          ],
          [
            34.968212,
            32.823758
          ],
          [
            34.968184,
            32.82375
          ],
          [
            34.968075,
            32.823708
          ],
          [
            34.967997,
            32.823669
          ],
          [
            34.967893,
            32.823611
          ],
          [
            34.967822,
            32.823574
          ],
          [
            34.96767,
            32.823467
          ],
          [
            34.967604,
            32.823407
          ],
          [
            34.967539,
            32.823345
          ],
          [
            34.967488,
            32.823289
          ],
          [
            34.96744,
            32.823221
          ],
          [
            34.967397,
            32.823158
          ],
          [
            34.967359,
            32.823081
          ],
          [
            34.967321,
            32.823
          ],
          [
            34.967281,
            32.822918
          ],
          [
            34.967255,
            32.822869
          ],
          [
            34.967246,
            32.822852
          ],
          [
            34.967203,
            32.822794
          ],
          [
            34.96716,
            32.822745
          ],
          [
            34.967122,
            32.822717
          ],
          [
            34.967051,
            32.822667
          ],
          [
            34.96696,
            32.822624
          ],
          [
            34.966899,
            32.822607
          ],
          [
            34.966795,
            32.822586
          ],
          [
            34.966646,
            32.822564
          ],
          [
            34.966458,
            32.822527
          ],
          [
            34.966208,
            32.822488
          ],
          [
            34.966106,
            32.822469
          ],
          [
            34.965946,
            32.822432
          ],
          [
            34.965863,
            32.822408
          ],
          [
            34.965637,
            32.822344
          ],
          [
            34.965477,
            32.822278
          ],
          [
            34.96509,
            32.822114
          ],
          [
            34.965064,
            32.822103
          ],
          [
            34.964921,
            32.822027
          ],
          [
            34.964756,
            32.82195
          ],
          [
            34.964641,
            32.821883
          ],
          [
            34.964509,
            32.821798
          ],
          [
            34.964352,
            32.821705
          ],
          [
            34.964329,
            32.821702
          ],
          [
            34.964312,
            32.821695
          ],
          [
            34.964293,
            32.821689
          ],
          [
            34.964262,
            32.82166
          ],
          [
            34.964252,
            32.821637
          ],
          [
            34.964249,
            32.821611
          ],
          [
            34.964256,
            32.821585
          ],
          [
            34.964266,
            32.821565
          ],
          [
            34.964282,
            32.821551
          ],
          [
            34.9640536246771,
            32.821330189159404
          ]
        ]
      }
    },
    {
      "type": "Feature",
      "properties": {
        "type": "original_route_shape",
        "shape_id": "132334",
        "stroke": "#1f2a7a",
        "stroke-width": 3,
        "stroke-opacity": 0.85
      },
      "geometry": {
        "type": "LineString",
        "coordinates": [
          [
            34.995016,
            32.812505
          ],
          [
            34.995202,
            32.812674
          ],
          [
            34.995299,
            32.812774
          ],
          [
            34.995322,
            32.812866
          ],
          [
            34.995315,
            32.812915
          ],
          [
            34.995313,
            32.812924
          ],
          [
            34.995283,
            32.81296
          ],
          [
            34.995233,
            32.812994
          ],
          [
            34.995151,
            32.813041
          ],
          [
            34.994989,
            32.813076
          ],
          [
            34.994851,
            32.813112
          ],
          [
            34.994707,
            32.813143
          ],
          [
            34.994589,
            32.813167
          ],
          [
            34.994413,
            32.813211
          ],
          [
            34.994275,
            32.813263
          ],
          [
            34.994199,
            32.813297
          ],
          [
            34.994091,
            32.813351
          ],
          [
            34.99405,
            32.813388
          ],
          [
            34.994019,
            32.81342
          ],
          [
            34.994002,
            32.813438
          ],
          [
            34.993958,
            32.813509
          ],
          [
            34.993937,
            32.813564
          ],
          [
            34.993883,
            32.813675
          ],
          [
            34.993839,
            32.813752
          ],
          [
            34.993787,
            32.813835
          ],
          [
            34.993617,
            32.814058
          ],
          [
            34.993446,
            32.814276
          ],
          [
            34.993303,
            32.814476
          ],
          [
            34.993208,
            32.814567
          ],
          [
            34.993154,
            32.814599
          ],
          [
            34.993098,
            32.814627
          ],
          [
            34.993026,
            32.814656
          ],
          [
            34.992882,
            32.814699
          ],
          [
            34.992815,
            32.814715
          ],
          [
            34.992733,
            32.814743
          ],
          [
            34.99267,
            32.814777
          ],
          [
            34.992609,
            32.814817
          ],
          [
            34.992538,
            32.814908
          ],
          [
            34.992429,
            32.815061
          ],
          [
            34.992356,
            32.815174
          ],
          [
            34.992289,
            32.815245
          ],
          [
            34.992242,
            32.815292
          ],
          [
            34.992185,
            32.815334
          ],
          [
            34.992103,
            32.815372
          ],
          [
            34.991955,
            32.815211
          ],
          [
            34.991903,
            32.815155
          ],
          [
            34.991871,
            32.815113
          ],
          [
            34.991852,
            32.815078
          ],
          [
            34.991826,
            32.815027
          ],
          [
            34.991821,
            32.81502
          ],
          [
            34.991789,
            32.814961
          ],
          [
            34.991771,
            32.814922
          ],
          [
            34.991757,
            32.814858
          ],
          [
            34.991744,
            32.814779
          ],
          [
            34.99174,
            32.81471
          ],
          [
            34.991734,
            32.814661
          ],
          [
            34.99171,
            32.81461
          ],
          [
            34.991672,
            32.814555
          ],
          [
            34.991574,
            32.814451
          ],
          [
            34.991284,
            32.814217
          ],
          [
            34.991243,
            32.814162
          ],
          [
            34.99123,
            32.814119
          ],
          [
            34.991226,
            32.814062
          ],
          [
            34.991233,
            32.814002
          ],
          [
            34.991458,
            32.813529
          ],
          [
            34.991486,
            32.813463
          ],
          [
            34.991535,
            32.813247
          ],
          [
            34.991549,
            32.813161
          ],
          [
            34.991548,
            32.813069
          ],
          [
            34.991548,
            32.813034
          ],
          [
            34.991537,
            32.812939
          ],
          [
            34.991522,
            32.812879
          ],
          [
            34.991486,
            32.812787
          ],
          [
            34.991435,
            32.812672
          ],
          [
            34.991371,
            32.812562
          ],
          [
            34.991224,
            32.812391
          ],
          [
            34.991136,
            32.8123
          ],
          [
            34.991077,
            32.812248
          ],
          [
            34.991032,
            32.812214
          ],
          [
            34.990961,
            32.812168
          ],
          [
            34.990896,
            32.812146
          ],
          [
            34.990838,
            32.812135
          ],
          [
            34.990789,
            32.812133
          ],
          [
            34.990741,
            32.812135
          ],
          [
            34.990685,
            32.812148
          ],
          [
            34.990486,
            32.812215
          ],
          [
            34.990223,
            32.81232
          ],
          [
            34.989998,
            32.81241
          ],
          [
            34.989644,
            32.812559
          ],
          [
            34.989366,
            32.812674
          ],
          [
            34.989242,
            32.812751
          ],
          [
            34.989201,
            32.812777
          ],
          [
            34.989141,
            32.81281
          ],
          [
            34.989078,
            32.812832
          ],
          [
            34.988998,
            32.812847
          ],
          [
            34.988899,
            32.81286
          ],
          [
            34.988798,
            32.812859
          ],
          [
            34.988681,
            32.812845
          ],
          [
            34.988326,
            32.812845
          ],
          [
            34.98823,
            32.812857
          ],
          [
            34.988146,
            32.812873
          ],
          [
            34.98807,
            32.812898
          ],
          [
            34.987984,
            32.812937
          ],
          [
            34.987804,
            32.813046
          ],
          [
            34.987685,
            32.813134
          ],
          [
            34.987448,
            32.81329
          ],
          [
            34.987389,
            32.813332
          ],
          [
            34.987259,
            32.813457
          ],
          [
            34.987222,
            32.813492
          ],
          [
            34.987178,
            32.813522
          ],
          [
            34.986859,
            32.813719
          ],
          [
            34.986709,
            32.813792
          ],
          [
            34.98667,
            32.813808
          ],
          [
            34.986565,
            32.813891
          ],
          [
            34.985885,
            32.814321
          ],
          [
            34.98586,
            32.814336
          ],
          [
            34.98551,
            32.814549
          ],
          [
            34.985096,
            32.814763
          ],
          [
            34.984977,
            32.814821
          ],
          [
            34.984911,
            32.814847
          ],
          [
            34.984765,
            32.814885
          ],
          [
            34.984218,
            32.815027
          ],
          [
            34.983685,
            32.815155
          ],
          [
            34.983502,
            32.815212
          ],
          [
            34.983423,
            32.815227
          ],
          [
            34.983209,
            32.815336
          ],
          [
            34.983146,
            32.815359
          ],
          [
            34.982533,
            32.815568
          ],
          [
            34.982454,
            32.815594
          ],
          [
            34.981203,
            32.816006
          ],
          [
            34.980316,
            32.816275
          ],
          [
            34.980154,
            32.816323
          ],
          [
            34.979991,
            32.816378
          ],
          [
            34.979816,
            32.81644
          ],
          [
            34.979774,
            32.816454
          ],
          [
            34.979655,
            32.816491
          ],
          [
            34.979483,
            32.81656
          ],
          [
            34.979442,
            32.816588
          ],
          [
            34.979268,
            32.816697
          ],
          [
            34.978954,
            32.816959
          ],
          [
            34.978776,
            32.817078
          ],
          [
            34.978537,
            32.817177
          ],
          [
            34.978353,
            32.817253
          ],
          [
            34.978331,
            32.817262
          ],
          [
            34.977833,
            32.817482
          ],
          [
            34.977724,
            32.817536
          ],
          [
            34.977598,
            32.817613
          ],
          [
            34.977587,
            32.817639
          ],
          [
            34.977294,
            32.817954
          ],
          [
            34.977193,
            32.818045
          ],
          [
            34.976651,
            32.818495
          ],
          [
            34.976366,
            32.81874
          ],
          [
            34.976366,
            32.818752
          ],
          [
            34.976363,
            32.818767
          ],
          [
            34.976359,
            32.818777
          ],
          [
            34.976352,
            32.818789
          ],
          [
            34.976344,
            32.818799
          ],
          [
            34.976336,
            32.818807
          ],
          [
            34.976321,
            32.818816
          ],
          [
            34.97631,
            32.818822
          ],
          [
            34.976299,
            32.818825
          ],
          [
            34.976281,
            32.818829
          ],
          [
            34.976269,
            32.81883
          ],
          [
            34.976255,
            32.818829
          ],
          [
            34.976234,
            32.818846
          ],
          [
            34.976056,
            32.818986
          ],
          [
            34.976028,
            32.819009
          ],
          [
            34.975642,
            32.819324
          ],
          [
            34.975245,
            32.819667
          ],
          [
            34.975067,
            32.81982
          ],
          [
            34.974775,
            32.820096
          ],
          [
            34.974546,
            32.820319
          ],
          [
            34.974411,
            32.820491
          ],
          [
            34.974323,
            32.820615
          ],
          [
            34.974228,
            32.820841
          ],
          [
            34.974167,
            32.821013
          ],
          [
            34.974153,
            32.821107
          ],
          [
            34.974138,
            32.821203
          ],
          [
            34.974125,
            32.821297
          ],
          [
            34.974135,
            32.821834
          ],
          [
            34.974123,
            32.822307
          ],
          [
            34.974086,
            32.822472
          ],
          [
            34.97402,
            32.822671
          ],
          [
            34.973936,
            32.822834
          ],
          [
            34.973887,
            32.822892
          ],
          [
            34.973856,
            32.822929
          ],
          [
            34.973739,
            32.823027
          ],
          [
            34.973448,
            32.82322
          ],
          [
            34.973008,
            32.823522
          ],
          [
            34.972633,
            32.823761
          ],
          [
            34.972568,
            32.823799
          ],
          [
            34.97248,
            32.82385
          ],
          [
            34.972324,
            32.82392
          ],
          [
            34.971847,
            32.824152
          ],
          [
            34.97085,
            32.824683
          ],
          [
            34.970793,
            32.824618
          ],
          [
            34.970733,
            32.824425
          ],
          [
            34.970721,
            32.824392
          ],
          [
            34.970715,
            32.824342
          ],
          [
            34.970743,
            32.824062
          ],
          [
            34.970748,
            32.824017
          ],
          [
            34.970752,
            32.823931
          ],
          [
            34.970753,
            32.8239
          ],
          [
            34.970731,
            32.823737
          ],
          [
            34.97072,
            32.823598
          ],
          [
            34.970698,
            32.823484
          ],
          [
            34.970703,
            32.823395
          ],
          [
            34.970713,
            32.823352
          ],
          [
            34.970737,
            32.823319
          ],
          [
            34.970774,
            32.823294
          ],
          [
            34.970862,
            32.823257
          ],
          [
            34.970975,
            32.823237
          ],
          [
            34.970998,
            32.823234
          ],
          [
            34.971317,
            32.823203
          ],
          [
            34.971802,
            32.823115
          ],
          [
            34.972271,
            32.822985
          ],
          [
            34.972427,
            32.822936
          ],
          [
            34.972567,
            32.822849
          ],
          [
            34.972695,
            32.82277
          ],
          [
            34.972808,
            32.822678
          ],
          [
            34.972831,
            32.822638
          ],
          [
            34.972871,
            32.822569
          ],
          [
            34.972917,
            32.822442
          ],
          [
            34.972951,
            32.822304
          ],
          [
            34.972964,
            32.82217
          ],
          [
            34.972969,
            32.822042
          ],
          [
            34.97291,
            32.821879
          ],
          [
            34.972868,
            32.821805
          ],
          [
            34.972793,
            32.821714
          ],
          [
            34.97279,
            32.821712
          ],
          [
            34.972536,
            32.821574
          ],
          [
            34.972508,
            32.821559
          ],
          [
            34.972507,
            32.82156
          ],
          [
            34.97248,
            32.821556
          ],
          [
            34.972429,
            32.821548
          ],
          [
            34.972363,
            32.821535
          ],
          [
            34.972253,
            32.821508
          ],
          [
            34.972237,
            32.8215
          ],
          [
            34.972224,
            32.821494
          ],
          [
            34.97216,
            32.821462
          ],
          [
            34.971952,
            32.821442
          ],
          [
            34.971639,
            32.821392
          ],
          [
            34.97137,
            32.821349
          ],
          [
            34.971357,
            32.821347
          ],
          [
            34.971303,
            32.821338
          ],
          [
            34.971063,
            32.8213
          ],
          [
            34.970766,
            32.821253
          ],
          [
            34.970701,
            32.821242
          ],
          [
            34.970479,
            32.821213
          ],
          [
            34.970173,
            32.821161
          ],
          [
            34.969607,
            32.821065
          ],
          [
            34.969516,
            32.821026
          ],
          [
            34.969471,
            32.820958
          ],
          [
            34.9693,
            32.820363
          ],
          [
            34.969116,
            32.819847
          ],
          [
            34.969044,
            32.819798
          ],
          [
            34.968948,
            32.819781
          ],
          [
            34.96877,
            32.819801
          ],
          [
            34.968288,
            32.819874
          ],
          [
            34.968218,
            32.819904
          ],
          [
            34.968021,
            32.8201
          ],
          [
            34.967901,
            32.820212
          ],
          [
            34.967804,
            32.820304
          ],
          [
            34.967795,
            32.820313
          ],
          [
            34.966713,
            32.821363
          ],
          [
            34.96653,
            32.821545
          ],
          [
            34.966493,
            32.821624
          ],
          [
            34.966485,
            32.821639
          ],
          [
            34.966478,
            32.821647
          ],
          [
            34.96647,
            32.821654
          ],
          [
            34.966461,
            32.82166
          ],
          [
            34.966455,
            32.821663
          ],
          [
            34.966436,
            32.821671
          ],
          [
            34.966425,
            32.821674
          ],
          [
            34.966413,
            32.821675
          ],
          [
            34.966396,
            32.821675
          ],
          [
            34.966385,
            32.821673
          ],
          [
            34.966374,
            32.82167
          ],
          [
            34.966363,
            32.821666
          ],
          [
            34.966356,
            32.821662
          ],
          [
            34.966351,
            32.821666
          ],
          [
            34.96631,
            32.821746
          ],
          [
            34.96626,
            32.821827
          ],
          [
            34.966216,
            32.821906
          ],
          [
            34.966204,
            32.821961
          ],
          [
            34.966203,
            32.822005
          ],
          [
            34.96621,
            32.822141
          ],
          [
            34.966234,
            32.822229
          ],
          [
            34.966243,
            32.822294
          ],
          [
            34.966243,
            32.822354
          ],
          [
            34.96622,
            32.822428
          ],
          [
            34.966208,
            32.822488
          ],
          [
            34.966106,
            32.822469
          ],
          [
            34.965946,
            32.822432
          ],
          [
            34.965637,
            32.822344
          ],
          [
            34.965477,
            32.822278
          ],
          [
            34.96509,
            32.822114
          ],
          [
            34.965064,
            32.822103
          ],
          [
            34.964921,
            32.822027
          ],
          [
            34.964756,
            32.82195
          ],
          [
            34.964641,
            32.821883
          ],
          [
            34.964509,
            32.821798
          ],
          [
            34.964352,
            32.821705
          ],
          [
            34.964329,
            32.821702
          ],
          [
            34.964312,
            32.821695
          ],
          [
            34.964293,
            32.821689
          ],
          [
            34.964262,
            32.82166
          ],
          [
            34.964252,
            32.821637
          ],
          [
            34.964249,
            32.821611
          ],
          [
            34.964256,
            32.821585
          ],
          [
            34.964266,
            32.821565
          ],
          [
            34.964282,
            32.821551
          ],
          [
            34.963648,
            32.820938
          ],
          [
            34.963561,
            32.820854
          ],
          [
            34.962969,
            32.820331
          ],
          [
            34.962799,
            32.82018
          ],
          [
            34.962635,
            32.820079
          ],
          [
            34.962462,
            32.819992
          ],
          [
            34.962278,
            32.819911
          ],
          [
            34.962151,
            32.819869
          ],
          [
            34.962009,
            32.819846
          ],
          [
            34.961713,
            32.819867
          ],
          [
            34.961659,
            32.819874
          ],
          [
            34.96106,
            32.81995
          ],
          [
            34.96102,
            32.819955
          ],
          [
            34.960714,
            32.819991
          ],
          [
            34.960716,
            32.820001
          ],
          [
            34.960717,
            32.820013
          ],
          [
            34.960716,
            32.820025
          ],
          [
            34.960713,
            32.820037
          ],
          [
            34.960706,
            32.820054
          ],
          [
            34.960699,
            32.820065
          ],
          [
            34.960691,
            32.820075
          ],
          [
            34.960681,
            32.820083
          ],
          [
            34.96067,
            32.820091
          ],
          [
            34.960658,
            32.820098
          ],
          [
            34.960645,
            32.820103
          ],
          [
            34.960631,
            32.820107
          ],
          [
            34.960617,
            32.820109
          ],
          [
            34.960603,
            32.82011
          ],
          [
            34.960592,
            32.82011
          ],
          [
            34.960574,
            32.820108
          ],
          [
            34.960554,
            32.820102
          ],
          [
            34.960535,
            32.820093
          ],
          [
            34.960519,
            32.820081
          ],
          [
            34.960505,
            32.820067
          ],
          [
            34.960495,
            32.820051
          ],
          [
            34.960488,
            32.820033
          ],
          [
            34.960486,
            32.820018
          ],
          [
            34.960181,
            32.820057
          ],
          [
            34.959876,
            32.820097
          ],
          [
            34.95966,
            32.820126
          ],
          [
            34.959579,
            32.820135
          ],
          [
            34.959149,
            32.820187
          ],
          [
            34.958914,
            32.820215
          ],
          [
            34.958914,
            32.820242
          ],
          [
            34.958907,
            32.820263
          ],
          [
            34.958891,
            32.820287
          ],
          [
            34.958864,
            32.820303
          ],
          [
            34.958834,
            32.820314
          ],
          [
            34.958805,
            32.820314
          ],
          [
            34.958784,
            32.820312
          ],
          [
            34.958755,
            32.820305
          ],
          [
            34.958721,
            32.820278
          ],
          [
            34.95872,
            32.820275
          ],
          [
            34.958707,
            32.820241
          ],
          [
            34.958707,
            32.82021
          ],
          [
            34.958714,
            32.820192
          ],
          [
            34.958716,
            32.820185
          ],
          [
            34.958735,
            32.820163
          ],
          [
            34.958736,
            32.820161
          ],
          [
            34.958734,
            32.820101
          ],
          [
            34.958732,
            32.820063
          ],
          [
            34.95869,
            32.819844
          ],
          [
            34.95865,
            32.819655
          ],
          [
            34.958612,
            32.819459
          ],
          [
            34.958594,
            32.819279
          ],
          [
            34.958578,
            32.818959
          ],
          [
            34.958578,
            32.818913
          ],
          [
            34.958598,
            32.818798
          ],
          [
            34.958632,
            32.818687
          ],
          [
            34.958716,
            32.818405
          ],
          [
            34.958803,
            32.818201
          ],
          [
            34.959013,
            32.817905
          ],
          [
            34.959164,
            32.817705
          ],
          [
            34.959249,
            32.817583
          ],
          [
            34.959315,
            32.817459
          ],
          [
            34.959314,
            32.817448
          ],
          [
            34.959316,
            32.817437
          ],
          [
            34.959319,
            32.817427
          ],
          [
            34.959323,
            32.817417
          ],
          [
            34.959329,
            32.817407
          ],
          [
            34.959337,
            32.817398
          ],
          [
            34.959345,
            32.81739
          ],
          [
            34.95936,
            32.81738
          ],
          [
            34.959379,
            32.817372
          ],
          [
            34.959391,
            32.817369
          ],
          [
            34.959404,
            32.817366
          ],
          [
            34.959418,
            32.817365
          ],
          [
            34.959431,
            32.817365
          ],
          [
            34.959445,
            32.817367
          ],
          [
            34.959458,
            32.817369
          ],
          [
            34.95947,
            32.817373
          ],
          [
            34.959482,
            32.817379
          ],
          [
            34.959493,
            32.817385
          ],
          [
            34.959502,
            32.817392
          ],
          [
            34.959511,
            32.817401
          ],
          [
            34.959518,
            32.81741
          ],
          [
            34.959524,
            32.817419
          ],
          [
            34.959527,
            32.817428
          ],
          [
            34.959529,
            32.817435
          ],
          [
            34.959531,
            32.817445
          ],
          [
            34.95953,
            32.817461
          ],
          [
            34.959526,
            32.817477
          ],
          [
            34.959518,
            32.817492
          ],
          [
            34.959573,
            32.817504
          ],
          [
            34.959688,
            32.817545
          ],
          [
            34.95981,
            32.817578
          ],
          [
            34.959905,
            32.817587
          ],
          [
            34.96002,
            32.817573
          ],
          [
            34.960142,
            32.817536
          ],
          [
            34.960098,
            32.817812
          ],
          [
            34.960075,
            32.818055
          ],
          [
            34.960017,
            32.818211
          ],
          [
            34.959978,
            32.818367
          ],
          [
            34.959994,
            32.818409
          ],
          [
            34.96001,
            32.818482
          ],
          [
            34.960033,
            32.818532
          ],
          [
            34.960073,
            32.818594
          ],
          [
            34.96011,
            32.818642
          ],
          [
            34.960154,
            32.818688
          ],
          [
            34.960219,
            32.818734
          ],
          [
            34.960286,
            32.818767
          ],
          [
            34.960382,
            32.818796
          ],
          [
            34.960536,
            32.818828
          ],
          [
            34.960633,
            32.818843
          ],
          [
            34.960716,
            32.818848
          ],
          [
            34.960827,
            32.818845
          ],
          [
            34.961012,
            32.818784
          ],
          [
            34.961149,
            32.818719
          ],
          [
            34.961291,
            32.818661
          ],
          [
            34.961387,
            32.818627
          ],
          [
            34.961451,
            32.818603
          ],
          [
            34.961537,
            32.818579
          ],
          [
            34.961635,
            32.818564
          ],
          [
            34.96172,
            32.818555
          ],
          [
            34.961901,
            32.818543
          ],
          [
            34.96245,
            32.818515
          ],
          [
            34.962928,
            32.818493
          ],
          [
            34.963465,
            32.818473
          ],
          [
            34.963735,
            32.818468
          ],
          [
            34.963847,
            32.818441
          ],
          [
            34.963895,
            32.818411
          ],
          [
            34.963936,
            32.818278
          ],
          [
            34.964,
            32.818024
          ],
          [
            34.964013,
            32.817924
          ],
          [
            34.963506,
            32.817954
          ],
          [
            34.963495,
            32.817955
          ],
          [
            34.963308,
            32.817969
          ],
          [
            34.963249,
            32.817972
          ],
          [
            34.962642,
            32.818002
          ],
          [
            34.962437,
            32.817933
          ],
          [
            34.962371,
            32.817912
          ],
          [
            34.961852,
            32.817757
          ],
          [
            34.961569,
            32.817664
          ],
          [
            34.961313,
            32.817591
          ],
          [
            34.96113,
            32.817538
          ],
          [
            34.961002,
            32.817499
          ],
          [
            34.960913,
            32.817472
          ],
          [
            34.960653,
            32.81742
          ],
          [
            34.960366,
            32.817466
          ],
          [
            34.960142,
            32.817536
          ],
          [
            34.96002,
            32.817573
          ],
          [
            34.959905,
            32.817587
          ],
          [
            34.95981,
            32.817578
          ],
          [
            34.959688,
            32.817545
          ],
          [
            34.959573,
            32.817504
          ],
          [
            34.959518,
            32.817492
          ],
          [
            34.959511,
            32.817501
          ],
          [
            34.959502,
            32.817509
          ],
          [
            34.959487,
            32.817519
          ],
          [
            34.95947,
            32.817528
          ],
          [
            34.959451,
            32.817533
          ],
          [
            34.959437,
            32.817535
          ],
          [
            34.959424,
            32.817536
          ],
          [
            34.959404,
            32.817535
          ],
          [
            34.959384,
            32.817531
          ],
          [
            34.959372,
            32.817526
          ],
          [
            34.959361,
            32.817521
          ],
          [
            34.95935,
            32.817514
          ],
          [
            34.959341,
            32.817506
          ],
          [
            34.959329,
            32.817493
          ],
          [
            34.95932,
            32.817479
          ],
          [
            34.959317,
            32.817469
          ],
          [
            34.959315,
            32.817459
          ],
          [
            34.959314,
            32.817448
          ],
          [
            34.959316,
            32.817437
          ],
          [
            34.959319,
            32.817427
          ],
          [
            34.959323,
            32.817417
          ],
          [
            34.959329,
            32.817407
          ],
          [
            34.959337,
            32.817398
          ],
          [
            34.959345,
            32.81739
          ],
          [
            34.95936,
            32.81738
          ],
          [
            34.959459,
            32.81725
          ],
          [
            34.959564,
            32.817094
          ],
          [
            34.959694,
            32.816902
          ],
          [
            34.959813,
            32.816684
          ],
          [
            34.959889,
            32.81651
          ],
          [
            34.95996,
            32.816318
          ],
          [
            34.96,
            32.816161
          ],
          [
            34.960017,
            32.816054
          ],
          [
            34.960055,
            32.815791
          ],
          [
            34.960092,
            32.815598
          ],
          [
            34.960102,
            32.815541
          ],
          [
            34.960123,
            32.815443
          ],
          [
            34.960197,
            32.815119
          ],
          [
            34.960292,
            32.814765
          ],
          [
            34.96042,
            32.814407
          ],
          [
            34.960479,
            32.814239
          ],
          [
            34.96049,
            32.814147
          ],
          [
            34.960454,
            32.814062
          ],
          [
            34.960402,
            32.814005
          ],
          [
            34.960283,
            32.813906
          ],
          [
            34.959904,
            32.813798
          ],
          [
            34.959382,
            32.813635
          ],
          [
            34.959092,
            32.813546
          ],
          [
            34.957986,
            32.813204
          ],
          [
            34.957958,
            32.813197
          ],
          [
            34.957701,
            32.813129
          ],
          [
            34.956889,
            32.812906
          ],
          [
            34.956511,
            32.812834
          ],
          [
            34.95643,
            32.812821
          ],
          [
            34.95633,
            32.812802
          ],
          [
            34.956341,
            32.812728
          ],
          [
            34.956347,
            32.812671
          ],
          [
            34.956404,
            32.812186
          ],
          [
            34.956482,
            32.811544
          ],
          [
            34.956701,
            32.810252
          ],
          [
            34.956867,
            32.809589
          ],
          [
            34.957268,
            32.808101
          ],
          [
            34.957688,
            32.806593
          ],
          [
            34.957793,
            32.806242
          ],
          [
            34.9579,
            32.805883
          ],
          [
            34.958011,
            32.80551
          ],
          [
            34.958216,
            32.804661
          ],
          [
            34.958472,
            32.804114
          ],
          [
            34.958775,
            32.803486
          ],
          [
            34.959051,
            32.802994
          ],
          [
            34.959281,
            32.802652
          ],
          [
            34.959572,
            32.802195
          ],
          [
            34.959652,
            32.802053
          ],
          [
            34.959807,
            32.801778
          ],
          [
            34.960017,
            32.801389
          ],
          [
            34.96019,
            32.80112
          ],
          [
            34.960453,
            32.800716
          ],
          [
            34.960607,
            32.800477
          ],
          [
            34.960723,
            32.800297
          ],
          [
            34.960991,
            32.799906
          ],
          [
            34.961349,
            32.79936
          ],
          [
            34.961444,
            32.799137
          ],
          [
            34.961513,
            32.798969
          ],
          [
            34.961584,
            32.798816
          ],
          [
            34.961621,
            32.798693
          ],
          [
            34.961666,
            32.79847
          ],
          [
            34.961679,
            32.798243
          ],
          [
            34.961673,
            32.798066
          ],
          [
            34.961652,
            32.797868
          ],
          [
            34.961618,
            32.797682
          ],
          [
            34.96159,
            32.797563
          ],
          [
            34.961556,
            32.797441
          ],
          [
            34.961489,
            32.797266
          ],
          [
            34.961385,
            32.797029
          ],
          [
            34.961283,
            32.796795
          ],
          [
            34.961226,
            32.796656
          ],
          [
            34.960979,
            32.796069
          ],
          [
            34.960893,
            32.79587
          ],
          [
            34.960825,
            32.795709
          ],
          [
            34.960776,
            32.795574
          ],
          [
            34.96074,
            32.795453
          ],
          [
            34.960717,
            32.795309
          ],
          [
            34.960689,
            32.795028
          ],
          [
            34.960694,
            32.794893
          ],
          [
            34.960702,
            32.794767
          ],
          [
            34.960718,
            32.794644
          ],
          [
            34.96074,
            32.79456
          ],
          [
            34.960777,
            32.794422
          ],
          [
            34.960832,
            32.794254
          ],
          [
            34.960937,
            32.79404
          ],
          [
            34.960987,
            32.793908
          ],
          [
            34.961022,
            32.793817
          ],
          [
            34.961056,
            32.793751
          ],
          [
            34.96109,
            32.79366
          ],
          [
            34.96116,
            32.793484
          ],
          [
            34.961447,
            32.792798
          ],
          [
            34.961473,
            32.792729
          ],
          [
            34.961492,
            32.792685
          ],
          [
            34.961517,
            32.792609
          ],
          [
            34.961566,
            32.792496
          ],
          [
            34.961622,
            32.792371
          ],
          [
            34.961734,
            32.792109
          ],
          [
            34.961799,
            32.791925
          ],
          [
            34.961856,
            32.79178
          ],
          [
            34.961942,
            32.791543
          ],
          [
            34.961992,
            32.791347
          ],
          [
            34.96201,
            32.791189
          ],
          [
            34.962034,
            32.790984
          ],
          [
            34.962028,
            32.790888
          ],
          [
            34.962017,
            32.790786
          ],
          [
            34.961997,
            32.790659
          ],
          [
            34.961982,
            32.790616
          ],
          [
            34.961972,
            32.790579
          ],
          [
            34.961939,
            32.790527
          ],
          [
            34.961887,
            32.790472
          ],
          [
            34.961831,
            32.790436
          ],
          [
            34.961758,
            32.790407
          ],
          [
            34.961653,
            32.790387
          ],
          [
            34.961396,
            32.790343
          ],
          [
            34.961088,
            32.790327
          ],
          [
            34.960794,
            32.790305
          ],
          [
            34.960338,
            32.790255
          ],
          [
            34.960274,
            32.790247
          ],
          [
            34.960217,
            32.790243
          ],
          [
            34.959962,
            32.790247
          ],
          [
            34.959612,
            32.790236
          ],
          [
            34.959414,
            32.790239
          ],
          [
            34.959322,
            32.790248
          ],
          [
            34.959243,
            32.790258
          ],
          [
            34.959171,
            32.790277
          ],
          [
            34.959118,
            32.790296
          ],
          [
            34.959033,
            32.790338
          ],
          [
            34.958971,
            32.790371
          ],
          [
            34.958922,
            32.790415
          ],
          [
            34.958872,
            32.790467
          ],
          [
            34.958832,
            32.790513
          ],
          [
            34.958777,
            32.790613
          ],
          [
            34.958733,
            32.790701
          ],
          [
            34.958583,
            32.791034
          ],
          [
            34.958551,
            32.791147
          ],
          [
            34.9585,
            32.791279
          ],
          [
            34.958441,
            32.791394
          ],
          [
            34.958366,
            32.791488
          ],
          [
            34.958188,
            32.791677
          ],
          [
            34.95813,
            32.791728
          ],
          [
            34.958065,
            32.79179
          ],
          [
            34.957999,
            32.791836
          ],
          [
            34.95792,
            32.791913
          ],
          [
            34.957881,
            32.791961
          ],
          [
            34.957831,
            32.792024
          ],
          [
            34.957783,
            32.792098
          ],
          [
            34.957737,
            32.792185
          ],
          [
            34.957721,
            32.792231
          ],
          [
            34.957707,
            32.792282
          ],
          [
            34.957701,
            32.792308
          ],
          [
            34.957687,
            32.792386
          ],
          [
            34.95768,
            32.792433
          ],
          [
            34.957683,
            32.792558
          ],
          [
            34.957691,
            32.792627
          ],
          [
            34.957707,
            32.792746
          ],
          [
            34.957732,
            32.792848
          ],
          [
            34.957784,
            32.79303
          ],
          [
            34.957855,
            32.793388
          ],
          [
            34.957999,
            32.793945
          ],
          [
            34.958103,
            32.794378
          ],
          [
            34.958121,
            32.794458
          ],
          [
            34.958138,
            32.794501
          ],
          [
            34.958156,
            32.794527
          ],
          [
            34.95819,
            32.794561
          ],
          [
            34.958202,
            32.794563
          ],
          [
            34.958218,
            32.794569
          ],
          [
            34.958233,
            32.794577
          ],
          [
            34.95824,
            32.794581
          ],
          [
            34.958246,
            32.794586
          ],
          [
            34.958258,
            32.794597
          ],
          [
            34.958269,
            32.794609
          ],
          [
            34.958277,
            32.794622
          ],
          [
            34.958283,
            32.794635
          ],
          [
            34.958288,
            32.79465
          ],
          [
            34.95829,
            32.794664
          ],
          [
            34.95829,
            32.794671
          ],
          [
            34.958289,
            32.794686
          ],
          [
            34.958288,
            32.794693
          ],
          [
            34.958283,
            32.794707
          ],
          [
            34.958277,
            32.794721
          ],
          [
            34.958268,
            32.794734
          ],
          [
            34.958263,
            32.79474
          ],
          [
            34.958252,
            32.794751
          ],
          [
            34.958242,
            32.794759
          ],
          [
            34.958225,
            32.79477
          ],
          [
            34.95821,
            32.794777
          ],
          [
            34.958202,
            32.79478
          ],
          [
            34.958185,
            32.794784
          ],
          [
            34.958176,
            32.794786
          ],
          [
            34.958159,
            32.794788
          ],
          [
            34.958141,
            32.794788
          ],
          [
            34.958115,
            32.794785
          ],
          [
            34.958098,
            32.794781
          ],
          [
            34.958075,
            32.794771
          ],
          [
            34.957987,
            32.794777
          ],
          [
            34.95779,
            32.794799
          ],
          [
            34.957688,
            32.794804
          ],
          [
            34.957595,
            32.794806
          ],
          [
            34.957239,
            32.794818
          ],
          [
            34.957184,
            32.794821
          ],
          [
            34.957016,
            32.794821
          ],
          [
            34.956942,
            32.794818
          ],
          [
            34.956898,
            32.794813
          ],
          [
            34.956854,
            32.794806
          ],
          [
            34.956813,
            32.794797
          ],
          [
            34.956782,
            32.794786
          ],
          [
            34.956749,
            32.794771
          ],
          [
            34.956711,
            32.79475
          ],
          [
            34.956674,
            32.794724
          ],
          [
            34.956643,
            32.794696
          ],
          [
            34.956595,
            32.794638
          ],
          [
            34.956569,
            32.794586
          ],
          [
            34.956557,
            32.79454
          ],
          [
            34.956553,
            32.794496
          ],
          [
            34.956563,
            32.794413
          ],
          [
            34.956568,
            32.794356
          ],
          [
            34.956575,
            32.794315
          ],
          [
            34.956582,
            32.794283
          ],
          [
            34.956607,
            32.794223
          ],
          [
            34.956621,
            32.7942
          ],
          [
            34.956634,
            32.794174
          ],
          [
            34.956646,
            32.794121
          ],
          [
            34.956642,
            32.794105
          ],
          [
            34.95664,
            32.79409
          ],
          [
            34.956641,
            32.794076
          ],
          [
            34.956644,
            32.794061
          ],
          [
            34.956649,
            32.794047
          ],
          [
            34.956656,
            32.794034
          ],
          [
            34.956665,
            32.794021
          ],
          [
            34.956679,
            32.794007
          ],
          [
            34.956696,
            32.793995
          ],
          [
            34.95671,
            32.793986
          ],
          [
            34.956718,
            32.793983
          ],
          [
            34.956735,
            32.793977
          ],
          [
            34.956752,
            32.793973
          ],
          [
            34.956761,
            32.793971
          ],
          [
            34.956779,
            32.79397
          ],
          [
            34.956797,
            32.79397
          ],
          [
            34.956806,
            32.793971
          ],
          [
            34.956815,
            32.793972
          ],
          [
            34.956832,
            32.793976
          ],
          [
            34.95685,
            32.793982
          ],
          [
            34.956872,
            32.793993
          ],
          [
            34.956886,
            32.794002
          ],
          [
            34.956898,
            32.794013
          ],
          [
            34.956908,
            32.794025
          ],
          [
            34.956917,
            32.794038
          ],
          [
            34.956921,
            32.794044
          ],
          [
            34.956926,
            32.794058
          ],
          [
            34.956929,
            32.794073
          ],
          [
            34.95693,
            32.79408
          ],
          [
            34.956929,
            32.794087
          ],
          [
            34.956969,
            32.794124
          ],
          [
            34.957018,
            32.794166
          ],
          [
            34.957083,
            32.794223
          ],
          [
            34.957136,
            32.794281
          ],
          [
            34.957163,
            32.794321
          ],
          [
            34.957193,
            32.794385
          ],
          [
            34.957207,
            32.794429
          ],
          [
            34.957221,
            32.794481
          ],
          [
            34.957229,
            32.794536
          ],
          [
            34.957237,
            32.794625
          ],
          [
            34.957239,
            32.794818
          ],
          [
            34.957245,
            32.795165
          ],
          [
            34.957225,
            32.7956
          ],
          [
            34.957226,
            32.796165
          ],
          [
            34.957136,
            32.796203
          ],
          [
            34.957043,
            32.796222
          ],
          [
            34.956996,
            32.796154
          ],
          [
            34.956976,
            32.79612
          ],
          [
            34.957003250951864,
            32.795780271466725
          ]
        ]
      }
    },
    {
      "type": "Feature",
      "properties": {
        "type": "original_route_stop",
        "stop_code": "41144",
        "stop_name": "תחנת כרמלית/הנביאים",
        "marker-color": "#2ca02c",
        "marker-symbol": "bus",
        "marker-size": "medium"
      },
      "geometry": {
        "type": "Point",
        "coordinates": [
          34.995015,
          32.812434
        ]
      }
    },
    {
      "type": "Feature",
      "properties": {
        "type": "original_route_stop",
        "stop_code": "41574",
        "stop_name": "שבתאי לוי/פרץ",
        "marker-color": "#2ca02c",
        "marker-symbol": "bus",
        "marker-size": "medium"
      },
      "geometry": {
        "type": "Point",
        "coordinates": [
          34.994313,
          32.813298
        ]
      }
    },
    {
      "type": "Feature",
      "properties": {
        "type": "original_route_stop",
        "stop_code": "41164",
        "stop_name": "שבתאי לוי/רשפון",
        "marker-color": "#2ca02c",
        "marker-symbol": "bus",
        "marker-size": "medium"
      },
      "geometry": {
        "type": "Point",
        "coordinates": [
          34.993351,
          32.814497
        ]
      }
    },
    {
      "type": "Feature",
      "properties": {
        "type": "original_route_stop",
        "stop_code": "41702",
        "stop_name": "הציונות/הרצליה",
        "marker-color": "#2ca02c",
        "marker-symbol": "bus",
        "marker-size": "medium"
      },
      "geometry": {
        "type": "Point",
        "coordinates": [
          34.991175,
          32.814039
        ]
      }
    },
    {
      "type": "Feature",
      "properties": {
        "type": "original_route_stop",
        "stop_code": "43209",
        "stop_name": "הציונות/פועה",
        "marker-color": "#2ca02c",
        "marker-symbol": "bus",
        "marker-size": "medium"
      },
      "geometry": {
        "type": "Point",
        "coordinates": [
          34.989974,
          32.81247
        ]
      }
    },
    {
      "type": "Feature",
      "properties": {
        "type": "original_route_stop",
        "stop_code": "41566",
        "stop_name": "הציונות/הילל",
        "marker-color": "#2ca02c",
        "marker-symbol": "bus",
        "marker-size": "medium"
      },
      "geometry": {
        "type": "Point",
        "coordinates": [
          34.988512,
          32.81289
        ]
      }
    },
    {
      "type": "Feature",
      "properties": {
        "type": "original_route_stop",
        "stop_code": "41567",
        "stop_name": "גן הבהאים/הציונות",
        "marker-color": "#2ca02c",
        "marker-symbol": "bus",
        "marker-size": "medium"
      },
      "geometry": {
        "type": "Point",
        "coordinates": [
          34.9857,
          32.814489
        ]
      }
    },
    {
      "type": "Feature",
      "properties": {
        "type": "original_route_stop",
        "stop_code": "42239",
        "stop_name": "הציונות/שניים בנובמבר",
        "marker-color": "#2ca02c",
        "marker-symbol": "bus",
        "marker-size": "medium"
      },
      "geometry": {
        "type": "Point",
        "coordinates": [
          34.982049,
          32.815776
        ]
      }
    },
    {
      "type": "Feature",
      "properties": {
        "type": "original_route_stop",
        "stop_code": "41826",
        "stop_name": "טשרניחובסקי/היובל",
        "marker-color": "#2ca02c",
        "marker-symbol": "bus",
        "marker-size": "medium"
      },
      "geometry": {
        "type": "Point",
        "coordinates": [
          34.978966,
          32.817008
        ]
      }
    },
    {
      "type": "Feature",
      "properties": {
        "type": "original_route_stop",
        "stop_code": "42939",
        "stop_name": "טשרניחובסקי/זאב",
        "marker-color": "#2ca02c",
        "marker-symbol": "bus",
        "marker-size": "medium"
      },
      "geometry": {
        "type": "Point",
        "coordinates": [
          34.976216,
          32.818921
        ]
      }
    },
    {
      "type": "Feature",
      "properties": {
        "type": "original_route_stop",
        "stop_code": "41796",
        "stop_name": "טשרניחובסקי/ישעיהו",
        "marker-color": "#2ca02c",
        "marker-symbol": "bus",
        "marker-size": "medium"
      },
      "geometry": {
        "type": "Point",
        "coordinates": [
          34.975053,
          32.819901
        ]
      }
    },
    {
      "type": "Feature",
      "properties": {
        "type": "original_route_stop",
        "stop_code": "42966",
        "stop_name": "טשרניחובסקי/פרץ חיות",
        "marker-color": "#2ca02c",
        "marker-symbol": "bus",
        "marker-size": "medium"
      },
      "geometry": {
        "type": "Point",
        "coordinates": [
          34.974184,
          32.821624
        ]
      }
    },
    {
      "type": "Feature",
      "properties": {
        "type": "original_route_stop",
        "stop_code": "41091",
        "stop_name": "דרך צרפת/כרמיה",
        "marker-color": "#2ca02c",
        "marker-symbol": "bus",
        "marker-size": "medium"
      },
      "geometry": {
        "type": "Point",
        "coordinates": [
          34.962871,
          32.820309
        ]
      }
    },
    {
      "type": "Feature",
      "properties": {
        "type": "original_route_stop",
        "stop_code": "41092",
        "stop_name": "דרך צרפת/מרסיי",
        "marker-color": "#2ca02c",
        "marker-symbol": "bus",
        "marker-size": "medium"
      },
      "geometry": {
        "type": "Point",
        "coordinates": [
          34.961482,
          32.819942
        ]
      }
    },
    {
      "type": "Feature",
      "properties": {
        "type": "original_route_stop",
        "stop_code": "41053",
        "stop_name": "דרך צרפת/יציאת אירופה",
        "marker-color": "#2ca02c",
        "marker-symbol": "bus",
        "marker-size": "medium"
      },
      "geometry": {
        "type": "Point",
        "coordinates": [
          34.959306,
          32.820214
        ]
      }
    },
    {
      "type": "Feature",
      "properties": {
        "type": "original_route_stop",
        "stop_code": "41901",
        "stop_name": "אנקואה/בן צור",
        "marker-color": "#2ca02c",
        "marker-symbol": "bus",
        "marker-size": "medium"
      },
      "geometry": {
        "type": "Point",
        "coordinates": [
          34.958659,
          32.81841
        ]
      }
    },
    {
      "type": "Feature",
      "properties": {
        "type": "original_route_stop",
        "stop_code": "41047",
        "stop_name": "מרסיי/בר רב האי",
        "marker-color": "#2ca02c",
        "marker-symbol": "bus",
        "marker-size": "medium"
      },
      "geometry": {
        "type": "Point",
        "coordinates": [
          34.96013,
          32.818035
        ]
      }
    },
    {
      "type": "Feature",
      "properties": {
        "type": "original_route_stop",
        "stop_code": "41051",
        "stop_name": "סעדיה גאון/מרסיי",
        "marker-color": "#2ca02c",
        "marker-symbol": "bus",
        "marker-size": "medium"
      },
      "geometry": {
        "type": "Point",
        "coordinates": [
          34.96201,
          32.818492
        ]
      }
    },
    {
      "type": "Feature",
      "properties": {
        "type": "original_route_stop",
        "stop_code": "41048",
        "stop_name": "בר רב האי/סעדיה הגאון",
        "marker-color": "#2ca02c",
        "marker-symbol": "bus",
        "marker-size": "medium"
      },
      "geometry": {
        "type": "Point",
        "coordinates": [
          34.963607,
          32.817993
        ]
      }
    },
    {
      "type": "Feature",
      "properties": {
        "type": "original_route_stop",
        "stop_code": "41049",
        "stop_name": "בר רב האי/מרסיי",
        "marker-color": "#2ca02c",
        "marker-symbol": "bus",
        "marker-size": "medium"
      },
      "geometry": {
        "type": "Point",
        "coordinates": [
          34.96155,
          32.817706
        ]
      }
    },
    {
      "type": "Feature",
      "properties": {
        "type": "original_route_stop",
        "stop_code": "41045",
        "stop_name": "אנקווה/בר רב האי",
        "marker-color": "#2ca02c",
        "marker-symbol": "bus",
        "marker-size": "medium"
      },
      "geometry": {
        "type": "Point",
        "coordinates": [
          34.959509,
          32.817085
        ]
      }
    },
    {
      "type": "Feature",
      "properties": {
        "type": "original_route_stop",
        "stop_code": "41046",
        "stop_name": "אנקואה/האצל",
        "marker-color": "#2ca02c",
        "marker-symbol": "bus",
        "marker-size": "medium"
      },
      "geometry": {
        "type": "Point",
        "coordinates": [
          34.960151,
          32.815088
        ]
      }
    },
    {
      "type": "Feature",
      "properties": {
        "type": "original_route_stop",
        "stop_code": "41026",
        "stop_name": "אצל/הרותם",
        "marker-color": "#2ca02c",
        "marker-symbol": "bus",
        "marker-size": "medium"
      },
      "geometry": {
        "type": "Point",
        "coordinates": [
          34.959153,
          32.813612
        ]
      }
    },
    {
      "type": "Feature",
      "properties": {
        "type": "original_route_stop",
        "stop_code": "40967",
        "stop_name": "נווה דוד",
        "marker-color": "#2ca02c",
        "marker-symbol": "bus",
        "marker-size": "medium"
      },
      "geometry": {
        "type": "Point",
        "coordinates": [
          34.957982,
          32.805406
        ]
      }
    },
    {
      "type": "Feature",
      "properties": {
        "type": "original_route_stop",
        "stop_code": "47500",
        "stop_name": "כפר סמיר",
        "marker-color": "#2ca02c",
        "marker-symbol": "bus",
        "marker-size": "medium"
      },
      "geometry": {
        "type": "Point",
        "coordinates": [
          34.959881,
          32.801531
        ]
      }
    },
    {
      "type": "Feature",
      "properties": {
        "type": "original_route_stop",
        "stop_code": "42656",
        "stop_name": "מת''מ",
        "marker-color": "#2ca02c",
        "marker-symbol": "bus",
        "marker-size": "medium"
      },
      "geometry": {
        "type": "Point",
        "coordinates": [
          34.96134,
          32.790385
        ]
      }
    },
    {
      "type": "Feature",
      "properties": {
        "type": "original_route_stop",
        "stop_code": "42512",
        "stop_name": "חוף דדו",
        "marker-color": "#2ca02c",
        "marker-symbol": "bus",
        "marker-size": "medium"
      },
      "geometry": {
        "type": "Point",
        "coordinates": [
          34.95695,
          32.795776
        ]
      }
    },
    {
      "type": "Feature",
      "properties": {
        "type": "cancelled_stop",
        "stop_code": "41109",
        "stop_name": "אדמונד פלג/טשרניחובסקי",
        "marker-color": "#ff0000",
        "marker-symbol": "bus",
        "marker-size": "medium"
      },
      "geometry": {
        "type": "Point",
        "coordinates": [
          34.970697,
          32.823975
        ]
      }
    },
    {
      "type": "Feature",
      "properties": {
        "type": "cancelled_stop",
        "stop_code": "41736",
        "stop_name": "אדמונד פלג",
        "marker-color": "#ff0000",
        "marker-symbol": "bus",
        "marker-size": "medium"
      },
      "geometry": {
        "type": "Point",
        "coordinates": [
          34.972753,
          32.822661
        ]
      }
    },
    {
      "type": "Feature",
      "properties": {
        "type": "cancelled_stop",
        "stop_code": "41984",
        "stop_name": "קאודרס/סטפן וייז",
        "marker-color": "#ff0000",
        "marker-symbol": "bus",
        "marker-size": "medium"
      },
      "geometry": {
        "type": "Point",
        "coordinates": [
          34.971468,
          32.82141
        ]
      }
    },
    {
      "type": "Feature",
      "properties": {
        "type": "cancelled_stop",
        "stop_code": "41086",
        "stop_name": "סטפן וייז/אמיל זולא",
        "marker-color": "#ff0000",
        "marker-symbol": "bus",
        "marker-size": "medium"
      },
      "geometry": {
        "type": "Point",
        "coordinates": [
          34.969284,
          32.820501
        ]
      }
    },
    {
      "type": "Feature",
      "properties": {
        "type": "cancelled_stop",
        "stop_code": "41085",
        "stop_name": "ויקטור הוגו/כל ישראל חברים",
        "marker-color": "#ff0000",
        "marker-symbol": "bus",
        "marker-size": "medium"
      },
      "geometry": {
        "type": "Point",
        "coordinates": [
          34.967738,
          32.820437
        ]
      }
    },
    {
      "type": "Feature",
      "properties": {
        "type": "cancelled_stop",
        "stop_code": "41561",
        "stop_name": "ויקטור הוגו/אמיל זולא",
        "marker-color": "#ff0000",
        "marker-symbol": "bus",
        "marker-size": "medium"
      },
      "geometry": {
        "type": "Point",
        "coordinates": [
          34.966655,
          32.82149
        ]
      }
    },
    {
      "type": "Feature",
      "properties": {
        "type": "new_stop",
        "stop_code": "42088",
        "stop_name": "טשרניחובסקי/האקדמית גורדון",
        "marker-color": "#1f9ed6",
        "marker-symbol": "bus",
        "marker-size": "medium"
      },
      "geometry": {
        "type": "Point",
        "coordinates": [
          34.969942,
          32.825298
        ]
      }
    },
    {
      "type": "Feature",
      "properties": {
        "type": "new_stop",
        "stop_code": "47917",
        "stop_name": "דרך צרפת/יצחק נדב",
        "marker-color": "#1f9ed6",
        "marker-symbol": "bus",
        "marker-size": "medium"
      },
      "geometry": {
        "type": "Point",
        "coordinates": [
          34.967725,
          32.823565
        ]
      }
    },
    {
      "type": "Feature",
      "properties": {
        "type": "reported_block_stop",
        "stop_code": "41984",
        "stop_name": "קאודרס/סטפן וייז",
        "marker-color": "#ff8800",
        "marker-symbol": "bus",
        "marker-size": "medium"
      },
      "geometry": {
        "type": "Point",
        "coordinates": [
          34.971468,
          32.82141
        ]
      }
    },
    {
      "type": "Feature",
      "properties": {
        "type": "reported_block_stop",
        "stop_code": "41086",
        "stop_name": "סטפן וייז/אמיל זולא",
        "marker-color": "#ff8800",
        "marker-symbol": "bus",
        "marker-size": "medium"
      },
      "geometry": {
        "type": "Point",
        "coordinates": [
          34.969284,
          32.820501
        ]
      }
    },
    {
      "type": "Feature",
      "properties": {
        "type": "deviate_from_stop",
        "stop_code": "41735",
        "stop_name": "טשרניחובסקי",
        "marker-color": "#8000ff",
        "marker-symbol": "bus",
        "marker-size": "medium"
      },
      "geometry": {
        "type": "Point",
        "coordinates": [
          34.973739,
          32.823084
        ]
      }
    },
    {
      "type": "Feature",
      "properties": {
        "type": "deviate_to_stop",
        "stop_code": "41090",
        "stop_name": "דרך צרפת/גורס",
        "marker-color": "#8000ff",
        "marker-symbol": "bus",
        "marker-size": "medium"
      },
      "geometry": {
        "type": "Point",
        "coordinates": [
          34.964019,
          32.821366
        ]
      }
    }
  ]
}