{
  "type": "FeatureCollection",
  "features": [
    {
      "type": "Feature",
      "properties": {
        "type": "deviation_path_edge",
        "from_stop_code": "37635",
        "to_stop_code": "36332",
        "stroke": "#00bcd4",
        "stroke-width": 3,
        "stroke-opacity": 0.95
      },
      "geometry": {
        "type": "LineString",
        "coordinates": [
          [
            34.78483845307794,
            32.00779338758456
          ],
          [
            34.784866,
            32.00802
          ],
          [
            34.784926,
            32.008546
          ],
          [
            34.784972,
            32.008836
          ],
          [
            34.784981,
            32.0089
          ],
          [
            34.784996,
            32.009013
          ],
          [
            34.785013,
            32.009201
          ],
          [
            34.785063,
            32.009684
          ],
          [
            34.785073,
            32.009766
          ],
          [
            34.785151,
            32.01039
          ],
          [
            34.785157,
            32.010423
          ],
          [
            34.785181,
            32.010553
          ],
          [
            34.78509,
            32.010563
          ],
          [
            34.784733,
            32.01063
          ],
          [
            34.782293,
            32.011247
          ],
          [
            34.78209,
            32.011299
          ],
          [
            34.781793,
            32.011377
          ],
          [
            34.781635,
            32.011422
          ],
          [
            34.781428,
            32.011475
          ],
          [
            34.78141363802883,
            32.0114786820351
          ]
        ]
      }
    },
    {
      "type": "Feature",
      "properties": {
        "type": "deviation_path_edge",
        "from_stop_code": "36332",
        "to_stop_code": "36331",
        "stroke": "#00bcd4",
        "stroke-width": 3,
        "stroke-opacity": 0.95
      },
      "geometry": {
        "type": "LineString",
        "coordinates": [
          [
            34.78141363802883,
            32.0114786820351
          ],
          [
            34.780722,
            32.011656
          ],
          [
            34.780227,
            32.011783
          ],
          [
            34.780062,
            32.011825
          ],
          [
            34.778721,
            32.012175
          ],
          [
            34.778316,
            32.012267
          ],
          [
            34.778226,
            32.012288
          ],
          [
            34.777898,
            32.012359
          ],
          [
            34.77767102273833,
            32.01242610632084
          ]
        ]
      }
    },
    {
      "type": "Feature",
      "properties": {
        "type": "original_route_shape",
        "shape_id": "165354",
        "stroke": "#1f2a7a",
        "stroke-width": 3,
        "stroke-opacity": 0.85
      },
      "geometry": {
        "type": "LineString",
        "coordinates": [
          [
            34.805130671023235,
            32.02081996394212
          ],
          [
            34.804951,
            32.020688
          ],
          [
            34.804931,
            32.020671
          ],
          [
            34.804477,
            32.020302
          ],
          [
            34.804389,
            32.020235
          ],
          [
            34.804123,
            32.020016
          ],
          [
            34.804042,
            32.019949
          ],
          [
            34.803653,
            32.019634
          ],
          [
            34.803339,
            32.019398
          ],
          [
            34.803174,
            32.019273
          ],
          [
            34.802756,
            32.018939
          ],
          [
            34.80248,
            32.018673
          ],
          [
            34.802324,
            32.018525
          ],
          [
            34.80224,
            32.018417
          ],
          [
            34.802198,
            32.018363
          ],
          [
            34.802021,
            32.018095
          ],
          [
            34.801964,
            32.017922
          ],
          [
            34.801838,
            32.017474
          ],
          [
            34.801724,
            32.017225
          ],
          [
            34.801572,
            32.016983
          ],
          [
            34.801456,
            32.016796
          ],
          [
            34.800913,
            32.016162
          ],
          [
            34.800772,
            32.016055
          ],
          [
            34.800397,
            32.015747
          ],
          [
            34.800357,
            32.015714
          ],
          [
            34.800323,
            32.015686
          ],
          [
            34.80001,
            32.01543
          ],
          [
            34.799759,
            32.01525
          ],
          [
            34.799511,
            32.015049
          ],
          [
            34.799026,
            32.014534
          ],
          [
            34.798609,
            32.014094
          ],
          [
            34.798248,
            32.013716
          ],
          [
            34.798057,
            32.013465
          ],
          [
            34.797607,
            32.012814
          ],
          [
            34.797394,
            32.012489
          ],
          [
            34.797375,
            32.012392
          ],
          [
            34.797455,
            32.012348
          ],
          [
            34.797711,
            32.012207
          ],
          [
            34.79814,
            32.011939
          ],
          [
            34.79831,
            32.011828
          ],
          [
            34.798761,
            32.011545
          ],
          [
            34.798871,
            32.011477
          ],
          [
            34.79906,
            32.01135
          ],
          [
            34.799223,
            32.011244
          ],
          [
            34.799625,
            32.010979
          ],
          [
            34.79973,
            32.01091
          ],
          [
            34.800686,
            32.010282
          ],
          [
            34.800683,
            32.010273
          ],
          [
            34.80068,
            32.010259
          ],
          [
            34.80068,
            32.010237
          ],
          [
            34.800685,
            32.010217
          ],
          [
            34.800694,
            32.010197
          ],
          [
            34.800707,
            32.010179
          ],
          [
            34.800718,
            32.010168
          ],
          [
            34.800736,
            32.010155
          ],
          [
            34.80075,
            32.010147
          ],
          [
            34.800762,
            32.010143
          ],
          [
            34.80078,
            32.010138
          ],
          [
            34.800804,
            32.010135
          ],
          [
            34.80082,
            32.010135
          ],
          [
            34.800836,
            32.010137
          ],
          [
            34.800859,
            32.010143
          ],
          [
            34.802659,
            32.009129
          ],
          [
            34.802655,
            32.009114
          ],
          [
            34.802654,
            32.009105
          ],
          [
            34.802653,
            32.009087
          ],
          [
            34.802655,
            32.009069
          ],
          [
            34.80266,
            32.009051
          ],
          [
            34.802667,
            32.009034
          ],
          [
            34.802677,
            32.009017
          ],
          [
            34.802689,
            32.009002
          ],
          [
            34.802706,
            32.008986
          ],
          [
            34.802076,
            32.008155
          ],
          [
            34.801694,
            32.007707
          ],
          [
            34.801437,
            32.007476
          ],
          [
            34.801354,
            32.007394
          ],
          [
            34.801044,
            32.007112
          ],
          [
            34.800477,
            32.006632
          ],
          [
            34.800399,
            32.006564
          ],
          [
            34.80029,
            32.006474
          ],
          [
            34.800101,
            32.006342
          ],
          [
            34.799829,
            32.006165
          ],
          [
            34.799455,
            32.005954
          ],
          [
            34.799299,
            32.005897
          ],
          [
            34.799038,
            32.005785
          ],
          [
            34.798755,
            32.005666
          ],
          [
            34.798389,
            32.005557
          ],
          [
            34.798081,
            32.005438
          ],
          [
            34.797664,
            32.005293
          ],
          [
            34.797203,
            32.005155
          ],
          [
            34.796912,
            32.005059
          ],
          [
            34.796782,
            32.005034
          ],
          [
            34.796501,
            32.004968
          ],
          [
            34.796157,
            32.004898
          ],
          [
            34.795594,
            32.004816
          ],
          [
            34.795271,
            32.004776
          ],
          [
            34.794799,
            32.004739
          ],
          [
            34.793935,
            32.00472
          ],
          [
            34.793527,
            32.004748
          ],
          [
            34.793201,
            32.004764
          ],
          [
            34.793127,
            32.004767
          ],
          [
            34.79255,
            32.004788
          ],
          [
            34.79208,
            32.004805
          ],
          [
            34.79184,
            32.00482
          ],
          [
            34.791752,
            32.004828
          ],
          [
            34.791709,
            32.004832
          ],
          [
            34.791593,
            32.00484
          ],
          [
            34.791463,
            32.004838
          ],
          [
            34.791209,
            32.00486
          ],
          [
            34.791024,
            32.004876
          ],
          [
            34.790268,
            32.004913
          ],
          [
            34.78995,
            32.004932
          ],
          [
            34.789236,
            32.004965
          ],
          [
            34.788836,
            32.004996
          ],
          [
            34.788048,
            32.005028
          ],
          [
            34.786449,
            32.005129
          ],
          [
            34.785665,
            32.005174
          ],
          [
            34.785612,
            32.005176
          ],
          [
            34.78512,
            32.005191
          ],
          [
            34.784502,
            32.005211
          ],
          [
            34.784524,
            32.00536
          ],
          [
            34.784561,
            32.00573
          ],
          [
            34.784696,
            32.006756
          ],
          [
            34.784725,
            32.006973
          ],
          [
            34.784813,
            32.007584
          ],
          [
            34.784865,
            32.008012
          ],
          [
            34.784866,
            32.00802
          ],
          [
            34.784926,
            32.008546
          ],
          [
            34.784972,
            32.008836
          ],
          [
            34.784981,
            32.0089
          ],
          [
            34.784996,
            32.009013
          ],
          [
            34.785013,
            32.009201
          ],
          [
            34.785063,
            32.009684
          ],
          [
            34.785073,
            32.009766
          ],
          [
            34.785151,
            32.01039
          ],
          [
            34.785157,
            32.010423
          ],
          [
            34.785181,
            32.010553
          ],
          [
            34.785201,
            32.010666
          ],
          [
            34.785221,
            32.010878
          ],
          [
            34.785273,
            32.011251
          ],
          [
            34.785279,
            32.011307
          ],
          [
            34.785318,
            32.011644
          ],
          [
            34.785354,
            32.011961
          ],
          [
            34.785451,
            32.012732
          ],
          [
            34.785464,
            32.012738
          ],
          [
            34.785476,
            32.012746
          ],
          [
            34.785492,
            32.01276
          ],
          [
            34.785501,
            32.01277
          ],
          [
            34.785508,
            32.012782
          ],
          [
            34.785514,
            32.012794
          ],
          [
            34.785517,
            32.012806
          ],
          [
            34.78552,
            32.012826
          ],
          [
            34.785518,
            32.012838
          ],
          [
            34.785516,
            32.012851
          ],
          [
            34.785511,
            32.012863
          ],
          [
            34.785507,
            32.012871
          ],
          [
            34.785496,
            32.012886
          ],
          [
            34.785487,
            32.012896
          ],
          [
            34.785476,
            32.012905
          ],
          [
            34.785463,
            32.012913
          ],
          [
            34.785515,
            32.013211
          ],
          [
            34.785598,
            32.013881
          ],
          [
            34.785637,
            32.014169
          ],
          [
            34.785669,
            32.014274
          ],
          [
            34.785722,
            32.014392
          ],
          [
            34.78578,
            32.014475
          ],
          [
            34.785815,
            32.014526
          ],
          [
            34.785869,
            32.014605
          ],
          [
            34.7858,
            32.014642
          ],
          [
            34.785442,
            32.014845
          ],
          [
            34.784968,
            32.015095
          ],
          [
            34.784215,
            32.015479
          ],
          [
            34.784187,
            32.015498
          ],
          [
            34.784152,
            32.015521
          ],
          [
            34.783423,
            32.016003
          ],
          [
            34.783042,
            32.016259
          ],
          [
            34.782749,
            32.016449
          ],
          [
            34.782531,
            32.01659
          ],
          [
            34.782155,
            32.016796
          ],
          [
            34.781942,
            32.016886
          ],
          [
            34.781767,
            32.016939
          ],
          [
            34.781436,
            32.017025
          ],
          [
            34.780782,
            32.017108
          ],
          [
            34.780128,
            32.017202
          ],
          [
            34.779333,
            32.017269
          ],
          [
            34.778655,
            32.017317
          ],
          [
            34.778586,
            32.017322
          ],
          [
            34.778566,
            32.017211
          ],
          [
            34.778565,
            32.016931
          ],
          [
            34.778568,
            32.016814
          ],
          [
            34.778538,
            32.015805
          ],
          [
            34.778417,
            32.014555
          ],
          [
            34.778407,
            32.014414
          ],
          [
            34.778388,
            32.01441
          ],
          [
            34.778373,
            32.014404
          ],
          [
            34.778352,
            32.014392
          ],
          [
            34.778334,
            32.014378
          ],
          [
            34.778324,
            32.014367
          ],
          [
            34.778316,
            32.014355
          ],
          [
            34.778309,
            32.014342
          ],
          [
            34.778305,
            32.014328
          ],
          [
            34.778302,
            32.014308
          ],
          [
            34.778302,
            32.014294
          ],
          [
            34.778305,
            32.01428
          ],
          [
            34.778313,
            32.01426
          ],
          [
            34.778325,
            32.014242
          ],
          [
            34.77834,
            32.014226
          ],
          [
            34.778353,
            32.014216
          ],
          [
            34.778358,
            32.014213
          ],
          [
            34.778334,
            32.013883
          ],
          [
            34.778323,
            32.013739
          ],
          [
            34.778314,
            32.013617
          ],
          [
            34.778281,
            32.013209
          ],
          [
            34.778271,
            32.012923
          ],
          [
            34.778253,
            32.012652
          ],
          [
            34.778199,
            32.012545
          ],
          [
            34.778125,
            32.012446
          ],
          [
            34.77809,
            32.012428
          ],
          [
            34.778025,
            32.012395
          ],
          [
            34.777898,
            32.012359
          ],
          [
            34.777553,
            32.012461
          ],
          [
            34.777424,
            32.012493
          ],
          [
            34.775519,
            32.012967
          ],
          [
            34.775086,
            32.013056
          ],
          [
            34.774872,
            32.013098
          ],
          [
            34.774381,
            32.013174
          ],
          [
            34.774054,
            32.013216
          ],
          [
            34.773992,
            32.013224
          ],
          [
            34.773117,
            32.013331
          ],
          [
            34.77304,
            32.013343
          ],
          [
            34.772233,
            32.01344
          ],
          [
            34.771505,
            32.013543
          ],
          [
            34.771143,
            32.013592
          ],
          [
            34.770919,
            32.013622
          ],
          [
            34.769958,
            32.013769
          ],
          [
            34.7697,
            32.013802
          ],
          [
            34.76887,
            32.013915
          ],
          [
            34.768635,
            32.013955
          ],
          [
            34.76854,
            32.01397
          ],
          [
            34.767717,
            32.014097
          ],
          [
            34.767322,
            32.01415
          ],
          [
            34.767256,
            32.014161
          ],
          [
            34.767058,
            32.01419
          ],
          [
            34.766609,
            32.014257
          ],
          [
            34.7656,
            32.014391
          ],
          [
            34.765396,
            32.014432
          ],
          [
            34.765123,
            32.01454
          ],
          [
            34.76507,
            32.014575
          ],
          [
            34.765029,
            32.014625
          ],
          [
            34.764955,
            32.014789
          ],
          [
            34.764964,
            32.015168
          ],
          [
            34.764929,
            32.016009
          ],
          [
            34.764925,
            32.016067
          ],
          [
            34.764946,
            32.016472
          ],
          [
            34.764912,
            32.016963
          ],
          [
            34.76492,
            32.017358
          ],
          [
            34.76491,
            32.017547
          ],
          [
            34.76491,
            32.017593
          ],
          [
            34.764896,
            32.017929
          ],
          [
            34.764902,
            32.018371
          ],
          [
            34.764918,
            32.01858
          ],
          [
            34.764922,
            32.01865
          ],
          [
            34.764949,
            32.019142
          ],
          [
            34.764921,
            32.019349
          ],
          [
            34.764938,
            32.019526
          ],
          [
            34.765044,
            32.020385
          ],
          [
            34.765084,
            32.020513
          ],
          [
            34.765109,
            32.02079
          ],
          [
            34.765195,
            32.021718
          ],
          [
            34.765205,
            32.021842
          ],
          [
            34.765275,
            32.022496
          ],
          [
            34.765287,
            32.022645
          ],
          [
            34.765361,
            32.023285
          ],
          [
            34.765432,
            32.023446
          ],
          [
            34.765486,
            32.023655
          ],
          [
            34.765495,
            32.023691
          ],
          [
            34.765583,
            32.024167
          ],
          [
            34.765701,
            32.02486
          ],
          [
            34.76572,
            32.025064
          ],
          [
            34.765726,
            32.02522
          ],
          [
            34.765725,
            32.025389
          ],
          [
            34.765761,
            32.025544
          ],
          [
            34.765899,
            32.025889
          ],
          [
            34.765955,
            32.026073
          ],
          [
            34.765976,
            32.026139
          ],
          [
            34.766017,
            32.026275
          ],
          [
            34.766015,
            32.026365
          ],
          [
            34.766202,
            32.026943
          ],
          [
            34.766491,
            32.02778
          ],
          [
            34.766607,
            32.02802
          ],
          [
            34.766631,
            32.028079
          ],
          [
            34.766652,
            32.028164
          ],
          [
            34.766694,
            32.028376
          ],
          [
            34.766717,
            32.028493
          ],
          [
            34.766592,
            32.028504
          ],
          [
            34.766216,
            32.028535
          ],
          [
            34.766014,
            32.028552
          ],
          [
            34.76591,
            32.028561
          ],
          [
            34.765464,
            32.028624
          ],
          [
            34.765298,
            32.028656
          ],
          [
            34.764975,
            32.028703
          ],
          [
            34.764652,
            32.02874
          ],
          [
            34.764297,
            32.028771
          ],
          [
            34.763917,
            32.028818
          ],
          [
            34.763683,
            32.028852
          ],
          [
            34.763229,
            32.028917
          ],
          [
            34.762903,
            32.028936
          ],
          [
            34.76213,
            32.028981
          ],
          [
            34.762094,
            32.029898
          ],
          [
            34.762092,
            32.030174
          ],
          [
            34.762068,
            32.030754
          ],
          [
            34.762059,
            32.030976
          ],
          [
            34.762064,
            32.032077
          ],
          [
            34.762095,
            32.032141
          ],
          [
            34.762128,
            32.032194
          ],
          [
            34.762156,
            32.032229
          ],
          [
            34.762182,
            32.032257
          ],
          [
            34.762245,
            32.03231
          ],
          [
            34.762329,
            32.032357
          ],
          [
            34.762844,
            32.032494
          ],
          [
            34.763065,
            32.03256
          ],
          [
            34.763791,
            32.032786
          ],
          [
            34.763873,
            32.032809
          ],
          [
            34.764578,
            32.03301
          ],
          [
            34.76471,
            32.033049
          ],
          [
            34.76484,
            32.033097
          ],
          [
            34.764914,
            32.033123
          ],
          [
            34.765553,
            32.033303
          ],
          [
            34.766145,
            32.033492
          ],
          [
            34.766451,
            32.03359
          ],
          [
            34.766764,
            32.033678
          ],
          [
            34.766868,
            32.033694
          ],
          [
            34.766964,
            32.033699
          ],
          [
            34.767054,
            32.033677
          ],
          [
            34.767148,
            32.033648
          ],
          [
            34.767191,
            32.033626
          ],
          [
            34.767234,
            32.033604
          ],
          [
            34.767266,
            32.033587
          ],
          [
            34.767314,
            32.033562
          ],
          [
            34.767457,
            32.033367
          ],
          [
            34.767503,
            32.033284
          ],
          [
            34.767557,
            32.03319
          ],
          [
            34.767714,
            32.032847
          ],
          [
            34.76774,
            32.032789
          ],
          [
            34.768386,
            32.031548
          ],
          [
            34.768559,
            32.031215
          ],
          [
            34.768611,
            32.031132
          ],
          [
            34.768655,
            32.031152
          ],
          [
            34.769043,
            32.031256
          ],
          [
            34.76921,
            32.031293
          ],
          [
            34.769247,
            32.031301
          ],
          [
            34.769497,
            32.031344
          ],
          [
            34.769725,
            32.031363
          ],
          [
            34.770043,
            32.031367
          ],
          [
            34.770439,
            32.031371
          ],
          [
            34.770513,
            32.031372
          ],
          [
            34.770669,
            32.031414
          ],
          [
            34.770661,
            32.031459
          ],
          [
            34.77061,
            32.031817
          ],
          [
            34.770485,
            32.032785
          ],
          [
            34.770438,
            32.033103
          ],
          [
            34.770383,
            32.033315
          ],
          [
            34.770233,
            32.033799
          ],
          [
            34.770068,
            32.034146
          ],
          [
            34.769711,
            32.03468
          ],
          [
            34.769461,
            32.035036
          ],
          [
            34.769386,
            32.035085
          ],
          [
            34.769342,
            32.035084
          ],
          [
            34.769012,
            32.035072
          ],
          [
            34.768925,
            32.035075
          ],
          [
            34.768857,
            32.03509
          ],
          [
            34.76849,
            32.035224
          ],
          [
            34.768281,
            32.035309
          ],
          [
            34.767425,
            32.035629
          ],
          [
            34.766376,
            32.035983
          ],
          [
            34.766206,
            32.036046
          ],
          [
            34.766072,
            32.036101
          ],
          [
            34.76589,
            32.036176
          ],
          [
            34.765372,
            32.036324
          ],
          [
            34.765342,
            32.03633
          ],
          [
            34.764929,
            32.036412
          ],
          [
            34.764224,
            32.036529
          ],
          [
            34.763826,
            32.036567
          ],
          [
            34.763675,
            32.036589
          ],
          [
            34.762986,
            32.036647
          ],
          [
            34.762543,
            32.036661
          ],
          [
            34.762446,
            32.036661
          ],
          [
            34.762179,
            32.036661
          ],
          [
            34.762123,
            32.036661
          ],
          [
            34.761976,
            32.036659
          ],
          [
            34.761868,
            32.036696
          ],
          [
            34.761822,
            32.036735
          ],
          [
            34.761754,
            32.036823
          ],
          [
            34.76178,
            32.036903
          ],
          [
            34.761993,
            32.036935
          ],
          [
            34.762064,
            32.036912
          ],
          [
            34.76210178988327,
            32.0369096381323
          ]
        ]
      }
    },
    {
      "type": "Feature",
      "properties": {
        "type": "original_route_stop",
        "stop_code": "33765",
        "stop_name": "המלאכה/השבעה",
        "marker-color": "#2ca02c",
        "marker-symbol": "bus",
        "marker-size": "medium"
      },
      "geometry": {
        "type": "Point",
        "coordinates": [
          34.805102,
          32.020859
        ]
      }
    },
    {
      "type": "Feature",
      "properties": {
        "type": "original_route_stop",
        "stop_code": "37609",
        "stop_name": "המלאכה/הפלד",
        "marker-color": "#2ca02c",
        "marker-symbol": "bus",
        "marker-size": "medium"
      },
      "geometry": {
        "type": "Point",
        "coordinates": [
          34.803092,
          32.019269
        ]
      }
    },
    {
      "type": "Feature",
      "properties": {
        "type": "original_route_stop",
        "stop_code": "36420",
        "stop_name": "פרימיום סנטר/המלאכה",
        "marker-color": "#2ca02c",
        "marker-symbol": "bus",
        "marker-size": "medium"
      },
      "geometry": {
        "type": "Point",
        "coordinates": [
          34.801202,
          32.016577
        ]
      }
    },
    {
      "type": "Feature",
      "properties": {
        "type": "original_route_stop",
        "stop_code": "36360",
        "stop_name": "האורגים/המלאכה",
        "marker-color": "#2ca02c",
        "marker-symbol": "bus",
        "marker-size": "medium"
      },
      "geometry": {
        "type": "Point",
        "coordinates": [
          34.797824,
          32.012081
        ]
      }
    },
    {
      "type": "Feature",
      "properties": {
        "type": "original_route_stop",
        "stop_code": "36415",
        "stop_name": "האורגים/הבנאי",
        "marker-color": "#2ca02c",
        "marker-symbol": "bus",
        "marker-size": "medium"
      },
      "geometry": {
        "type": "Point",
        "coordinates": [
          34.801443,
          32.009759
        ]
      }
    },
    {
      "type": "Feature",
      "properties": {
        "type": "original_route_stop",
        "stop_code": "39776",
        "stop_name": "הלהב/הרוקמים",
        "marker-color": "#2ca02c",
        "marker-symbol": "bus",
        "marker-size": "medium"
      },
      "geometry": {
        "type": "Point",
        "coordinates": [
          34.801097,
          32.007227
        ]
      }
    },
    {
      "type": "Feature",
      "properties": {
        "type": "original_route_stop",
        "stop_code": "35852",
        "stop_name": "מפרץ שלמה/רמת הגולן",
        "marker-color": "#2ca02c",
        "marker-symbol": "bus",
        "marker-size": "medium"
      },
      "geometry": {
        "type": "Point",
        "coordinates": [
          34.798356,
          32.005594
        ]
      }
    },
    {
      "type": "Feature",
      "properties": {
        "type": "original_route_stop",
        "stop_code": "36345",
        "stop_name": "ימית 2000/מפרץ שלמה",
        "marker-color": "#2ca02c",
        "marker-symbol": "bus",
        "marker-size": "medium"
      },
      "geometry": {
        "type": "Point",
        "coordinates": [
          34.793927,
          32.004766
        ]
      }
    },
    {
      "type": "Feature",
      "properties": {
        "type": "original_route_stop",
        "stop_code": "34450",
        "stop_name": "מפרץ שלמה/גבעת התחמושת",
        "marker-color": "#2ca02c",
        "marker-symbol": "bus",
        "marker-size": "medium"
      },
      "geometry": {
        "type": "Point",
        "coordinates": [
          34.789176,
          32.005015
        ]
      }
    },
    {
      "type": "Feature",
      "properties": {
        "type": "original_route_stop",
        "stop_code": "34451",
        "stop_name": "מפרץ שלמה/קרית שמונה",
        "marker-color": "#2ca02c",
        "marker-symbol": "bus",
        "marker-size": "medium"
      },
      "geometry": {
        "type": "Point",
        "coordinates": [
          34.786298,
          32.005183
        ]
      }
    },
    {
      "type": "Feature",
      "properties": {
        "type": "original_route_stop",
        "stop_code": "34733",
        "stop_name": "דוד אלעזר/בגין",
        "marker-color": "#2ca02c",
        "marker-symbol": "bus",
        "marker-size": "medium"
      },
      "geometry": {
        "type": "Point",
        "coordinates": [
          34.784607,
          32.005657
        ]
      }
    },
    {
      "type": "Feature",
      "properties": {
        "type": "original_route_stop",
        "stop_code": "36329",
        "stop_name": "מכון טכנולוגי חולון/הופיין",
        "marker-color": "#2ca02c",
        "marker-symbol": "bus",
        "marker-size": "medium"
      },
      "geometry": {
        "type": "Point",
        "coordinates": [
          34.774297,
          32.013231
        ]
      }
    },
    {
      "type": "Feature",
      "properties": {
        "type": "original_route_stop",
        "stop_code": "36326",
        "stop_name": "הופיין/ויצמן",
        "marker-color": "#2ca02c",
        "marker-symbol": "bus",
        "marker-size": "medium"
      },
      "geometry": {
        "type": "Point",
        "coordinates": [
          34.771144,
          32.013638
        ]
      }
    },
    {
      "type": "Feature",
      "properties": {
        "type": "original_route_stop",
        "stop_code": "39750",
        "stop_name": "מרכז רפואי מכבי הופיין",
        "marker-color": "#2ca02c",
        "marker-symbol": "bus",
        "marker-size": "medium"
      },
      "geometry": {
        "type": "Point",
        "coordinates": [
          34.766926,
          32.014255
        ]
      }
    },
    {
      "type": "Feature",
      "properties": {
        "type": "original_route_stop",
        "stop_code": "37659",
        "stop_name": "אילת/חצרים",
        "marker-color": "#2ca02c",
        "marker-symbol": "bus",
        "marker-size": "medium"
      },
      "geometry": {
        "type": "Point",
        "coordinates": [
          34.764993,
          32.016556
        ]
      }
    },
    {
      "type": "Feature",
      "properties": {
        "type": "original_route_stop",
        "stop_code": "36273",
        "stop_name": "אילת/צאלים",
        "marker-color": "#2ca02c",
        "marker-symbol": "bus",
        "marker-size": "medium"
      },
      "geometry": {
        "type": "Point",
        "coordinates": [
          34.76507,
          32.02016
        ]
      }
    },
    {
      "type": "Feature",
      "properties": {
        "type": "original_route_stop",
        "stop_code": "36285",
        "stop_name": "המעפילים/שד' דב הוז",
        "marker-color": "#2ca02c",
        "marker-symbol": "bus",
        "marker-size": "medium"
      },
      "geometry": {
        "type": "Point",
        "coordinates": [
          34.765658,
          32.024295
        ]
      }
    },
    {
      "type": "Feature",
      "properties": {
        "type": "original_route_stop",
        "stop_code": "33359",
        "stop_name": "המעפילים/הרמב''ם",
        "marker-color": "#2ca02c",
        "marker-symbol": "bus",
        "marker-size": "medium"
      },
      "geometry": {
        "type": "Point",
        "coordinates": [
          34.766071,
          32.026368
        ]
      }
    },
    {
      "type": "Feature",
      "properties": {
        "type": "original_route_stop",
        "stop_code": "33822",
        "stop_name": "הבנים/המעפילים",
        "marker-color": "#2ca02c",
        "marker-symbol": "bus",
        "marker-size": "medium"
      },
      "geometry": {
        "type": "Point",
        "coordinates": [
          34.765417,
          32.028679
        ]
      }
    },
    {
      "type": "Feature",
      "properties": {
        "type": "original_route_stop",
        "stop_code": "36287",
        "stop_name": "הבנים/חזית חמש",
        "marker-color": "#2ca02c",
        "marker-symbol": "bus",
        "marker-size": "medium"
      },
      "geometry": {
        "type": "Point",
        "coordinates": [
          34.762845,
          32.028985
        ]
      }
    },
    {
      "type": "Feature",
      "properties": {
        "type": "original_route_stop",
        "stop_code": "36282",
        "stop_name": "חזית חמש/הבנים",
        "marker-color": "#2ca02c",
        "marker-symbol": "bus",
        "marker-size": "medium"
      },
      "geometry": {
        "type": "Point",
        "coordinates": [
          34.762146,
          32.030032
        ]
      }
    },
    {
      "type": "Feature",
      "properties": {
        "type": "original_route_stop",
        "stop_code": "36301",
        "stop_name": "המצודה/חזית חמש",
        "marker-color": "#2ca02c",
        "marker-symbol": "bus",
        "marker-size": "medium"
      },
      "geometry": {
        "type": "Point",
        "coordinates": [
          34.763024,
          32.032499
        ]
      }
    },
    {
      "type": "Feature",
      "properties": {
        "type": "original_route_stop",
        "stop_code": "36303",
        "stop_name": "המצודה/החבצלת",
        "marker-color": "#2ca02c",
        "marker-symbol": "bus",
        "marker-size": "medium"
      },
      "geometry": {
        "type": "Point",
        "coordinates": [
          34.766304,
          32.033495
        ]
      }
    },
    {
      "type": "Feature",
      "properties": {
        "type": "original_route_stop",
        "stop_code": "36388",
        "stop_name": "תל גיבורים/המצודה",
        "marker-color": "#2ca02c",
        "marker-symbol": "bus",
        "marker-size": "medium"
      },
      "geometry": {
        "type": "Point",
        "coordinates": [
          34.767903,
          32.032366
        ]
      }
    },
    {
      "type": "Feature",
      "properties": {
        "type": "original_route_stop",
        "stop_code": "36391",
        "stop_name": "קאנטרי חולון/הלוחמים",
        "marker-color": "#2ca02c",
        "marker-symbol": "bus",
        "marker-size": "medium"
      },
      "geometry": {
        "type": "Point",
        "coordinates": [
          34.77066,
          32.031845
        ]
      }
    },
    {
      "type": "Feature",
      "properties": {
        "type": "original_route_stop",
        "stop_code": "37487",
        "stop_name": "משרד הרישוי/הלוחמים",
        "marker-color": "#2ca02c",
        "marker-symbol": "bus",
        "marker-size": "medium"
      },
      "geometry": {
        "type": "Point",
        "coordinates": [
          34.770086,
          32.034209
        ]
      }
    },
    {
      "type": "Feature",
      "properties": {
        "type": "original_route_stop",
        "stop_code": "36394",
        "stop_name": "הלוחמים/תל גיבורים",
        "marker-color": "#2ca02c",
        "marker-symbol": "bus",
        "marker-size": "medium"
      },
      "geometry": {
        "type": "Point",
        "coordinates": [
          34.7669,
          32.035855
        ]
      }
    },
    {
      "type": "Feature",
      "properties": {
        "type": "original_route_stop",
        "stop_code": "39719",
        "stop_name": "מסוף וולפסון",
        "marker-color": "#2ca02c",
        "marker-symbol": "bus",
        "marker-size": "medium"
      },
      "geometry": {
        "type": "Point",
        "coordinates": [
          34.762099,
          32.036865
        ]
      }
    },
    {
      "type": "Feature",
      "properties": {
        "type": "cancelled_stop",
        "stop_code": "35871",
        "stop_name": "דוד אלעזר/קבוץ גלויות",
        "marker-color": "#ff0000",
        "marker-symbol": "bus",
        "marker-size": "medium"
      },
      "geometry": {
        "type": "Point",
        "coordinates": [
          34.785362,
          32.011564
        ]
      }
    },
    {
      "type": "Feature",
      "properties": {
        "type": "cancelled_stop",
        "stop_code": "36399",
        "stop_name": "ההסתדרות/גאולים",
        "marker-color": "#ff0000",
        "marker-symbol": "bus",
        "marker-size": "medium"
      },
      "geometry": {
        "type": "Point",
        "coordinates": [
          34.784884,
          32.015191
        ]
      }
    },
    {
      "type": "Feature",
      "properties": {
        "type": "cancelled_stop",
        "stop_code": "36387",
        "stop_name": "ההסתדרות/מוהליבר",
        "marker-color": "#ff0000",
        "marker-symbol": "bus",
        "marker-size": "medium"
      },
      "geometry": {
        "type": "Point",
        "coordinates": [
          34.782766,
          32.016495
        ]
      }
    },
    {
      "type": "Feature",
      "properties": {
        "type": "cancelled_stop",
        "stop_code": "36385",
        "stop_name": "ההסתדרות/ראש פינה",
        "marker-color": "#ff0000",
        "marker-symbol": "bus",
        "marker-size": "medium"
      },
      "geometry": {
        "type": "Point",
        "coordinates": [
          34.779875,
          32.017269
        ]
      }
    },
    {
      "type": "Feature",
      "properties": {
        "type": "cancelled_stop",
        "stop_code": "39755",
        "stop_name": "קמפוס חנקין/חנקין",
        "marker-color": "#ff0000",
        "marker-symbol": "bus",
        "marker-size": "medium"
      },
      "geometry": {
        "type": "Point",
        "coordinates": [
          34.778475,
          32.015703
        ]
      }
    },
    {
      "type": "Feature",
      "properties": {
        "type": "new_stop",
        "stop_code": "36332",
        "stop_name": "תיכון קוגל/גולדה מאיר",
        "marker-color": "#1f9ed6",
        "marker-symbol": "bus",
        "marker-size": "medium"
      },
      "geometry": {
        "type": "Point",
        "coordinates": [
          34.781425,
          32.011523
        ]
      }
    },
    {
      "type": "Feature",
      "properties": {
        "type": "reported_block_stop",
        "stop_code": "36399",
        "stop_name": "ההסתדרות/גאולים",
        "marker-color": "#ff8800",
        "marker-symbol": "bus",
        "marker-size": "medium"
      },
      "geometry": {
        "type": "Point",
        "coordinates": [
          34.784884,
          32.015191
        ]
      }
    },
    {
      "type": "Feature",
      "properties": {
        "type": "reported_block_stop",
        "stop_code": "36387",
        "stop_name": "ההסתדרות/מוהליבר",
        "marker-color": "#ff8800",
        "marker-symbol": "bus",
        "marker-size": "medium"
      },
      "geometry": {
        "type": "Point",
        "coordinates": [
          34.782766,
          32.016495
        ]
      }
    },
    {
      "type": "Feature",
      "properties": {
        "type": "deviate_from_stop",
        "stop_code": "37635",
        "stop_name": "דוד אלעזר/קרן היסוד",
        "marker-color": "#8000ff",
        "marker-symbol": "bus",
        "marker-size": "medium"
      },
      "geometry": {
        "type": "Point",
        "coordinates": [
          34.784891,
          32.007787
        ]
      }
    },
    {
      "type": "Feature",
      "properties": {
        "type": "deviate_to_stop",
        "stop_code": "36331",
        "stop_name": "קניון חולון/גולדה מאיר",
        "marker-color": "#8000ff",
        "marker-symbol": "bus",
        "marker-size": "medium"
      },
      "geometry": {
        "type": "Point",
        "coordinates": [
          34.777684,
          32.01247
        ]
      }
    }
  ]
}