{
  "type": "FeatureCollection",
  "features": [
    {
      "type": "Feature",
      "properties": {
        "type": "deviation_path_edge",
        "from_stop_code": "26274",
        "to_stop_code": "26140",
        "stroke": "#00bcd4",
        "stroke-width": 3,
        "stroke-opacity": 0.95
      },
      "geometry": {
        "type": "LineString",
        "coordinates": [
          [
            34.81489582010545,
            32.08104044906854
          ],
          [
            34.814889,
            32.080939
          ],
          [
            34.814879,
            32.080724
          ],
          [
            34.814876,
            32.080245
          ],
          [
            34.814856,
            32.079217
          ],
          [
            34.814838,
            32.079118
          ],
          [
            34.814976,
            32.079146
          ],
          [
            34.815386,
            32.079224
          ],
          [
            34.815701,
            32.079324
          ],
          [
            34.81573380342653,
            32.07933873522903
          ]
        ]
      }
    },
    {
      "type": "Feature",
      "properties": {
        "type": "deviation_path_edge",
        "from_stop_code": "26140",
        "to_stop_code": "26331",
        "stroke": "#00bcd4",
        "stroke-width": 3,
        "stroke-opacity": 0.95
      },
      "geometry": {
        "type": "LineString",
        "coordinates": [
          [
            34.81573380342653,
            32.07933873522903
          ],
          [
            34.815888,
            32.079408
          ],
          [
            34.816007,
            32.079463
          ],
          [
            34.816663,
            32.079703
          ],
          [
            34.817002,
            32.07989
          ],
          [
            34.817335,
            32.080087
          ],
          [
            34.817862,
            32.080397
          ],
          [
            34.818141380849,
            32.08057680664897
          ]
        ]
      }
    },
    {
      "type": "Feature",
      "properties": {
        "type": "deviation_path_edge",
        "from_stop_code": "26331",
        "to_stop_code": "22936",
        "stroke": "#00bcd4",
        "stroke-width": 3,
        "stroke-opacity": 0.95
      },
      "geometry": {
        "type": "LineString",
        "coordinates": [
          [
            34.818141380849,
            32.08057680664897
          ],
          [
            34.818252,
            32.080648
          ],
          [
            34.818455,
            32.08086
          ],
          [
            34.81859,
            32.081002
          ],
          [
            34.819946,
            32.080381
          ],
          [
            34.819892,
            32.080176
          ],
          [
            34.81978995205538,
            32.07983696467985
          ]
        ]
      }
    },
    {
      "type": "Feature",
      "properties": {
        "type": "deviation_path_edge",
        "from_stop_code": "22936",
        "to_stop_code": "26202",
        "stroke": "#00bcd4",
        "stroke-width": 3,
        "stroke-opacity": 0.95
      },
      "geometry": {
        "type": "LineString",
        "coordinates": [
          [
            34.81978995205538,
            32.07983696467985
          ],
          [
            34.819771,
            32.079774
          ],
          [
            34.819667,
            32.079421
          ],
          [
            34.819593,
            32.079214
          ],
          [
            34.819502,
            32.078931
          ],
          [
            34.81934,
            32.078293
          ],
          [
            34.819277,
            32.078104
          ],
          [
            34.819133,
            32.077608
          ],
          [
            34.819007,
            32.077154
          ],
          [
            34.818944,
            32.076914
          ],
          [
            34.818894,
            32.076653
          ],
          [
            34.818851281141455,
            32.07642249615911
          ]
        ]
      }
    },
    {
      "type": "Feature",
      "properties": {
        "type": "deviation_path_edge",
        "from_stop_code": "26202",
        "to_stop_code": "26198",
        "stroke": "#00bcd4",
        "stroke-width": 3,
        "stroke-opacity": 0.95
      },
      "geometry": {
        "type": "LineString",
        "coordinates": [
          [
            34.818851281141455,
            32.07642249615911
          ],
          [
            34.818846,
            32.076394
          ],
          [
            34.818803,
            32.076209
          ],
          [
            34.81875,
            32.075966
          ],
          [
            34.818678,
            32.075655
          ],
          [
            34.81866,
            32.07558
          ],
          [
            34.818634,
            32.075454
          ],
          [
            34.818621,
            32.075372
          ],
          [
            34.818605,
            32.075317
          ],
          [
            34.818577,
            32.07517
          ],
          [
            34.818541,
            32.074892
          ],
          [
            34.818523,
            32.074821
          ],
          [
            34.818404,
            32.07435
          ],
          [
            34.81835094266679,
            32.07395292576435
          ]
        ]
      }
    },
    {
      "type": "Feature",
      "properties": {
        "type": "original_route_shape",
        "shape_id": "156615",
        "stroke": "#1f2a7a",
        "stroke-width": 3,
        "stroke-opacity": 0.85
      },
      "geometry": {
        "type": "LineString",
        "coordinates": [
          [
            34.82769541665365,
            32.10361866770817
          ],
          [
            34.827697,
            32.103492
          ],
          [
            34.827703,
            32.103338
          ],
          [
            34.82771,
            32.103209
          ],
          [
            34.827735,
            32.102779
          ],
          [
            34.827754,
            32.102473
          ],
          [
            34.827759,
            32.102395
          ],
          [
            34.827777,
            32.102182
          ],
          [
            34.827809,
            32.10183
          ],
          [
            34.827819,
            32.10174
          ],
          [
            34.827857,
            32.1015
          ],
          [
            34.827894,
            32.10127
          ],
          [
            34.827975,
            32.100796
          ],
          [
            34.828029,
            32.100474
          ],
          [
            34.828049,
            32.100355
          ],
          [
            34.8281,
            32.100112
          ],
          [
            34.828337,
            32.099407
          ],
          [
            34.828324,
            32.09918
          ],
          [
            34.828304,
            32.099108
          ],
          [
            34.828257,
            32.099024
          ],
          [
            34.828233,
            32.099019
          ],
          [
            34.828042,
            32.098911
          ],
          [
            34.827055,
            32.098654
          ],
          [
            34.826576,
            32.09853
          ],
          [
            34.826249,
            32.098435
          ],
          [
            34.826112,
            32.098392
          ],
          [
            34.825824,
            32.098311
          ],
          [
            34.825488,
            32.098205
          ],
          [
            34.824714,
            32.097974
          ],
          [
            34.823564,
            32.097601
          ],
          [
            34.823116,
            32.097472
          ],
          [
            34.822185,
            32.097225
          ],
          [
            34.822045,
            32.097187
          ],
          [
            34.821851,
            32.097105
          ],
          [
            34.821705,
            32.097028
          ],
          [
            34.821588,
            32.096957
          ],
          [
            34.821386,
            32.096807
          ],
          [
            34.821463,
            32.096636
          ],
          [
            34.821631,
            32.096267
          ],
          [
            34.821734,
            32.095946
          ],
          [
            34.821751,
            32.09547
          ],
          [
            34.821796,
            32.095221
          ],
          [
            34.821807,
            32.095156
          ],
          [
            34.821964,
            32.094393
          ],
          [
            34.822025,
            32.094073
          ],
          [
            34.822077,
            32.093771
          ],
          [
            34.822089,
            32.093652
          ],
          [
            34.822277,
            32.092651
          ],
          [
            34.822331,
            32.092346
          ],
          [
            34.822358,
            32.092224
          ],
          [
            34.822419,
            32.091922
          ],
          [
            34.822581,
            32.091064
          ],
          [
            34.822488,
            32.090931
          ],
          [
            34.822445,
            32.090885
          ],
          [
            34.822293,
            32.090781
          ],
          [
            34.82162,
            32.090628
          ],
          [
            34.820694,
            32.090443
          ],
          [
            34.820681,
            32.090439
          ],
          [
            34.820079,
            32.090309
          ],
          [
            34.819812,
            32.090228
          ],
          [
            34.819181,
            32.089924
          ],
          [
            34.819034,
            32.089859
          ],
          [
            34.818775,
            32.089744
          ],
          [
            34.818624,
            32.089677
          ],
          [
            34.818258,
            32.089502
          ],
          [
            34.817905,
            32.089394
          ],
          [
            34.817277,
            32.089245
          ],
          [
            34.816966,
            32.089173
          ],
          [
            34.816285,
            32.089013
          ],
          [
            34.815533,
            32.088844
          ],
          [
            34.815355,
            32.088804
          ],
          [
            34.815323,
            32.088796
          ],
          [
            34.815124,
            32.088725
          ],
          [
            34.814613,
            32.088472
          ],
          [
            34.814601,
            32.088465
          ],
          [
            34.814445,
            32.088366
          ],
          [
            34.813951,
            32.088053
          ],
          [
            34.813735,
            32.087917
          ],
          [
            34.813579,
            32.087751
          ],
          [
            34.813403,
            32.087603
          ],
          [
            34.813166,
            32.087435
          ],
          [
            34.812713,
            32.087147
          ],
          [
            34.812093,
            32.086757
          ],
          [
            34.811935,
            32.086692
          ],
          [
            34.811563,
            32.086499
          ],
          [
            34.811255,
            32.086287
          ],
          [
            34.811244,
            32.086279
          ],
          [
            34.810735,
            32.08583
          ],
          [
            34.810616,
            32.085725
          ],
          [
            34.810812,
            32.085699
          ],
          [
            34.811054,
            32.085573
          ],
          [
            34.811351,
            32.085409
          ],
          [
            34.81169,
            32.085224
          ],
          [
            34.812103,
            32.08501
          ],
          [
            34.81219,
            32.084969
          ],
          [
            34.8127,
            32.084715
          ],
          [
            34.813393,
            32.084351
          ],
          [
            34.813528,
            32.08428
          ],
          [
            34.813818,
            32.084142
          ],
          [
            34.813964,
            32.084032
          ],
          [
            34.814123,
            32.083891
          ],
          [
            34.814237,
            32.083768
          ],
          [
            34.814372,
            32.083559
          ],
          [
            34.814432,
            32.083438
          ],
          [
            34.814514,
            32.083187
          ],
          [
            34.814586,
            32.08297
          ],
          [
            34.814645,
            32.08279
          ],
          [
            34.814669,
            32.08272
          ],
          [
            34.814833,
            32.082135
          ],
          [
            34.814851,
            32.081992
          ],
          [
            34.814868,
            32.081849
          ],
          [
            34.814904,
            32.081557
          ],
          [
            34.814897,
            32.081058
          ],
          [
            34.814889,
            32.080939
          ],
          [
            34.814879,
            32.080724
          ],
          [
            34.814876,
            32.080245
          ],
          [
            34.814856,
            32.079217
          ],
          [
            34.814838,
            32.079118
          ],
          [
            34.814835,
            32.079102
          ],
          [
            34.814838,
            32.079048
          ],
          [
            34.814934,
            32.078748
          ],
          [
            34.815068,
            32.078386
          ],
          [
            34.815076,
            32.078344
          ],
          [
            34.815067,
            32.078281
          ],
          [
            34.815013,
            32.078195
          ],
          [
            34.814826,
            32.077995
          ],
          [
            34.814698,
            32.07786
          ],
          [
            34.81459,
            32.077735
          ],
          [
            34.814495,
            32.077619
          ],
          [
            34.814406,
            32.07751
          ],
          [
            34.814384,
            32.077419
          ],
          [
            34.814368,
            32.077299
          ],
          [
            34.814371,
            32.077218
          ],
          [
            34.814385,
            32.077138
          ],
          [
            34.814499,
            32.077142
          ],
          [
            34.814513,
            32.077144
          ],
          [
            34.814653,
            32.077139
          ],
          [
            34.814814,
            32.077103
          ],
          [
            34.815019,
            32.077015
          ],
          [
            34.815325,
            32.076827
          ],
          [
            34.815913,
            32.076405
          ],
          [
            34.816291,
            32.076128
          ],
          [
            34.816378,
            32.076066
          ],
          [
            34.817142,
            32.075553
          ],
          [
            34.817429,
            32.0754
          ],
          [
            34.817709,
            32.075312
          ],
          [
            34.817944,
            32.075321
          ],
          [
            34.818187,
            32.07536
          ],
          [
            34.818497,
            32.075298
          ],
          [
            34.818525,
            32.075281
          ],
          [
            34.818542,
            32.075259
          ],
          [
            34.818577,
            32.07517
          ],
          [
            34.818541,
            32.074892
          ],
          [
            34.818523,
            32.074821
          ],
          [
            34.818404,
            32.07435
          ],
          [
            34.818342,
            32.073886
          ],
          [
            34.818307,
            32.073606
          ],
          [
            34.818303,
            32.073458
          ],
          [
            34.818325,
            32.073186
          ],
          [
            34.81833,
            32.073127
          ],
          [
            34.818329,
            32.073001
          ],
          [
            34.818322,
            32.072834
          ],
          [
            34.818318,
            32.072788
          ],
          [
            34.818283,
            32.072488
          ],
          [
            34.818244,
            32.072191
          ],
          [
            34.818202,
            32.071949
          ],
          [
            34.81816,
            32.071809
          ],
          [
            34.818109,
            32.071616
          ],
          [
            34.818086,
            32.071531
          ],
          [
            34.818036,
            32.071369
          ],
          [
            34.817922,
            32.071154
          ],
          [
            34.817786,
            32.070901
          ],
          [
            34.817664,
            32.070663
          ],
          [
            34.817471,
            32.070226
          ],
          [
            34.817225,
            32.069523
          ],
          [
            34.817156,
            32.069331
          ],
          [
            34.81713,
            32.069274
          ],
          [
            34.817056,
            32.069098
          ],
          [
            34.816855,
            32.068389
          ],
          [
            34.816641,
            32.067855
          ],
          [
            34.816473,
            32.06739
          ],
          [
            34.816433,
            32.067258
          ],
          [
            34.816386,
            32.067113
          ],
          [
            34.816305,
            32.066924
          ],
          [
            34.816135,
            32.066596
          ],
          [
            34.815907,
            32.066231
          ],
          [
            34.815703,
            32.065971
          ],
          [
            34.815642,
            32.065898
          ],
          [
            34.815523,
            32.065749
          ],
          [
            34.815344,
            32.065525
          ],
          [
            34.81512,
            32.065322
          ],
          [
            34.815,
            32.065231
          ],
          [
            34.814883,
            32.065178
          ],
          [
            34.814738,
            32.065133
          ],
          [
            34.814597,
            32.065115
          ],
          [
            34.814197,
            32.06509
          ],
          [
            34.813518,
            32.065191
          ],
          [
            34.813314,
            32.06523
          ],
          [
            34.812855,
            32.065318
          ],
          [
            34.81252,
            32.065391
          ],
          [
            34.812285,
            32.065451
          ],
          [
            34.811889,
            32.065582
          ],
          [
            34.811854,
            32.065595
          ],
          [
            34.811405,
            32.065762
          ],
          [
            34.81114,
            32.065873
          ],
          [
            34.811064,
            32.065904
          ],
          [
            34.810617,
            32.066087
          ],
          [
            34.810058,
            32.066322
          ],
          [
            34.809803,
            32.066404
          ],
          [
            34.809578,
            32.066453
          ],
          [
            34.809264,
            32.06652
          ],
          [
            34.80905,
            32.066539
          ],
          [
            34.808672,
            32.066554
          ],
          [
            34.808523,
            32.06656
          ],
          [
            34.808533,
            32.066443
          ],
          [
            34.808565,
            32.066098
          ],
          [
            34.808596,
            32.06594
          ],
          [
            34.808645,
            32.065773
          ],
          [
            34.808706,
            32.065612
          ],
          [
            34.808808,
            32.065422
          ],
          [
            34.808916,
            32.065227
          ],
          [
            34.809023,
            32.065093
          ],
          [
            34.80916,
            32.064937
          ],
          [
            34.809276,
            32.064807
          ],
          [
            34.809497,
            32.064481
          ],
          [
            34.81011,
            32.063226
          ],
          [
            34.810199,
            32.062993
          ],
          [
            34.810332,
            32.062661
          ],
          [
            34.810573,
            32.061942
          ],
          [
            34.810648,
            32.061564
          ],
          [
            34.81069,
            32.061303
          ],
          [
            34.810709,
            32.061011
          ],
          [
            34.810739,
            32.060684
          ],
          [
            34.81075,
            32.060318
          ],
          [
            34.810735,
            32.060047
          ],
          [
            34.810715,
            32.059715
          ],
          [
            34.810711,
            32.059601
          ],
          [
            34.810701,
            32.059542
          ],
          [
            34.810646,
            32.059208
          ],
          [
            34.810635,
            32.059147
          ],
          [
            34.810613,
            32.059007
          ],
          [
            34.810591,
            32.058903
          ],
          [
            34.810353,
            32.058941
          ],
          [
            34.810318,
            32.058948
          ],
          [
            34.809484,
            32.059112
          ],
          [
            34.808823,
            32.059292
          ],
          [
            34.808099,
            32.059517
          ],
          [
            34.807302,
            32.059841
          ],
          [
            34.806699,
            32.060157
          ],
          [
            34.806456,
            32.060309
          ],
          [
            34.805799,
            32.060757
          ],
          [
            34.80557,
            32.060983
          ],
          [
            34.805414,
            32.061136
          ],
          [
            34.805226,
            32.061315
          ],
          [
            34.805193,
            32.061346
          ],
          [
            34.805137,
            32.0614
          ],
          [
            34.805008,
            32.061327
          ],
          [
            34.804717,
            32.061096
          ],
          [
            34.804588,
            32.060968
          ],
          [
            34.804527,
            32.060913
          ],
          [
            34.80448,
            32.060861
          ],
          [
            34.804402,
            32.060761
          ],
          [
            34.804308,
            32.060635
          ],
          [
            34.804226,
            32.060506
          ],
          [
            34.804056,
            32.060082
          ],
          [
            34.804036,
            32.060014
          ],
          [
            34.804023,
            32.059954
          ],
          [
            34.804008,
            32.059879
          ],
          [
            34.803931,
            32.059573
          ],
          [
            34.803884,
            32.059477
          ],
          [
            34.803802,
            32.059399
          ],
          [
            34.803673,
            32.059347
          ],
          [
            34.803458,
            32.05929
          ],
          [
            34.803108,
            32.059279
          ],
          [
            34.802637,
            32.059264
          ],
          [
            34.802487,
            32.059259
          ],
          [
            34.8019,
            32.059226
          ],
          [
            34.801317,
            32.059196
          ],
          [
            34.800685,
            32.059182
          ],
          [
            34.800455,
            32.059179
          ],
          [
            34.80026,
            32.059176
          ],
          [
            34.799404,
            32.059156
          ],
          [
            34.798023,
            32.05912
          ],
          [
            34.797896,
            32.059138
          ],
          [
            34.797865,
            32.05914
          ],
          [
            34.797451,
            32.059142
          ],
          [
            34.797312,
            32.059143
          ],
          [
            34.797212,
            32.059143
          ],
          [
            34.79664,
            32.059139
          ],
          [
            34.796493,
            32.059138
          ],
          [
            34.795785,
            32.05912
          ],
          [
            34.794606,
            32.059146
          ],
          [
            34.793881,
            32.059166
          ],
          [
            34.793457,
            32.059177
          ],
          [
            34.792972,
            32.059194
          ],
          [
            34.792469,
            32.059212
          ],
          [
            34.79226,
            32.059221
          ],
          [
            34.791999,
            32.059233
          ],
          [
            34.791911,
            32.059237
          ],
          [
            34.791636,
            32.05924
          ],
          [
            34.790655,
            32.059256
          ],
          [
            34.789553,
            32.059288
          ],
          [
            34.789296,
            32.059291
          ],
          [
            34.789102,
            32.059319
          ],
          [
            34.788699,
            32.059346
          ],
          [
            34.78837,
            32.05936
          ],
          [
            34.788146,
            32.059361
          ],
          [
            34.787778,
            32.059373
          ],
          [
            34.787577,
            32.059379
          ],
          [
            34.786995,
            32.059417
          ],
          [
            34.786912,
            32.059419
          ],
          [
            34.786592,
            32.05942
          ],
          [
            34.78635601410438,
            32.05940935401975
          ]
        ]
      }
    },
    {
      "type": "Feature",
      "properties": {
        "type": "original_route_stop",
        "stop_code": "21390",
        "stop_name": "ת. רכבת בני ברק/מבצע קדש",
        "marker-color": "#2ca02c",
        "marker-symbol": "bus",
        "marker-size": "medium"
      },
      "geometry": {
        "type": "Point",
        "coordinates": [
          34.827642,
          32.103618
        ]
      }
    },
    {
      "type": "Feature",
      "properties": {
        "type": "original_route_stop",
        "stop_code": "21452",
        "stop_name": "קניון איילון/מבצע קדש",
        "marker-color": "#2ca02c",
        "marker-symbol": "bus",
        "marker-size": "medium"
      },
      "geometry": {
        "type": "Point",
        "coordinates": [
          34.827845,
          32.101244
        ]
      }
    },
    {
      "type": "Feature",
      "properties": {
        "type": "original_route_stop",
        "stop_code": "21666",
        "stop_name": "קניון איילון/דרך אבא הלל",
        "marker-color": "#2ca02c",
        "marker-symbol": "bus",
        "marker-size": "medium"
      },
      "geometry": {
        "type": "Point",
        "coordinates": [
          34.827472,
          32.098809
        ]
      }
    },
    {
      "type": "Feature",
      "properties": {
        "type": "original_route_stop",
        "stop_code": "21817",
        "stop_name": "דרך בן גוריון /דרך ששת הימים",
        "marker-color": "#2ca02c",
        "marker-symbol": "bus",
        "marker-size": "medium"
      },
      "geometry": {
        "type": "Point",
        "coordinates": [
          34.821682,
          32.095915
        ]
      }
    },
    {
      "type": "Feature",
      "properties": {
        "type": "original_route_stop",
        "stop_code": "22273",
        "stop_name": "מגדל קונקורד/דרך בן גוריון",
        "marker-color": "#2ca02c",
        "marker-symbol": "bus",
        "marker-size": "medium"
      },
      "geometry": {
        "type": "Point",
        "coordinates": [
          34.822094,
          32.093343
        ]
      }
    },
    {
      "type": "Feature",
      "properties": {
        "type": "original_route_stop",
        "stop_code": "28500",
        "stop_name": "ת.רק''ל בן גוריון/דרך ז'בוטינסקי",
        "marker-color": "#2ca02c",
        "marker-symbol": "bus",
        "marker-size": "medium"
      },
      "geometry": {
        "type": "Point",
        "coordinates": [
          34.821723,
          32.090698
        ]
      }
    },
    {
      "type": "Feature",
      "properties": {
        "type": "original_route_stop",
        "stop_code": "21470",
        "stop_name": "דרך ז'בוטינסקי/רש''י",
        "marker-color": "#2ca02c",
        "marker-symbol": "bus",
        "marker-size": "medium"
      },
      "geometry": {
        "type": "Point",
        "coordinates": [
          34.818457,
          32.089649
        ]
      }
    },
    {
      "type": "Feature",
      "properties": {
        "type": "original_route_stop",
        "stop_code": "20036",
        "stop_name": "דרך ז'בוטינסקי/הרצל",
        "marker-color": "#2ca02c",
        "marker-symbol": "bus",
        "marker-size": "medium"
      },
      "geometry": {
        "type": "Point",
        "coordinates": [
          34.816021,
          32.089
        ]
      }
    },
    {
      "type": "Feature",
      "properties": {
        "type": "original_route_stop",
        "stop_code": "21354",
        "stop_name": "ת.רק''ל ביאליק/דרך ז'בוטינסקי",
        "marker-color": "#2ca02c",
        "marker-symbol": "bus",
        "marker-size": "medium"
      },
      "geometry": {
        "type": "Point",
        "coordinates": [
          34.8128,
          32.087259
        ]
      }
    },
    {
      "type": "Feature",
      "properties": {
        "type": "original_route_stop",
        "stop_code": "26278",
        "stop_name": "ביאליק/נורדאו",
        "marker-color": "#2ca02c",
        "marker-symbol": "bus",
        "marker-size": "medium"
      },
      "geometry": {
        "type": "Point",
        "coordinates": [
          34.812421,
          32.084802
        ]
      }
    },
    {
      "type": "Feature",
      "properties": {
        "type": "original_route_stop",
        "stop_code": "26275",
        "stop_name": "עיריית ר''ג/ביאליק",
        "marker-color": "#2ca02c",
        "marker-symbol": "bus",
        "marker-size": "medium"
      },
      "geometry": {
        "type": "Point",
        "coordinates": [
          34.814746,
          32.08225
        ]
      }
    },
    {
      "type": "Feature",
      "properties": {
        "type": "original_route_stop",
        "stop_code": "26185",
        "stop_name": "דרך בן גוריון/כנפי נשרים",
        "marker-color": "#2ca02c",
        "marker-symbol": "bus",
        "marker-size": "medium"
      },
      "geometry": {
        "type": "Point",
        "coordinates": [
          34.81761,
          32.070669
        ]
      }
    },
    {
      "type": "Feature",
      "properties": {
        "type": "original_route_stop",
        "stop_code": "26184",
        "stop_name": "דרך בן גוריון/גולומב",
        "marker-color": "#2ca02c",
        "marker-symbol": "bus",
        "marker-size": "medium"
      },
      "geometry": {
        "type": "Point",
        "coordinates": [
          34.817144,
          32.069452
        ]
      }
    },
    {
      "type": "Feature",
      "properties": {
        "type": "original_route_stop",
        "stop_code": "20324",
        "stop_name": "קאנטרי/בן גוריון",
        "marker-color": "#2ca02c",
        "marker-symbol": "bus",
        "marker-size": "medium"
      },
      "geometry": {
        "type": "Point",
        "coordinates": [
          34.815957,
          32.066407
        ]
      }
    },
    {
      "type": "Feature",
      "properties": {
        "type": "original_route_stop",
        "stop_code": "28580",
        "stop_name": "קניון גבעתיים/דרך יצחק רבין",
        "marker-color": "#2ca02c",
        "marker-symbol": "bus",
        "marker-size": "medium"
      },
      "geometry": {
        "type": "Point",
        "coordinates": [
          34.811659,
          32.065716
        ]
      }
    },
    {
      "type": "Feature",
      "properties": {
        "type": "original_route_stop",
        "stop_code": "21044",
        "stop_name": "המאבק/מנורה",
        "marker-color": "#2ca02c",
        "marker-symbol": "bus",
        "marker-size": "medium"
      },
      "geometry": {
        "type": "Point",
        "coordinates": [
          34.809773,
          32.063799
        ]
      }
    },
    {
      "type": "Feature",
      "properties": {
        "type": "original_route_stop",
        "stop_code": "26074",
        "stop_name": "המאבק/כ''ג",
        "marker-color": "#2ca02c",
        "marker-symbol": "bus",
        "marker-size": "medium"
      },
      "geometry": {
        "type": "Point",
        "coordinates": [
          34.810368,
          32.062389
        ]
      }
    },
    {
      "type": "Feature",
      "properties": {
        "type": "original_route_stop",
        "stop_code": "26072",
        "stop_name": "המאבק/עמישב",
        "marker-color": "#2ca02c",
        "marker-symbol": "bus",
        "marker-size": "medium"
      },
      "geometry": {
        "type": "Point",
        "coordinates": [
          34.810652,
          32.059565
        ]
      }
    },
    {
      "type": "Feature",
      "properties": {
        "type": "original_route_stop",
        "stop_code": "21655",
        "stop_name": "דרך השלום/דרך הטייסים",
        "marker-color": "#2ca02c",
        "marker-symbol": "bus",
        "marker-size": "medium"
      },
      "geometry": {
        "type": "Point",
        "coordinates": [
          34.806529,
          32.060318
        ]
      }
    },
    {
      "type": "Feature",
      "properties": {
        "type": "original_route_stop",
        "stop_code": "21595",
        "stop_name": "לה גווארדייה/דרך הטייסים",
        "marker-color": "#2ca02c",
        "marker-symbol": "bus",
        "marker-size": "medium"
      },
      "geometry": {
        "type": "Point",
        "coordinates": [
          34.80295,
          32.059319
        ]
      }
    },
    {
      "type": "Feature",
      "properties": {
        "type": "original_route_stop",
        "stop_code": "21301",
        "stop_name": "לה גווארדייה/הגיבור האלמוני",
        "marker-color": "#2ca02c",
        "marker-symbol": "bus",
        "marker-size": "medium"
      },
      "geometry": {
        "type": "Point",
        "coordinates": [
          34.798721,
          32.059183
        ]
      }
    },
    {
      "type": "Feature",
      "properties": {
        "type": "original_route_stop",
        "stop_code": "21438",
        "stop_name": "לה גווארדייה/שער הגיא",
        "marker-color": "#2ca02c",
        "marker-symbol": "bus",
        "marker-size": "medium"
      },
      "geometry": {
        "type": "Point",
        "coordinates": [
          34.79378,
          32.059214
        ]
      }
    },
    {
      "type": "Feature",
      "properties": {
        "type": "original_route_stop",
        "stop_code": "21264",
        "stop_name": "לה גווארדייה/יגאל אלון",
        "marker-color": "#2ca02c",
        "marker-symbol": "bus",
        "marker-size": "medium"
      },
      "geometry": {
        "type": "Point",
        "coordinates": [
          34.790544,
          32.059304
        ]
      }
    },
    {
      "type": "Feature",
      "properties": {
        "type": "original_route_stop",
        "stop_code": "23023",
        "stop_name": "לה גווארדייה/המעפילים",
        "marker-color": "#2ca02c",
        "marker-symbol": "bus",
        "marker-size": "medium"
      },
      "geometry": {
        "type": "Point",
        "coordinates": [
          34.788682,
          32.059392
        ]
      }
    },
    {
      "type": "Feature",
      "properties": {
        "type": "original_route_stop",
        "stop_code": "21274",
        "stop_name": "מחלף לה גווארדייה",
        "marker-color": "#2ca02c",
        "marker-symbol": "bus",
        "marker-size": "medium"
      },
      "geometry": {
        "type": "Point",
        "coordinates": [
          34.786354,
          32.059454
        ]
      }
    },
    {
      "type": "Feature",
      "properties": {
        "type": "cancelled_stop",
        "stop_code": "26137",
        "stop_name": "סירקין/ביאליק",
        "marker-color": "#ff0000",
        "marker-symbol": "bus",
        "marker-size": "medium"
      },
      "geometry": {
        "type": "Point",
        "coordinates": [
          34.814765,
          32.078002
        ]
      }
    },
    {
      "type": "Feature",
      "properties": {
        "type": "cancelled_stop",
        "stop_code": "26135",
        "stop_name": "כצנלסון/סירקין",
        "marker-color": "#ff0000",
        "marker-symbol": "bus",
        "marker-size": "medium"
      },
      "geometry": {
        "type": "Point",
        "coordinates": [
          34.815073,
          32.076926
        ]
      }
    },
    {
      "type": "Feature",
      "properties": {
        "type": "cancelled_stop",
        "stop_code": "26196",
        "stop_name": "כצנלסון/דרך בן גוריון",
        "marker-color": "#ff0000",
        "marker-symbol": "bus",
        "marker-size": "medium"
      },
      "geometry": {
        "type": "Point",
        "coordinates": [
          34.8175,
          32.07533
        ]
      }
    },
    {
      "type": "Feature",
      "properties": {
        "type": "new_stop",
        "stop_code": "26140",
        "stop_name": "קריניצי/ביאליק",
        "marker-color": "#1f9ed6",
        "marker-symbol": "bus",
        "marker-size": "medium"
      },
      "geometry": {
        "type": "Point",
        "coordinates": [
          34.815753,
          32.079296
        ]
      }
    },
    {
      "type": "Feature",
      "properties": {
        "type": "new_stop",
        "stop_code": "26331",
        "stop_name": "קריניצי/הרצל",
        "marker-color": "#1f9ed6",
        "marker-symbol": "bus",
        "marker-size": "medium"
      },
      "geometry": {
        "type": "Point",
        "coordinates": [
          34.818167,
          32.080537
        ]
      }
    },
    {
      "type": "Feature",
      "properties": {
        "type": "new_stop",
        "stop_code": "22936",
        "stop_name": "בן גוריון/ הרצל",
        "marker-color": "#1f9ed6",
        "marker-symbol": "bus",
        "marker-size": "medium"
      },
      "geometry": {
        "type": "Point",
        "coordinates": [
          34.81974,
          32.079852
        ]
      }
    },
    {
      "type": "Feature",
      "properties": {
        "type": "new_stop",
        "stop_code": "26202",
        "stop_name": "בן גוריון/המעגל",
        "marker-color": "#1f9ed6",
        "marker-symbol": "bus",
        "marker-size": "medium"
      },
      "geometry": {
        "type": "Point",
        "coordinates": [
          34.8188,
          32.076432
        ]
      }
    },
    {
      "type": "Feature",
      "properties": {
        "type": "reported_block_stop",
        "stop_code": "26135",
        "stop_name": "כצנלסון/סירקין",
        "marker-color": "#ff8800",
        "marker-symbol": "bus",
        "marker-size": "medium"
      },
      "geometry": {
        "type": "Point",
        "coordinates": [
          34.815073,
          32.076926
        ]
      }
    },
    {
      "type": "Feature",
      "properties": {
        "type": "reported_block_stop",
        "stop_code": "26196",
        "stop_name": "כצנלסון/דרך בן גוריון",
        "marker-color": "#ff8800",
        "marker-symbol": "bus",
        "marker-size": "medium"
      },
      "geometry": {
        "type": "Point",
        "coordinates": [
          34.8175,
          32.07533
        ]
      }
    },
    {
      "type": "Feature",
      "properties": {
        "type": "deviate_from_stop",
        "stop_code": "26274",
        "stop_name": "ביאליק/השוטרת",
        "marker-color": "#8000ff",
        "marker-symbol": "bus",
        "marker-size": "medium"
      },
      "geometry": {
        "type": "Point",
        "coordinates": [
          34.814843,
          32.081044
        ]
      }
    },
    {
      "type": "Feature",
      "properties": {
        "type": "deviate_to_stop",
        "stop_code": "26198",
        "stop_name": "דרך בן גוריון/שד' ירושלים",
        "marker-color": "#8000ff",
        "marker-symbol": "bus",
        "marker-size": "medium"
      },
      "geometry": {
        "type": "Point",
        "coordinates": [
          34.818298,
          32.07396
        ]
      }
    }
  ]
}