{
  "type": "FeatureCollection",
  "features": [
    {
      "type": "Feature",
      "properties": {
        "type": "deviation_path_edge",
        "from_stop_code": "33090",
        "to_stop_code": "36256",
        "stroke": "#00bcd4",
        "stroke-width": 3,
        "stroke-opacity": 0.95
      },
      "geometry": {
        "type": "LineString",
        "coordinates": [
          [
            34.758770837894275,
            32.02049631829542
          ],
          [
            34.758735,
            32.020549
          ],
          [
            34.758538,
            32.020768
          ],
          [
            34.758432,
            32.020885
          ],
          [
            34.75813,
            32.021149
          ],
          [
            34.75774,
            32.02139
          ],
          [
            34.75746,
            32.021518
          ],
          [
            34.757154,
            32.021634
          ],
          [
            34.756568,
            32.021791
          ],
          [
            34.755987,
            32.02189
          ],
          [
            34.754529,
            32.021922
          ],
          [
            34.754559262886765,
            32.02248881569003
          ]
        ]
      }
    },
    {
      "type": "Feature",
      "properties": {
        "type": "deviation_path_edge",
        "from_stop_code": "36256",
        "to_stop_code": "36251",
        "stroke": "#00bcd4",
        "stroke-width": 3,
        "stroke-opacity": 0.95
      },
      "geometry": {
        "type": "LineString",
        "coordinates": [
          [
            34.754559262886765,
            32.02248881569003
          ],
          [
            34.754566,
            32.022615
          ],
          [
            34.754578,
            32.022879
          ],
          [
            34.754589,
            32.023305
          ],
          [
            34.754597,
            32.023504
          ],
          [
            34.754574,
            32.024028
          ],
          [
            34.75457,
            32.024134
          ],
          [
            34.754559,
            32.024669
          ],
          [
            34.754559,
            32.024784
          ],
          [
            34.75456,
            32.025087
          ],
          [
            34.754534,
            32.025276
          ],
          [
            34.754471,
            32.025439
          ],
          [
            34.754389,
            32.025564
          ],
          [
            34.754295,
            32.025661
          ],
          [
            34.754266,
            32.025679
          ],
          [
            34.754153,
            32.025753
          ],
          [
            34.753963,
            32.02581
          ],
          [
            34.753082,
            32.025819
          ],
          [
            34.752986,
            32.02582
          ],
          [
            34.75276124747396,
            32.02581379741406
          ]
        ]
      }
    },
    {
      "type": "Feature",
      "properties": {
        "type": "deviation_path_edge",
        "from_stop_code": "36251",
        "to_stop_code": "36225",
        "stroke": "#00bcd4",
        "stroke-width": 3,
        "stroke-opacity": 0.95
      },
      "geometry": {
        "type": "LineString",
        "coordinates": [
          [
            34.75276124747396,
            32.02581379741406
          ],
          [
            34.75237,
            32.025803
          ],
          [
            34.75217,
            32.025788
          ],
          [
            34.751662,
            32.025816
          ],
          [
            34.750521,
            32.025868
          ],
          [
            34.750241,
            32.025881
          ],
          [
            34.74965041246451,
            32.025914835744224
          ]
        ]
      }
    },
    {
      "type": "Feature",
      "properties": {
        "type": "deviation_path_edge",
        "from_stop_code": "36225",
        "to_stop_code": "34754",
        "stroke": "#00bcd4",
        "stroke-width": 3,
        "stroke-opacity": 0.95
      },
      "geometry": {
        "type": "LineString",
        "coordinates": [
          [
            34.74965041246451,
            32.025914835744224
          ],
          [
            34.749281,
            32.025936
          ],
          [
            34.749138,
            32.025943
          ],
          [
            34.748835,
            32.025959
          ],
          [
            34.748601,
            32.025967
          ],
          [
            34.74832,
            32.025985
          ],
          [
            34.748245,
            32.025987
          ],
          [
            34.748161,
            32.025996
          ],
          [
            34.748083,
            32.026004
          ],
          [
            34.747959,
            32.026016
          ],
          [
            34.747391,
            32.026037
          ],
          [
            34.747114,
            32.026027
          ],
          [
            34.746913,
            32.026011
          ],
          [
            34.74685238,
            32.02600234
          ]
        ]
      }
    },
    {
      "type": "Feature",
      "properties": {
        "type": "original_route_shape",
        "shape_id": "164890",
        "stroke": "#1f2a7a",
        "stroke-width": 3,
        "stroke-opacity": 0.85
      },
      "geometry": {
        "type": "LineString",
        "coordinates": [
          [
            34.805130584601855,
            32.020820157214416
          ],
          [
            34.804951,
            32.020688
          ],
          [
            34.804931,
            32.020671
          ],
          [
            34.804524,
            32.02034
          ],
          [
            34.804477,
            32.020302
          ],
          [
            34.804389,
            32.020235
          ],
          [
            34.804123,
            32.020016
          ],
          [
            34.804042,
            32.019949
          ],
          [
            34.803747,
            32.01971
          ],
          [
            34.803653,
            32.019634
          ],
          [
            34.803339,
            32.019398
          ],
          [
            34.803174,
            32.019273
          ],
          [
            34.802972,
            32.019111
          ],
          [
            34.802756,
            32.018939
          ],
          [
            34.80248,
            32.018673
          ],
          [
            34.802324,
            32.018525
          ],
          [
            34.80224,
            32.018417
          ],
          [
            34.802198,
            32.018363
          ],
          [
            34.802021,
            32.018095
          ],
          [
            34.801964,
            32.017922
          ],
          [
            34.801957,
            32.017897
          ],
          [
            34.801838,
            32.017474
          ],
          [
            34.801724,
            32.017225
          ],
          [
            34.801572,
            32.016983
          ],
          [
            34.801456,
            32.016796
          ],
          [
            34.80134,
            32.01666
          ],
          [
            34.800913,
            32.016162
          ],
          [
            34.800772,
            32.016055
          ],
          [
            34.800399,
            32.015841
          ],
          [
            34.80032,
            32.015829
          ],
          [
            34.800241,
            32.015838
          ],
          [
            34.800178,
            32.015851
          ],
          [
            34.799797,
            32.016053
          ],
          [
            34.799434,
            32.016297
          ],
          [
            34.799346,
            32.016382
          ],
          [
            34.79932,
            32.016403
          ],
          [
            34.799038,
            32.016632
          ],
          [
            34.798607,
            32.01698
          ],
          [
            34.798337,
            32.017198
          ],
          [
            34.798195,
            32.017003
          ],
          [
            34.798063,
            32.01682
          ],
          [
            34.797405,
            32.017023
          ],
          [
            34.797351,
            32.017041
          ],
          [
            34.797105,
            32.017113
          ],
          [
            34.796794,
            32.017205
          ],
          [
            34.796252,
            32.017335
          ],
          [
            34.796193,
            32.017345
          ],
          [
            34.796048,
            32.017375
          ],
          [
            34.79595,
            32.017395
          ],
          [
            34.795578,
            32.017471
          ],
          [
            34.795315,
            32.016826
          ],
          [
            34.79521,
            32.01657
          ],
          [
            34.795068,
            32.016326
          ],
          [
            34.794967,
            32.016188
          ],
          [
            34.794849,
            32.016066
          ],
          [
            34.794683,
            32.015934
          ],
          [
            34.794402,
            32.015734
          ],
          [
            34.794167,
            32.015599
          ],
          [
            34.793801,
            32.015477
          ],
          [
            34.793234,
            32.015379
          ],
          [
            34.793,
            32.015372
          ],
          [
            34.792827,
            32.015383
          ],
          [
            34.79268,
            32.015392
          ],
          [
            34.792471,
            32.015428
          ],
          [
            34.792182,
            32.01554
          ],
          [
            34.791776,
            32.015732
          ],
          [
            34.791479,
            32.015903
          ],
          [
            34.791252,
            32.016125
          ],
          [
            34.790999,
            32.016451
          ],
          [
            34.790873,
            32.016719
          ],
          [
            34.790808,
            32.016958
          ],
          [
            34.790792,
            32.016992
          ],
          [
            34.790662,
            32.017456
          ],
          [
            34.790515,
            32.017944
          ],
          [
            34.790484,
            32.018128
          ],
          [
            34.790486,
            32.018157
          ],
          [
            34.790495,
            32.018195
          ],
          [
            34.790571,
            32.018258
          ],
          [
            34.790581,
            32.018287
          ],
          [
            34.790583,
            32.018311
          ],
          [
            34.790578,
            32.01834
          ],
          [
            34.790549,
            32.018376
          ],
          [
            34.790464,
            32.018432
          ],
          [
            34.790447,
            32.018448
          ],
          [
            34.790435,
            32.018459
          ],
          [
            34.790392,
            32.018517
          ],
          [
            34.790257,
            32.018738
          ],
          [
            34.790061,
            32.019113
          ],
          [
            34.789971,
            32.019264
          ],
          [
            34.789907,
            32.019305
          ],
          [
            34.789442,
            32.019123
          ],
          [
            34.789144,
            32.019
          ],
          [
            34.789103,
            32.018983
          ],
          [
            34.788812,
            32.018863
          ],
          [
            34.788469,
            32.018727
          ],
          [
            34.788319,
            32.018671
          ],
          [
            34.788295,
            32.018661
          ],
          [
            34.78819,
            32.018617
          ],
          [
            34.78813,
            32.018572
          ],
          [
            34.787932,
            32.018388
          ],
          [
            34.78783,
            32.0183
          ],
          [
            34.787728,
            32.018183
          ],
          [
            34.787536,
            32.018079
          ],
          [
            34.787266,
            32.017959
          ],
          [
            34.787146,
            32.017905
          ],
          [
            34.787088,
            32.017877
          ],
          [
            34.786898,
            32.017772
          ],
          [
            34.786428,
            32.017474
          ],
          [
            34.786227,
            32.017346
          ],
          [
            34.786157,
            32.017299
          ],
          [
            34.785947,
            32.017156
          ],
          [
            34.785701,
            32.016989
          ],
          [
            34.785455,
            32.016798
          ],
          [
            34.785369,
            32.016727
          ],
          [
            34.785229,
            32.016612
          ],
          [
            34.785163,
            32.016551
          ],
          [
            34.785038,
            32.016437
          ],
          [
            34.784986,
            32.01639
          ],
          [
            34.784671,
            32.016079
          ],
          [
            34.784572,
            32.015973
          ],
          [
            34.784338,
            32.015721
          ],
          [
            34.784152,
            32.015521
          ],
          [
            34.783505,
            32.015949
          ],
          [
            34.783423,
            32.016003
          ],
          [
            34.783042,
            32.016259
          ],
          [
            34.782749,
            32.016449
          ],
          [
            34.782531,
            32.01659
          ],
          [
            34.782217,
            32.016762
          ],
          [
            34.782155,
            32.016796
          ],
          [
            34.781942,
            32.016886
          ],
          [
            34.781767,
            32.016939
          ],
          [
            34.781436,
            32.017025
          ],
          [
            34.781113,
            32.017066
          ],
          [
            34.780782,
            32.017108
          ],
          [
            34.780128,
            32.017202
          ],
          [
            34.77962,
            32.017245
          ],
          [
            34.779333,
            32.017269
          ],
          [
            34.778655,
            32.017317
          ],
          [
            34.778658,
            32.017349
          ],
          [
            34.778665,
            32.017561
          ],
          [
            34.778682,
            32.017915
          ],
          [
            34.778683,
            32.01794
          ],
          [
            34.778696,
            32.018147
          ],
          [
            34.77871,
            32.018382
          ],
          [
            34.778726,
            32.018674
          ],
          [
            34.778743,
            32.018957
          ],
          [
            34.778748,
            32.019006
          ],
          [
            34.778771,
            32.019209
          ],
          [
            34.778772,
            32.019231
          ],
          [
            34.778777,
            32.019397
          ],
          [
            34.778787,
            32.019591
          ],
          [
            34.778793,
            32.019647
          ],
          [
            34.778809,
            32.019703
          ],
          [
            34.77883,
            32.019754
          ],
          [
            34.778844,
            32.019755
          ],
          [
            34.778859,
            32.019757
          ],
          [
            34.778875,
            32.01976
          ],
          [
            34.778889,
            32.019766
          ],
          [
            34.778903,
            32.019773
          ],
          [
            34.778916,
            32.019781
          ],
          [
            34.778927,
            32.019791
          ],
          [
            34.778942,
            32.019808
          ],
          [
            34.778949,
            32.019821
          ],
          [
            34.778955,
            32.019834
          ],
          [
            34.778959,
            32.019848
          ],
          [
            34.778961,
            32.019862
          ],
          [
            34.77896,
            32.019879
          ],
          [
            34.778958,
            32.01989
          ],
          [
            34.778954,
            32.019904
          ],
          [
            34.778949,
            32.019917
          ],
          [
            34.778941,
            32.01993
          ],
          [
            34.778926,
            32.019947
          ],
          [
            34.778915,
            32.019956
          ],
          [
            34.778902,
            32.019965
          ],
          [
            34.778881,
            32.019975
          ],
          [
            34.778861,
            32.01998
          ],
          [
            34.77885,
            32.019982
          ],
          [
            34.778827,
            32.019983
          ],
          [
            34.778811,
            32.019981
          ],
          [
            34.778798,
            32.019979
          ],
          [
            34.778781,
            32.019973
          ],
          [
            34.778773,
            32.019969
          ],
          [
            34.778767,
            32.019966
          ],
          [
            34.778754,
            32.019958
          ],
          [
            34.778736,
            32.019943
          ],
          [
            34.778729,
            32.019935
          ],
          [
            34.777967,
            32.019956
          ],
          [
            34.777927,
            32.019958
          ],
          [
            34.777731,
            32.019963
          ],
          [
            34.777492,
            32.01994
          ],
          [
            34.775966,
            32.020032
          ],
          [
            34.775883,
            32.020035
          ],
          [
            34.774963,
            32.020076
          ],
          [
            34.774154,
            32.020112
          ],
          [
            34.773956,
            32.020121
          ],
          [
            34.773712,
            32.020129
          ],
          [
            34.773304,
            32.020143
          ],
          [
            34.77311,
            32.020149
          ],
          [
            34.77292,
            32.020156
          ],
          [
            34.772334,
            32.020184
          ],
          [
            34.772085,
            32.020196
          ],
          [
            34.771793,
            32.02021
          ],
          [
            34.771352,
            32.020231
          ],
          [
            34.771259,
            32.020231
          ],
          [
            34.771041,
            32.019843
          ],
          [
            34.771004,
            32.019778
          ],
          [
            34.770864,
            32.019354
          ],
          [
            34.770859,
            32.019322
          ],
          [
            34.770811,
            32.019046
          ],
          [
            34.770682,
            32.018458
          ],
          [
            34.770662,
            32.018364
          ],
          [
            34.770608,
            32.018101
          ],
          [
            34.769913,
            32.018197
          ],
          [
            34.769817,
            32.01821
          ],
          [
            34.769092,
            32.018305
          ],
          [
            34.768944,
            32.018324
          ],
          [
            34.768642,
            32.018351
          ],
          [
            34.768146,
            32.018397
          ],
          [
            34.768135,
            32.018398
          ],
          [
            34.767383,
            32.018463
          ],
          [
            34.767282,
            32.018467
          ],
          [
            34.766666,
            32.018497
          ],
          [
            34.766502,
            32.018491
          ],
          [
            34.765675,
            32.018568
          ],
          [
            34.765405,
            32.018615
          ],
          [
            34.765364,
            32.018619
          ],
          [
            34.765018,
            32.018647
          ],
          [
            34.764922,
            32.01865
          ],
          [
            34.76483,
            32.018652
          ],
          [
            34.764825,
            32.018578
          ],
          [
            34.764822,
            32.018555
          ],
          [
            34.764811,
            32.018203
          ],
          [
            34.764811,
            32.0182
          ],
          [
            34.764817,
            32.017732
          ],
          [
            34.764823,
            32.017593
          ],
          [
            34.764825,
            32.017546
          ],
          [
            34.764821,
            32.017205
          ],
          [
            34.764887,
            32.016471
          ],
          [
            34.764882,
            32.016257
          ],
          [
            34.764875,
            32.015983
          ],
          [
            34.764875,
            32.01589
          ],
          [
            34.764886,
            32.014872
          ],
          [
            34.764887,
            32.014753
          ],
          [
            34.76478,
            32.014646
          ],
          [
            34.764724,
            32.014625
          ],
          [
            34.764659,
            32.014617
          ],
          [
            34.764495,
            32.014614
          ],
          [
            34.764368,
            32.014611
          ],
          [
            34.76366,
            32.014778
          ],
          [
            34.763497,
            32.014816
          ],
          [
            34.763356,
            32.014854
          ],
          [
            34.762448,
            32.015078
          ],
          [
            34.762258,
            32.015123
          ],
          [
            34.76206,
            32.015168
          ],
          [
            34.761825,
            32.015218
          ],
          [
            34.761706,
            32.015234
          ],
          [
            34.761213,
            32.015298
          ],
          [
            34.761044,
            32.01533
          ],
          [
            34.760801,
            32.015381
          ],
          [
            34.759813,
            32.01559
          ],
          [
            34.759608,
            32.015663
          ],
          [
            34.759547,
            32.015697
          ],
          [
            34.759499,
            32.015751
          ],
          [
            34.759389,
            32.01592
          ],
          [
            34.759349,
            32.016205
          ],
          [
            34.759355,
            32.016287
          ],
          [
            34.759336,
            32.01672
          ],
          [
            34.759318,
            32.017122
          ],
          [
            34.759299,
            32.017474
          ],
          [
            34.759256,
            32.018119
          ],
          [
            34.759249,
            32.018306
          ],
          [
            34.759235,
            32.018665
          ],
          [
            34.759226,
            32.01901
          ],
          [
            34.759222,
            32.019148
          ],
          [
            34.759173,
            32.019548
          ],
          [
            34.759124,
            32.019776
          ],
          [
            34.759115,
            32.019813
          ],
          [
            34.75898,
            32.02013
          ],
          [
            34.758941,
            32.02022
          ],
          [
            34.758882,
            32.020321
          ],
          [
            34.758835,
            32.020402
          ],
          [
            34.758735,
            32.020549
          ],
          [
            34.758538,
            32.020768
          ],
          [
            34.758432,
            32.020885
          ],
          [
            34.75813,
            32.021149
          ],
          [
            34.75774,
            32.02139
          ],
          [
            34.75746,
            32.021518
          ],
          [
            34.757383,
            32.021547
          ],
          [
            34.757154,
            32.021634
          ],
          [
            34.756568,
            32.021791
          ],
          [
            34.755987,
            32.02189
          ],
          [
            34.755139,
            32.021909
          ],
          [
            34.754529,
            32.021922
          ],
          [
            34.753554,
            32.021958
          ],
          [
            34.75314,
            32.02197
          ],
          [
            34.752892,
            32.021977
          ],
          [
            34.75253,
            32.021988
          ],
          [
            34.751884,
            32.022001
          ],
          [
            34.751195,
            32.021985
          ],
          [
            34.750551,
            32.022025
          ],
          [
            34.750081,
            32.022055
          ],
          [
            34.749761,
            32.022065
          ],
          [
            34.749256,
            32.022084
          ],
          [
            34.749151,
            32.022092
          ],
          [
            34.748989,
            32.022102
          ],
          [
            34.748924,
            32.022111
          ],
          [
            34.748816,
            32.022126
          ],
          [
            34.748662,
            32.022174
          ],
          [
            34.748468,
            32.022275
          ],
          [
            34.748464,
            32.022277
          ],
          [
            34.747544,
            32.022928
          ],
          [
            34.747541,
            32.02293
          ],
          [
            34.747225,
            32.023174
          ],
          [
            34.747105,
            32.023254
          ],
          [
            34.74725,
            32.023446
          ],
          [
            34.747409,
            32.023656
          ],
          [
            34.747584,
            32.023965
          ],
          [
            34.74776,
            32.024352
          ],
          [
            34.747929,
            32.024948
          ],
          [
            34.748245,
            32.025987
          ],
          [
            34.748161,
            32.025996
          ],
          [
            34.748083,
            32.026004
          ],
          [
            34.747959,
            32.026016
          ],
          [
            34.747391,
            32.026037
          ],
          [
            34.747114,
            32.026027
          ],
          [
            34.746913,
            32.026011
          ],
          [
            34.746682,
            32.025978
          ],
          [
            34.746284,
            32.025885
          ],
          [
            34.745845,
            32.025727
          ],
          [
            34.745491,
            32.025565
          ],
          [
            34.745379,
            32.025552
          ],
          [
            34.745349,
            32.025556
          ],
          [
            34.745266,
            32.025603
          ],
          [
            34.745207,
            32.025652
          ],
          [
            34.745154,
            32.025733
          ],
          [
            34.745147,
            32.026206
          ],
          [
            34.745145,
            32.026319
          ],
          [
            34.745144,
            32.026418
          ],
          [
            34.745157,
            32.026612
          ],
          [
            34.745169,
            32.026708
          ],
          [
            34.745213,
            32.0268
          ],
          [
            34.745146,
            32.026793
          ],
          [
            34.744312,
            32.026735
          ],
          [
            34.744227,
            32.026729
          ],
          [
            34.743607,
            32.026713
          ],
          [
            34.743317,
            32.026709
          ],
          [
            34.743249,
            32.026708
          ],
          [
            34.743092,
            32.02668
          ],
          [
            34.742722,
            32.026624
          ],
          [
            34.7421,
            32.02657
          ],
          [
            34.741976,
            32.026567
          ],
          [
            34.741347,
            32.026569
          ],
          [
            34.741347,
            32.026575
          ],
          [
            34.741346,
            32.026589
          ],
          [
            34.741343,
            32.026598
          ],
          [
            34.741336,
            32.02661
          ],
          [
            34.741331,
            32.026618
          ],
          [
            34.74132,
            32.026629
          ],
          [
            34.741312,
            32.026635
          ],
          [
            34.741302,
            32.02664
          ],
          [
            34.741287,
            32.026645
          ],
          [
            34.741272,
            32.026648
          ],
          [
            34.741257,
            32.026649
          ],
          [
            34.741244,
            32.026648
          ],
          [
            34.741229,
            32.026644
          ],
          [
            34.741214,
            32.026638
          ],
          [
            34.741205,
            32.026633
          ],
          [
            34.741193,
            32.026623
          ],
          [
            34.741187,
            32.026616
          ],
          [
            34.741181,
            32.026608
          ],
          [
            34.741175,
            32.026595
          ],
          [
            34.741173,
            32.026586
          ],
          [
            34.741172,
            32.026572
          ],
          [
            34.741173,
            32.026563
          ],
          [
            34.741177,
            32.026549
          ],
          [
            34.741184,
            32.026536
          ],
          [
            34.74119,
            32.026529
          ],
          [
            34.741202,
            32.026519
          ],
          [
            34.741213,
            32.026511
          ],
          [
            34.74111,
            32.02626
          ],
          [
            34.741077,
            32.02616
          ],
          [
            34.740725,
            32.024997
          ],
          [
            34.740697,
            32.024762
          ],
          [
            34.740698,
            32.024701
          ],
          [
            34.740682,
            32.024702
          ],
          [
            34.740671,
            32.024701
          ],
          [
            34.740656,
            32.024697
          ],
          [
            34.740643,
            32.024693
          ],
          [
            34.740633,
            32.024688
          ],
          [
            34.740624,
            32.024682
          ],
          [
            34.740616,
            32.024674
          ],
          [
            34.740609,
            32.024667
          ],
          [
            34.740601,
            32.024654
          ],
          [
            34.740597,
            32.024644
          ],
          [
            34.740595,
            32.024635
          ],
          [
            34.740594,
            32.02462
          ],
          [
            34.740595,
            32.02461
          ],
          [
            34.740597,
            32.0246
          ],
          [
            34.740601,
            32.024591
          ],
          [
            34.740607,
            32.024582
          ],
          [
            34.740613,
            32.024574
          ],
          [
            34.740621,
            32.024567
          ],
          [
            34.740631,
            32.024559
          ],
          [
            34.740442,
            32.02427
          ],
          [
            34.740379,
            32.024174
          ],
          [
            34.740124,
            32.023715
          ],
          [
            34.739829,
            32.023184
          ],
          [
            34.739756,
            32.023061
          ],
          [
            34.73965,
            32.022799
          ],
          [
            34.739557,
            32.022241
          ],
          [
            34.739498,
            32.021891
          ],
          [
            34.739424,
            32.021469
          ],
          [
            34.739398,
            32.021321
          ],
          [
            34.739351,
            32.021046
          ],
          [
            34.739314,
            32.020816
          ],
          [
            34.739182,
            32.0201
          ],
          [
            34.739029,
            32.019268
          ],
          [
            34.739021,
            32.019206
          ],
          [
            34.739023,
            32.019018
          ],
          [
            34.739007,
            32.019018
          ],
          [
            34.738989,
            32.019014
          ],
          [
            34.738972,
            32.019008
          ],
          [
            34.738961,
            32.019002
          ],
          [
            34.738951,
            32.018995
          ],
          [
            34.738939,
            32.018983
          ],
          [
            34.738932,
            32.018974
          ],
          [
            34.738924,
            32.018959
          ],
          [
            34.738919,
            32.018944
          ],
          [
            34.738918,
            32.018933
          ],
          [
            34.738919,
            32.018922
          ],
          [
            34.738922,
            32.018906
          ],
          [
            34.738927,
            32.018895
          ],
          [
            34.738936,
            32.018881
          ],
          [
            34.738943,
            32.018872
          ],
          [
            34.738954,
            32.018863
          ],
          [
            34.738967,
            32.018855
          ],
          [
            34.738978,
            32.01885
          ],
          [
            34.738996,
            32.018845
          ],
          [
            34.739008,
            32.018843
          ],
          [
            34.739021,
            32.018842
          ],
          [
            34.739033,
            32.018843
          ],
          [
            34.739051,
            32.018847
          ],
          [
            34.739063,
            32.018851
          ],
          [
            34.739074,
            32.018857
          ],
          [
            34.739084,
            32.018863
          ],
          [
            34.739093,
            32.018871
          ],
          [
            34.739102,
            32.018881
          ],
          [
            34.739209,
            32.018889
          ],
          [
            34.739402,
            32.01891
          ],
          [
            34.739737,
            32.018957
          ],
          [
            34.740369,
            32.019047
          ],
          [
            34.740376,
            32.019036
          ],
          [
            34.740382,
            32.019027
          ],
          [
            34.740395,
            32.019015
          ],
          [
            34.740405,
            32.019008
          ],
          [
            34.740416,
            32.019003
          ],
          [
            34.740427,
            32.018998
          ],
          [
            34.740439,
            32.018995
          ],
          [
            34.740455,
            32.018993
          ],
          [
            34.74047,
            32.018993
          ],
          [
            34.740489,
            32.018996
          ],
          [
            34.740506,
            32.019002
          ],
          [
            34.740517,
            32.019007
          ],
          [
            34.740532,
            32.019017
          ],
          [
            34.74054,
            32.019025
          ],
          [
            34.740548,
            32.019034
          ],
          [
            34.740555,
            32.019046
          ],
          [
            34.741227,
            32.019087
          ],
          [
            34.741674,
            32.019097
          ],
          [
            34.741738,
            32.019094
          ],
          [
            34.7419,
            32.019086
          ],
          [
            34.742064,
            32.019051
          ],
          [
            34.742224,
            32.018989
          ],
          [
            34.742313,
            32.018954
          ],
          [
            34.742857,
            32.018668
          ],
          [
            34.742859,
            32.018656
          ],
          [
            34.742862,
            32.018645
          ],
          [
            34.742866,
            32.018634
          ],
          [
            34.742876,
            32.018619
          ],
          [
            34.742884,
            32.01861
          ],
          [
            34.742893,
            32.018602
          ],
          [
            34.742904,
            32.018595
          ],
          [
            34.742919,
            32.018588
          ],
          [
            34.74294,
            32.018582
          ],
          [
            34.742959,
            32.018579
          ],
          [
            34.742979,
            32.01858
          ],
          [
            34.742995,
            32.018583
          ],
          [
            34.743218,
            32.018401
          ],
          [
            34.743609,
            32.018132
          ],
          [
            34.743687,
            32.018079
          ],
          [
            34.743837,
            32.01797
          ],
          [
            34.744342,
            32.017604
          ],
          [
            34.744887,
            32.017278
          ],
          [
            34.745002,
            32.017174
          ],
          [
            34.745012,
            32.017161
          ],
          [
            34.745021,
            32.017132
          ],
          [
            34.745025,
            32.017088
          ],
          [
            34.74502,
            32.01706
          ],
          [
            34.744958,
            32.016917
          ],
          [
            34.744569,
            32.016505
          ],
          [
            34.744538,
            32.016469
          ],
          [
            34.744404,
            32.016324
          ],
          [
            34.743992,
            32.015842
          ],
          [
            34.743834,
            32.015655
          ],
          [
            34.743542,
            32.015334
          ],
          [
            34.743411,
            32.015189
          ],
          [
            34.743263,
            32.015024
          ],
          [
            34.743113,
            32.01489
          ],
          [
            34.743017,
            32.014784
          ],
          [
            34.742861,
            32.014611
          ],
          [
            34.742717,
            32.014421
          ],
          [
            34.742659,
            32.014344
          ],
          [
            34.742487,
            32.014048
          ],
          [
            34.742389,
            32.013753
          ],
          [
            34.742313,
            32.013613
          ],
          [
            34.742123,
            32.01271
          ],
          [
            34.741956,
            32.011882
          ],
          [
            34.741914,
            32.011674
          ],
          [
            34.741882,
            32.011447
          ],
          [
            34.74176,
            32.011263
          ],
          [
            34.741723,
            32.011234
          ],
          [
            34.741686,
            32.011218
          ],
          [
            34.741609,
            32.011192
          ],
          [
            34.740161,
            32.011397
          ],
          [
            34.739771,
            32.011427
          ],
          [
            34.739234,
            32.011446
          ],
          [
            34.73889,
            32.011376
          ],
          [
            34.738744,
            32.011385
          ],
          [
            34.738744,
            32.011298
          ],
          [
            34.738767,
            32.010747
          ],
          [
            34.738815,
            32.010444
          ],
          [
            34.738856,
            32.010232
          ],
          [
            34.738904,
            32.010018
          ],
          [
            34.738995,
            32.009758
          ],
          [
            34.739092,
            32.009514
          ],
          [
            34.739236,
            32.009151
          ],
          [
            34.739439,
            32.008827
          ],
          [
            34.739503,
            32.008737
          ],
          [
            34.739689,
            32.008478
          ],
          [
            34.739812,
            32.008319
          ],
          [
            34.739903,
            32.008232
          ],
          [
            34.739913,
            32.008222
          ],
          [
            34.740076,
            32.008047
          ],
          [
            34.740311,
            32.007849
          ],
          [
            34.740805,
            32.007445
          ],
          [
            34.741033,
            32.007259
          ],
          [
            34.741098,
            32.007205
          ],
          [
            34.741253,
            32.007075
          ],
          [
            34.741287,
            32.007046
          ],
          [
            34.742494,
            32.006081
          ],
          [
            34.74269,
            32.005961
          ],
          [
            34.742826,
            32.005877
          ],
          [
            34.743316,
            32.005618
          ],
          [
            34.744117,
            32.005293
          ],
          [
            34.744511,
            32.005137
          ],
          [
            34.745004,
            32.004941
          ],
          [
            34.745565,
            32.004703
          ],
          [
            34.745808,
            32.0046
          ],
          [
            34.746159,
            32.004465
          ],
          [
            34.747433,
            32.003956
          ],
          [
            34.747768,
            32.003849
          ],
          [
            34.747954,
            32.003769
          ],
          [
            34.748209,
            32.003655
          ],
          [
            34.748476,
            32.003536
          ],
          [
            34.749479,
            32.003166
          ],
          [
            34.749773,
            32.00307
          ],
          [
            34.749955,
            32.003011
          ],
          [
            34.750156,
            32.002966
          ],
          [
            34.750426,
            32.002918
          ],
          [
            34.751129,
            32.002807
          ],
          [
            34.751878,
            32.002708
          ],
          [
            34.752043,
            32.002676
          ],
          [
            34.753112,
            32.002469
          ],
          [
            34.753214,
            32.002452
          ],
          [
            34.75323,
            32.002448
          ],
          [
            34.753472,
            32.00239
          ],
          [
            34.754847,
            32.002058
          ],
          [
            34.755228,
            32.001967
          ],
          [
            34.755315,
            32.001949
          ],
          [
            34.755676,
            32.001878
          ],
          [
            34.755971,
            32.001822
          ],
          [
            34.75705,
            32.00162
          ],
          [
            34.758096,
            32.001455
          ],
          [
            34.758251,
            32.001431
          ],
          [
            34.759018,
            32.001323
          ],
          [
            34.759122,
            32.00131
          ],
          [
            34.759257,
            32.001296
          ],
          [
            34.759662,
            32.001255
          ],
          [
            34.759806,
            32.001241
          ],
          [
            34.7599,
            32.001231
          ],
          [
            34.760171,
            32.001204
          ],
          [
            34.760571,
            32.001163
          ],
          [
            34.761014,
            32.00114
          ],
          [
            34.761762,
            32.001095
          ],
          [
            34.762838,
            32.001048
          ],
          [
            34.763093,
            32.000989
          ],
          [
            34.76359,
            32.000958
          ],
          [
            34.763627,
            32.00095
          ],
          [
            34.763659,
            32.00093
          ],
          [
            34.763698,
            32.000897
          ],
          [
            34.763713,
            32.000882
          ],
          [
            34.763751,
            32.000843
          ],
          [
            34.763773,
            32.000804
          ],
          [
            34.763791,
            32.000739
          ],
          [
            34.763792,
            32.000737
          ],
          [
            34.763784,
            32.000589
          ],
          [
            34.763778,
            32.000498
          ],
          [
            34.763686,
            32.000269
          ],
          [
            34.763667,
            32.000212
          ],
          [
            34.763652047694755,
            32.00015140381558
          ]
        ]
      }
    },
    {
      "type": "Feature",
      "properties": {
        "type": "original_route_stop",
        "stop_code": "33765",
        "stop_name": "המלאכה/השבעה",
        "marker-color": "#2ca02c",
        "marker-symbol": "bus",
        "marker-size": "medium"
      },
      "geometry": {
        "type": "Point",
        "coordinates": [
          34.805102,
          32.020859
        ]
      }
    },
    {
      "type": "Feature",
      "properties": {
        "type": "original_route_stop",
        "stop_code": "37609",
        "stop_name": "המלאכה/הפלד",
        "marker-color": "#2ca02c",
        "marker-symbol": "bus",
        "marker-size": "medium"
      },
      "geometry": {
        "type": "Point",
        "coordinates": [
          34.803092,
          32.019269
        ]
      }
    },
    {
      "type": "Feature",
      "properties": {
        "type": "original_route_stop",
        "stop_code": "36420",
        "stop_name": "פרימיום סנטר/המלאכה",
        "marker-color": "#2ca02c",
        "marker-symbol": "bus",
        "marker-size": "medium"
      },
      "geometry": {
        "type": "Point",
        "coordinates": [
          34.801202,
          32.016577
        ]
      }
    },
    {
      "type": "Feature",
      "properties": {
        "type": "original_route_stop",
        "stop_code": "35869",
        "stop_name": "הנחושת/המלאכה",
        "marker-color": "#2ca02c",
        "marker-symbol": "bus",
        "marker-size": "medium"
      },
      "geometry": {
        "type": "Point",
        "coordinates": [
          34.79973,
          32.016155
        ]
      }
    },
    {
      "type": "Feature",
      "properties": {
        "type": "original_route_stop",
        "stop_code": "33757",
        "stop_name": "ירמיהו/השופטים",
        "marker-color": "#2ca02c",
        "marker-symbol": "bus",
        "marker-size": "medium"
      },
      "geometry": {
        "type": "Point",
        "coordinates": [
          34.797584,
          32.017015
        ]
      }
    },
    {
      "type": "Feature",
      "properties": {
        "type": "original_route_stop",
        "stop_code": "33758",
        "stop_name": "הנביאים/ירמיהו",
        "marker-color": "#2ca02c",
        "marker-symbol": "bus",
        "marker-size": "medium"
      },
      "geometry": {
        "type": "Point",
        "coordinates": [
          34.79521,
          32.016708
        ]
      }
    },
    {
      "type": "Feature",
      "properties": {
        "type": "original_route_stop",
        "stop_code": "33750",
        "stop_name": "הנביאים/בצלאל",
        "marker-color": "#2ca02c",
        "marker-symbol": "bus",
        "marker-size": "medium"
      },
      "geometry": {
        "type": "Point",
        "coordinates": [
          34.792191,
          32.015587
        ]
      }
    },
    {
      "type": "Feature",
      "properties": {
        "type": "original_route_stop",
        "stop_code": "33756",
        "stop_name": "אורט חולון/הנביאים",
        "marker-color": "#2ca02c",
        "marker-symbol": "bus",
        "marker-size": "medium"
      },
      "geometry": {
        "type": "Point",
        "coordinates": [
          34.790363,
          32.018663
        ]
      }
    },
    {
      "type": "Feature",
      "properties": {
        "type": "original_route_stop",
        "stop_code": "33762",
        "stop_name": "גאולים/שדרות ירושלים",
        "marker-color": "#2ca02c",
        "marker-symbol": "bus",
        "marker-size": "medium"
      },
      "geometry": {
        "type": "Point",
        "coordinates": [
          34.786912,
          32.017834
        ]
      }
    },
    {
      "type": "Feature",
      "properties": {
        "type": "original_route_stop",
        "stop_code": "33818",
        "stop_name": "גאולים/ההסתדרות",
        "marker-color": "#2ca02c",
        "marker-symbol": "bus",
        "marker-size": "medium"
      },
      "geometry": {
        "type": "Point",
        "coordinates": [
          34.784668,
          32.016145
        ]
      }
    },
    {
      "type": "Feature",
      "properties": {
        "type": "original_route_stop",
        "stop_code": "36387",
        "stop_name": "ההסתדרות/מוהליבר",
        "marker-color": "#2ca02c",
        "marker-symbol": "bus",
        "marker-size": "medium"
      },
      "geometry": {
        "type": "Point",
        "coordinates": [
          34.782766,
          32.016495
        ]
      }
    },
    {
      "type": "Feature",
      "properties": {
        "type": "original_route_stop",
        "stop_code": "36385",
        "stop_name": "ההסתדרות/ראש פינה",
        "marker-color": "#2ca02c",
        "marker-symbol": "bus",
        "marker-size": "medium"
      },
      "geometry": {
        "type": "Point",
        "coordinates": [
          34.779875,
          32.017269
        ]
      }
    },
    {
      "type": "Feature",
      "properties": {
        "type": "original_route_stop",
        "stop_code": "33819",
        "stop_name": "חנקין/חומה ומגדל",
        "marker-color": "#2ca02c",
        "marker-symbol": "bus",
        "marker-size": "medium"
      },
      "geometry": {
        "type": "Point",
        "coordinates": [
          34.778833,
          32.019444
        ]
      }
    },
    {
      "type": "Feature",
      "properties": {
        "type": "original_route_stop",
        "stop_code": "36799",
        "stop_name": "חומה ומגדל/שנקר",
        "marker-color": "#2ca02c",
        "marker-symbol": "bus",
        "marker-size": "medium"
      },
      "geometry": {
        "type": "Point",
        "coordinates": [
          34.775459,
          32.020099
        ]
      }
    },
    {
      "type": "Feature",
      "properties": {
        "type": "original_route_stop",
        "stop_code": "37566",
        "stop_name": "ויצמן/ההסתדרות",
        "marker-color": "#2ca02c",
        "marker-symbol": "bus",
        "marker-size": "medium"
      },
      "geometry": {
        "type": "Point",
        "coordinates": [
          34.770714,
          32.018848
        ]
      }
    },
    {
      "type": "Feature",
      "properties": {
        "type": "original_route_stop",
        "stop_code": "33889",
        "stop_name": "ההסתדרות/אחד במאי",
        "marker-color": "#2ca02c",
        "marker-symbol": "bus",
        "marker-size": "medium"
      },
      "geometry": {
        "type": "Point",
        "coordinates": [
          34.768633,
          32.018397
        ]
      }
    },
    {
      "type": "Feature",
      "properties": {
        "type": "original_route_stop",
        "stop_code": "36272",
        "stop_name": "מרכז נאות רחל/אילת",
        "marker-color": "#2ca02c",
        "marker-symbol": "bus",
        "marker-size": "medium"
      },
      "geometry": {
        "type": "Point",
        "coordinates": [
          34.764759,
          32.018119
        ]
      }
    },
    {
      "type": "Feature",
      "properties": {
        "type": "original_route_stop",
        "stop_code": "36270",
        "stop_name": "יוספטל/אילת",
        "marker-color": "#2ca02c",
        "marker-symbol": "bus",
        "marker-size": "medium"
      },
      "geometry": {
        "type": "Point",
        "coordinates": [
          34.764162,
          32.014706
        ]
      }
    },
    {
      "type": "Feature",
      "properties": {
        "type": "original_route_stop",
        "stop_code": "38632",
        "stop_name": "ת. רכבת יוספטל",
        "marker-color": "#2ca02c",
        "marker-symbol": "bus",
        "marker-size": "medium"
      },
      "geometry": {
        "type": "Point",
        "coordinates": [
          34.76205,
          32.015217
        ]
      }
    },
    {
      "type": "Feature",
      "properties": {
        "type": "original_route_stop",
        "stop_code": "36266",
        "stop_name": "מבצע סיני/יוספטל",
        "marker-color": "#2ca02c",
        "marker-symbol": "bus",
        "marker-size": "medium"
      },
      "geometry": {
        "type": "Point",
        "coordinates": [
          34.7594,
          32.016465
        ]
      }
    },
    {
      "type": "Feature",
      "properties": {
        "type": "original_route_stop",
        "stop_code": "33084",
        "stop_name": "מבצע סיני/הארזים",
        "marker-color": "#2ca02c",
        "marker-symbol": "bus",
        "marker-size": "medium"
      },
      "geometry": {
        "type": "Point",
        "coordinates": [
          34.759297,
          32.018439
        ]
      }
    },
    {
      "type": "Feature",
      "properties": {
        "type": "original_route_stop",
        "stop_code": "36220",
        "stop_name": "ת.רק''ל רוטשילד",
        "marker-color": "#2ca02c",
        "marker-symbol": "bus",
        "marker-size": "medium"
      },
      "geometry": {
        "type": "Point",
        "coordinates": [
          34.744435,
          32.026789
        ]
      }
    },
    {
      "type": "Feature",
      "properties": {
        "type": "original_route_stop",
        "stop_code": "36060",
        "stop_name": "רוטשילד/הרצל",
        "marker-color": "#2ca02c",
        "marker-symbol": "bus",
        "marker-size": "medium"
      },
      "geometry": {
        "type": "Point",
        "coordinates": [
          34.742651,
          32.026663
        ]
      }
    },
    {
      "type": "Feature",
      "properties": {
        "type": "original_route_stop",
        "stop_code": "36196",
        "stop_name": "דרך בן גוריון/רוטשילד",
        "marker-color": "#2ca02c",
        "marker-symbol": "bus",
        "marker-size": "medium"
      },
      "geometry": {
        "type": "Point",
        "coordinates": [
          34.741016,
          32.026137
        ]
      }
    },
    {
      "type": "Feature",
      "properties": {
        "type": "original_route_stop",
        "stop_code": "36194",
        "stop_name": "חוף הסלע/דרך בן גוריון",
        "marker-color": "#2ca02c",
        "marker-symbol": "bus",
        "marker-size": "medium"
      },
      "geometry": {
        "type": "Point",
        "coordinates": [
          34.740211,
          32.023977
        ]
      }
    },
    {
      "type": "Feature",
      "properties": {
        "type": "original_route_stop",
        "stop_code": "36192",
        "stop_name": "דרך בן גוריון/ז'בוטינסקי",
        "marker-color": "#2ca02c",
        "marker-symbol": "bus",
        "marker-size": "medium"
      },
      "geometry": {
        "type": "Point",
        "coordinates": [
          34.739198,
          32.020476
        ]
      }
    },
    {
      "type": "Feature",
      "properties": {
        "type": "original_route_stop",
        "stop_code": "36193",
        "stop_name": "יוספטל/מסריק",
        "marker-color": "#2ca02c",
        "marker-symbol": "bus",
        "marker-size": "medium"
      },
      "geometry": {
        "type": "Point",
        "coordinates": [
          34.740964,
          32.019026
        ]
      }
    },
    {
      "type": "Feature",
      "properties": {
        "type": "original_route_stop",
        "stop_code": "36200",
        "stop_name": "ת.רק''ל בלפור ",
        "marker-color": "#2ca02c",
        "marker-symbol": "bus",
        "marker-size": "medium"
      },
      "geometry": {
        "type": "Point",
        "coordinates": [
          34.743607,
          32.018076
        ]
      }
    },
    {
      "type": "Feature",
      "properties": {
        "type": "original_route_stop",
        "stop_code": "36198",
        "stop_name": "בלפור/מקס נורדאו",
        "marker-color": "#2ca02c",
        "marker-symbol": "bus",
        "marker-size": "medium"
      },
      "geometry": {
        "type": "Point",
        "coordinates": [
          34.74334,
          32.015184
        ]
      }
    },
    {
      "type": "Feature",
      "properties": {
        "type": "original_route_stop",
        "stop_code": "36104",
        "stop_name": "בלפור/יצחק שדה",
        "marker-color": "#2ca02c",
        "marker-symbol": "bus",
        "marker-size": "medium"
      },
      "geometry": {
        "type": "Point",
        "coordinates": [
          34.741976,
          32.012248
        ]
      }
    },
    {
      "type": "Feature",
      "properties": {
        "type": "original_route_stop",
        "stop_code": "36102",
        "stop_name": "יצחק שדה/בלפור",
        "marker-color": "#2ca02c",
        "marker-symbol": "bus",
        "marker-size": "medium"
      },
      "geometry": {
        "type": "Point",
        "coordinates": [
          34.740463,
          32.0114
        ]
      }
    },
    {
      "type": "Feature",
      "properties": {
        "type": "original_route_stop",
        "stop_code": "33755",
        "stop_name": "דרך בן גוריון/יצחק שדה",
        "marker-color": "#2ca02c",
        "marker-symbol": "bus",
        "marker-size": "medium"
      },
      "geometry": {
        "type": "Point",
        "coordinates": [
          34.738705,
          32.010962
        ]
      }
    },
    {
      "type": "Feature",
      "properties": {
        "type": "original_route_stop",
        "stop_code": "36097",
        "stop_name": "הקוממיות/הנביאים",
        "marker-color": "#2ca02c",
        "marker-symbol": "bus",
        "marker-size": "medium"
      },
      "geometry": {
        "type": "Point",
        "coordinates": [
          34.741449,
          32.006855
        ]
      }
    },
    {
      "type": "Feature",
      "properties": {
        "type": "original_route_stop",
        "stop_code": "36114",
        "stop_name": "הקוממיות/הרב ניסנבאום",
        "marker-color": "#2ca02c",
        "marker-symbol": "bus",
        "marker-size": "medium"
      },
      "geometry": {
        "type": "Point",
        "coordinates": [
          34.746922,
          32.00411
        ]
      }
    },
    {
      "type": "Feature",
      "properties": {
        "type": "original_route_stop",
        "stop_code": "36157",
        "stop_name": "בית העלמין/הקוממיות",
        "marker-color": "#2ca02c",
        "marker-symbol": "bus",
        "marker-size": "medium"
      },
      "geometry": {
        "type": "Point",
        "coordinates": [
          34.753473,
          32.002343
        ]
      }
    },
    {
      "type": "Feature",
      "properties": {
        "type": "original_route_stop",
        "stop_code": "38453",
        "stop_name": "תחנת רכבת קוממיות",
        "marker-color": "#2ca02c",
        "marker-symbol": "bus",
        "marker-size": "medium"
      },
      "geometry": {
        "type": "Point",
        "coordinates": [
          34.760742,
          32.001109
        ]
      }
    },
    {
      "type": "Feature",
      "properties": {
        "type": "original_route_stop",
        "stop_code": "37012",
        "stop_name": "חניון אגד/דן שומרון",
        "marker-color": "#2ca02c",
        "marker-symbol": "bus",
        "marker-size": "medium"
      },
      "geometry": {
        "type": "Point",
        "coordinates": [
          34.763601,
          32.000164
        ]
      }
    },
    {
      "type": "Feature",
      "properties": {
        "type": "cancelled_stop",
        "stop_code": "36244",
        "stop_name": "אנילביץ'/כצנלסון",
        "marker-color": "#ff0000",
        "marker-symbol": "bus",
        "marker-size": "medium"
      },
      "geometry": {
        "type": "Point",
        "coordinates": [
          34.753697,
          32.021998
        ]
      }
    },
    {
      "type": "Feature",
      "properties": {
        "type": "cancelled_stop",
        "stop_code": "36212",
        "stop_name": "הרב עוזיאל/דניאל",
        "marker-color": "#ff0000",
        "marker-symbol": "bus",
        "marker-size": "medium"
      },
      "geometry": {
        "type": "Point",
        "coordinates": [
          34.749758,
          32.02211
        ]
      }
    },
    {
      "type": "Feature",
      "properties": {
        "type": "cancelled_stop",
        "stop_code": "36223",
        "stop_name": "הרב עוזיאל/שדרות העצמאות",
        "marker-color": "#ff0000",
        "marker-symbol": "bus",
        "marker-size": "medium"
      },
      "geometry": {
        "type": "Point",
        "coordinates": [
          34.747665,
          32.022902
        ]
      }
    },
    {
      "type": "Feature",
      "properties": {
        "type": "new_stop",
        "stop_code": "36256",
        "stop_name": "כצנלסון/ההגנה",
        "marker-color": "#1f9ed6",
        "marker-symbol": "bus",
        "marker-size": "medium"
      },
      "geometry": {
        "type": "Point",
        "coordinates": [
          34.754612,
          32.022486
        ]
      }
    },
    {
      "type": "Feature",
      "properties": {
        "type": "new_stop",
        "stop_code": "36251",
        "stop_name": "ירושלים/השלושה",
        "marker-color": "#1f9ed6",
        "marker-symbol": "bus",
        "marker-size": "medium"
      },
      "geometry": {
        "type": "Point",
        "coordinates": [
          34.75276,
          32.025859
        ]
      }
    },
    {
      "type": "Feature",
      "properties": {
        "type": "new_stop",
        "stop_code": "36225",
        "stop_name": "ירושלים/דניאל",
        "marker-color": "#1f9ed6",
        "marker-symbol": "bus",
        "marker-size": "medium"
      },
      "geometry": {
        "type": "Point",
        "coordinates": [
          34.749653,
          32.02596
        ]
      }
    },
    {
      "type": "Feature",
      "properties": {
        "type": "reported_block_stop",
        "stop_code": "36244",
        "stop_name": "אנילביץ'/כצנלסון",
        "marker-color": "#ff8800",
        "marker-symbol": "bus",
        "marker-size": "medium"
      },
      "geometry": {
        "type": "Point",
        "coordinates": [
          34.753697,
          32.021998
        ]
      }
    },
    {
      "type": "Feature",
      "properties": {
        "type": "reported_block_stop",
        "stop_code": "36212",
        "stop_name": "הרב עוזיאל/דניאל",
        "marker-color": "#ff8800",
        "marker-symbol": "bus",
        "marker-size": "medium"
      },
      "geometry": {
        "type": "Point",
        "coordinates": [
          34.749758,
          32.02211
        ]
      }
    },
    {
      "type": "Feature",
      "properties": {
        "type": "deviate_from_stop",
        "stop_code": "33090",
        "stop_name": "היכל התרבות/מבצע סיני",
        "marker-color": "#8000ff",
        "marker-symbol": "bus",
        "marker-size": "medium"
      },
      "geometry": {
        "type": "Point",
        "coordinates": [
          34.758813,
          32.020525
        ]
      }
    },
    {
      "type": "Feature",
      "properties": {
        "type": "deviate_to_stop",
        "stop_code": "34754",
        "stop_name": "ירושלים/קדושי קהיר",
        "marker-color": "#8000ff",
        "marker-symbol": "bus",
        "marker-size": "medium"
      },
      "geometry": {
        "type": "Point",
        "coordinates": [
          34.746846,
          32.026047
        ]
      }
    }
  ]
}