{
  "type": "FeatureCollection",
  "features": [
    {
      "type": "Feature",
      "properties": {
        "type": "deviation_path_edge",
        "from_stop_code": "28665",
        "to_stop_code": "21644",
        "stroke": "#00bcd4",
        "stroke-width": 3,
        "stroke-opacity": 0.95
      },
      "geometry": {
        "type": "LineString",
        "coordinates": [
          [
            34.80070978921923,
            32.082577301960264
          ],
          [
            34.800782,
            32.082601
          ],
          [
            34.800926,
            32.082658
          ],
          [
            34.801047,
            32.0827
          ],
          [
            34.801148,
            32.082737
          ],
          [
            34.801196,
            32.082755
          ],
          [
            34.801318,
            32.082788
          ],
          [
            34.801405,
            32.082803
          ],
          [
            34.801493,
            32.082813
          ],
          [
            34.801576,
            32.082816
          ],
          [
            34.801735,
            32.082816
          ],
          [
            34.802345,
            32.082907
          ],
          [
            34.802467,
            32.082912
          ],
          [
            34.802591,
            32.082919
          ],
          [
            34.802664,
            32.082918
          ],
          [
            34.803435,
            32.082907
          ],
          [
            34.803667,
            32.082896
          ],
          [
            34.803815,
            32.082911
          ],
          [
            34.80504105793818,
            32.08315832776099
          ]
        ]
      }
    },
    {
      "type": "Feature",
      "properties": {
        "type": "deviation_path_edge",
        "from_stop_code": "21644",
        "to_stop_code": "26264",
        "stroke": "#00bcd4",
        "stroke-width": 3,
        "stroke-opacity": 0.95
      },
      "geometry": {
        "type": "LineString",
        "coordinates": [
          [
            34.80504105793818,
            32.08315832776099
          ],
          [
            34.805669,
            32.083285
          ],
          [
            34.805851,
            32.083326
          ],
          [
            34.806534,
            32.083527
          ],
          [
            34.807035,
            32.083667
          ],
          [
            34.807788,
            32.083876
          ],
          [
            34.807919,
            32.083896
          ],
          [
            34.808346,
            32.084011
          ],
          [
            34.808893,
            32.084197
          ],
          [
            34.809116,
            32.084289
          ],
          [
            34.809267,
            32.084366
          ],
          [
            34.809335,
            32.084401
          ],
          [
            34.809452,
            32.084478
          ],
          [
            34.809547,
            32.084541
          ],
          [
            34.8099,
            32.084783
          ],
          [
            34.810237315316044,
            32.08511160416011
          ]
        ]
      }
    },
    {
      "type": "Feature",
      "properties": {
        "type": "deviation_path_edge",
        "from_stop_code": "26264",
        "to_stop_code": "26278",
        "stroke": "#00bcd4",
        "stroke-width": 3,
        "stroke-opacity": 0.95
      },
      "geometry": {
        "type": "LineString",
        "coordinates": [
          [
            34.810237315316044,
            32.08511160416011
          ],
          [
            34.810597,
            32.085462
          ],
          [
            34.810811,
            32.085575
          ],
          [
            34.810849,
            32.085585
          ],
          [
            34.810899,
            32.08559
          ],
          [
            34.811054,
            32.085573
          ],
          [
            34.811351,
            32.085409
          ],
          [
            34.81169,
            32.085224
          ],
          [
            34.812103,
            32.08501
          ],
          [
            34.81219,
            32.084969
          ],
          [
            34.81244173213889,
            32.084843627522986
          ]
        ]
      }
    },
    {
      "type": "Feature",
      "properties": {
        "type": "deviation_path_edge",
        "from_stop_code": "26278",
        "to_stop_code": "26275",
        "stroke": "#00bcd4",
        "stroke-width": 3,
        "stroke-opacity": 0.95
      },
      "geometry": {
        "type": "LineString",
        "coordinates": [
          [
            34.81244173213889,
            32.084843627522986
          ],
          [
            34.8127,
            32.084715
          ],
          [
            34.813393,
            32.084351
          ],
          [
            34.813528,
            32.08428
          ],
          [
            34.813818,
            32.084142
          ],
          [
            34.813964,
            32.084032
          ],
          [
            34.814123,
            32.083891
          ],
          [
            34.814237,
            32.083768
          ],
          [
            34.814372,
            32.083559
          ],
          [
            34.814432,
            32.083438
          ],
          [
            34.814514,
            32.083187
          ],
          [
            34.814586,
            32.08297
          ],
          [
            34.814645,
            32.08279
          ],
          [
            34.814669,
            32.08272
          ],
          [
            34.814796770546785,
            32.08226423311056
          ]
        ]
      }
    },
    {
      "type": "Feature",
      "properties": {
        "type": "deviation_path_edge",
        "from_stop_code": "26275",
        "to_stop_code": "26274",
        "stroke": "#00bcd4",
        "stroke-width": 3,
        "stroke-opacity": 0.95
      },
      "geometry": {
        "type": "LineString",
        "coordinates": [
          [
            34.814796770546785,
            32.08226423311056
          ],
          [
            34.814833,
            32.082135
          ],
          [
            34.814851,
            32.081992
          ],
          [
            34.814868,
            32.081849
          ],
          [
            34.814904,
            32.081557
          ],
          [
            34.814897,
            32.081058
          ],
          [
            34.81489582010545,
            32.08104044906854
          ]
        ]
      }
    },
    {
      "type": "Feature",
      "properties": {
        "type": "deviation_path_edge",
        "from_stop_code": "26274",
        "to_stop_code": "26140",
        "stroke": "#00bcd4",
        "stroke-width": 3,
        "stroke-opacity": 0.95
      },
      "geometry": {
        "type": "LineString",
        "coordinates": [
          [
            34.81489582010545,
            32.08104044906854
          ],
          [
            34.814889,
            32.080939
          ],
          [
            34.814879,
            32.080724
          ],
          [
            34.814876,
            32.080245
          ],
          [
            34.814856,
            32.079217
          ],
          [
            34.814838,
            32.079118
          ],
          [
            34.814976,
            32.079146
          ],
          [
            34.815386,
            32.079224
          ],
          [
            34.815701,
            32.079324
          ],
          [
            34.81573380342653,
            32.07933873522903
          ]
        ]
      }
    },
    {
      "type": "Feature",
      "properties": {
        "type": "original_route_shape",
        "shape_id": "151049",
        "stroke": "#1f2a7a",
        "stroke-width": 3,
        "stroke-opacity": 0.85
      },
      "geometry": {
        "type": "LineString",
        "coordinates": [
          [
            34.79011129388279,
            32.083397829316986
          ],
          [
            34.790752,
            32.083265
          ],
          [
            34.791535,
            32.083102
          ],
          [
            34.791739,
            32.08306
          ],
          [
            34.792148,
            32.082981
          ],
          [
            34.792597,
            32.08291
          ],
          [
            34.793652,
            32.08273
          ],
          [
            34.794078,
            32.082655
          ],
          [
            34.794514,
            32.082568
          ],
          [
            34.794662,
            32.082546
          ],
          [
            34.794792,
            32.082522
          ],
          [
            34.794866,
            32.0825
          ],
          [
            34.794931,
            32.082476
          ],
          [
            34.795073,
            32.082416
          ],
          [
            34.795154,
            32.082383
          ],
          [
            34.795258,
            32.082338
          ],
          [
            34.795371,
            32.082284
          ],
          [
            34.795502,
            32.082194
          ],
          [
            34.795872,
            32.081904
          ],
          [
            34.795965,
            32.081829
          ],
          [
            34.79608,
            32.08173
          ],
          [
            34.796122,
            32.081689
          ],
          [
            34.796297,
            32.08152
          ],
          [
            34.796526,
            32.081271
          ],
          [
            34.796773,
            32.081002
          ],
          [
            34.796842,
            32.080929
          ],
          [
            34.796954,
            32.080806
          ],
          [
            34.79707,
            32.080866
          ],
          [
            34.797279,
            32.080992
          ],
          [
            34.79739,
            32.081053
          ],
          [
            34.797482,
            32.081103
          ],
          [
            34.797893,
            32.081316
          ],
          [
            34.79822,
            32.0815
          ],
          [
            34.798821,
            32.081806
          ],
          [
            34.799092,
            32.081938
          ],
          [
            34.79952,
            32.082116
          ],
          [
            34.799808,
            32.082233
          ],
          [
            34.799994,
            32.08231
          ],
          [
            34.8002,
            32.08241
          ],
          [
            34.800782,
            32.082601
          ],
          [
            34.800926,
            32.082658
          ],
          [
            34.801047,
            32.0827
          ],
          [
            34.801148,
            32.082737
          ],
          [
            34.801196,
            32.082755
          ],
          [
            34.801318,
            32.082788
          ],
          [
            34.801405,
            32.082803
          ],
          [
            34.801493,
            32.082813
          ],
          [
            34.801576,
            32.082816
          ],
          [
            34.801735,
            32.082816
          ],
          [
            34.802345,
            32.082907
          ],
          [
            34.802467,
            32.082912
          ],
          [
            34.802591,
            32.082919
          ],
          [
            34.802664,
            32.082918
          ],
          [
            34.803085,
            32.08273
          ],
          [
            34.803098,
            32.082727
          ],
          [
            34.803327,
            32.082664
          ],
          [
            34.803522,
            32.082579
          ],
          [
            34.803676,
            32.082499
          ],
          [
            34.803936,
            32.082375
          ],
          [
            34.804373,
            32.082176
          ],
          [
            34.804694,
            32.082029
          ],
          [
            34.804782,
            32.081995
          ],
          [
            34.804892,
            32.081956
          ],
          [
            34.804985,
            32.081929
          ],
          [
            34.804991,
            32.081927
          ],
          [
            34.805145,
            32.081896
          ],
          [
            34.805356,
            32.08186
          ],
          [
            34.805684,
            32.081814
          ],
          [
            34.806021,
            32.081755
          ],
          [
            34.806316,
            32.081689
          ],
          [
            34.807441,
            32.081454
          ],
          [
            34.807646,
            32.081398
          ],
          [
            34.807792,
            32.081347
          ],
          [
            34.807988,
            32.081251
          ],
          [
            34.808044,
            32.081175
          ],
          [
            34.80814,
            32.081076
          ],
          [
            34.808228,
            32.081004
          ],
          [
            34.808327,
            32.080951
          ],
          [
            34.808459,
            32.08091
          ],
          [
            34.808558,
            32.080907
          ],
          [
            34.808636,
            32.080918
          ],
          [
            34.808719,
            32.080952
          ],
          [
            34.808805,
            32.081006
          ],
          [
            34.809012,
            32.081225
          ],
          [
            34.809054,
            32.081285
          ],
          [
            34.80923,
            32.08146
          ],
          [
            34.809296,
            32.081501
          ],
          [
            34.809356,
            32.081522
          ],
          [
            34.809483,
            32.081546
          ],
          [
            34.809506,
            32.081547
          ],
          [
            34.809506,
            32.081535
          ],
          [
            34.809508,
            32.081519
          ],
          [
            34.809514,
            32.081504
          ],
          [
            34.80952,
            32.081494
          ],
          [
            34.809527,
            32.081485
          ],
          [
            34.80954,
            32.081473
          ],
          [
            34.80955,
            32.081466
          ],
          [
            34.809564,
            32.08146
          ],
          [
            34.809573,
            32.081456
          ],
          [
            34.809585,
            32.081453
          ],
          [
            34.809597,
            32.081451
          ],
          [
            34.80961,
            32.081451
          ],
          [
            34.809623,
            32.081452
          ],
          [
            34.809635,
            32.081454
          ],
          [
            34.809653,
            32.08146
          ],
          [
            34.80967,
            32.081468
          ],
          [
            34.80968,
            32.081475
          ],
          [
            34.809688,
            32.081483
          ],
          [
            34.809699,
            32.081497
          ],
          [
            34.809704,
            32.081507
          ],
          [
            34.809707,
            32.081516
          ],
          [
            34.809747,
            32.081497
          ],
          [
            34.80979,
            32.081452
          ],
          [
            34.809856,
            32.081365
          ],
          [
            34.809939,
            32.081258
          ],
          [
            34.809992,
            32.081194
          ],
          [
            34.810068,
            32.081125
          ],
          [
            34.81014,
            32.081071
          ],
          [
            34.810197,
            32.08104
          ],
          [
            34.810305,
            32.080998
          ],
          [
            34.810399,
            32.080968
          ],
          [
            34.81052,
            32.080945
          ],
          [
            34.810608,
            32.080941
          ],
          [
            34.810752,
            32.080932
          ],
          [
            34.811011,
            32.080956
          ],
          [
            34.811376,
            32.081004
          ],
          [
            34.811486,
            32.081015
          ],
          [
            34.811547,
            32.081016
          ],
          [
            34.811621,
            32.081017
          ],
          [
            34.811684,
            32.081013
          ],
          [
            34.811764,
            32.081004
          ],
          [
            34.811808,
            32.080991
          ],
          [
            34.811842,
            32.080976
          ],
          [
            34.811883,
            32.080953
          ],
          [
            34.811952,
            32.080898
          ],
          [
            34.812222,
            32.08068
          ],
          [
            34.812458,
            32.080453
          ],
          [
            34.812995,
            32.079892
          ],
          [
            34.813035,
            32.079849
          ],
          [
            34.813171,
            32.079726
          ],
          [
            34.813447,
            32.079509
          ],
          [
            34.813559,
            32.079427
          ],
          [
            34.813778,
            32.079337
          ],
          [
            34.813957,
            32.079263
          ],
          [
            34.814278,
            32.079162
          ],
          [
            34.81449,
            32.079126
          ],
          [
            34.814705,
            32.079117
          ],
          [
            34.814835,
            32.079118
          ],
          [
            34.814976,
            32.079146
          ],
          [
            34.815386,
            32.079224
          ],
          [
            34.815701,
            32.079324
          ],
          [
            34.815888,
            32.079408
          ],
          [
            34.816007,
            32.079463
          ],
          [
            34.816663,
            32.079703
          ],
          [
            34.817002,
            32.07989
          ],
          [
            34.817335,
            32.080087
          ],
          [
            34.817862,
            32.080397
          ],
          [
            34.818252,
            32.080648
          ],
          [
            34.818455,
            32.08086
          ],
          [
            34.81859,
            32.081002
          ],
          [
            34.819946,
            32.080381
          ],
          [
            34.819892,
            32.080176
          ],
          [
            34.819771,
            32.079774
          ],
          [
            34.819667,
            32.079421
          ],
          [
            34.819772,
            32.079406
          ],
          [
            34.820033,
            32.079369
          ],
          [
            34.821356,
            32.079316
          ],
          [
            34.821768,
            32.079301
          ],
          [
            34.821811,
            32.0793
          ],
          [
            34.823325,
            32.079255
          ],
          [
            34.823629,
            32.079243
          ],
          [
            34.824774,
            32.079204
          ],
          [
            34.825167,
            32.079181
          ],
          [
            34.825262,
            32.079136
          ],
          [
            34.825331,
            32.079096
          ],
          [
            34.825371,
            32.079023
          ],
          [
            34.825365,
            32.078967
          ],
          [
            34.82529,
            32.07847
          ],
          [
            34.825273,
            32.078283
          ],
          [
            34.825267,
            32.078252
          ],
          [
            34.825259,
            32.078136
          ],
          [
            34.825264,
            32.077947
          ],
          [
            34.825216,
            32.077597
          ],
          [
            34.825213,
            32.077564
          ],
          [
            34.825204,
            32.077003
          ],
          [
            34.825174,
            32.07664
          ],
          [
            34.825141,
            32.076366
          ],
          [
            34.825077,
            32.075113
          ],
          [
            34.825023,
            32.074595
          ],
          [
            34.82502,
            32.074531
          ],
          [
            34.824958,
            32.073426
          ],
          [
            34.824918,
            32.0729
          ],
          [
            34.824939,
            32.072372
          ],
          [
            34.824938,
            32.072062
          ],
          [
            34.824878,
            32.071551
          ],
          [
            34.824834,
            32.070953
          ],
          [
            34.824735,
            32.070365
          ],
          [
            34.825442,
            32.070343
          ],
          [
            34.82606,
            32.070297
          ],
          [
            34.826712,
            32.070257
          ],
          [
            34.82686,
            32.070254
          ],
          [
            34.827448,
            32.070199
          ],
          [
            34.828614,
            32.070106
          ],
          [
            34.82873,
            32.070105
          ],
          [
            34.829154,
            32.070093
          ],
          [
            34.829423,
            32.070068
          ],
          [
            34.829611,
            32.070057
          ],
          [
            34.829957,
            32.070037
          ],
          [
            34.830838,
            32.069981
          ],
          [
            34.832499,
            32.06991
          ],
          [
            34.832496,
            32.069876
          ],
          [
            34.832499,
            32.069728
          ],
          [
            34.832557,
            32.069165
          ],
          [
            34.832568,
            32.069052
          ],
          [
            34.832591,
            32.068855
          ],
          [
            34.83263,
            32.068525
          ],
          [
            34.832639,
            32.06843
          ],
          [
            34.832669,
            32.068077
          ],
          [
            34.832679,
            32.067983
          ],
          [
            34.832723,
            32.067533
          ],
          [
            34.832755,
            32.067252
          ],
          [
            34.832764,
            32.067168
          ],
          [
            34.832768,
            32.067136
          ],
          [
            34.832824,
            32.06685
          ],
          [
            34.832835,
            32.066794
          ],
          [
            34.832914,
            32.066429
          ],
          [
            34.832946,
            32.066197
          ],
          [
            34.833025,
            32.066192
          ],
          [
            34.833297,
            32.066191
          ],
          [
            34.833742,
            32.066238
          ],
          [
            34.834098,
            32.066273
          ],
          [
            34.834483,
            32.066311
          ],
          [
            34.834795,
            32.066366
          ],
          [
            34.835171,
            32.066456
          ],
          [
            34.835434,
            32.066534
          ],
          [
            34.835512,
            32.066573
          ],
          [
            34.835786,
            32.06671
          ],
          [
            34.836055,
            32.066905
          ],
          [
            34.836299,
            32.067129
          ],
          [
            34.836327,
            32.067173
          ],
          [
            34.836493,
            32.067441
          ],
          [
            34.836543,
            32.067527
          ],
          [
            34.836662,
            32.067759
          ],
          [
            34.836923,
            32.068279
          ],
          [
            34.83707,
            32.068588
          ],
          [
            34.837217,
            32.068871
          ],
          [
            34.837534,
            32.069403
          ],
          [
            34.837794,
            32.069996
          ],
          [
            34.838299,
            32.069858
          ],
          [
            34.83893,
            32.069654
          ],
          [
            34.839062,
            32.069612
          ],
          [
            34.839197,
            32.069568
          ],
          [
            34.839171,
            32.069514
          ],
          [
            34.83901197218968,
            32.069189472317305
          ]
        ]
      }
    },
    {
      "type": "Feature",
      "properties": {
        "type": "original_route_stop",
        "stop_code": "25882",
        "stop_name": "ארלוזורוב/ויצמן",
        "marker-color": "#2ca02c",
        "marker-symbol": "bus",
        "marker-size": "medium"
      },
      "geometry": {
        "type": "Point",
        "coordinates": [
          34.790102,
          32.083353
        ]
      }
    },
    {
      "type": "Feature",
      "properties": {
        "type": "original_route_stop",
        "stop_code": "21035",
        "stop_name": "ארלוזורוב/דרך נמיר",
        "marker-color": "#2ca02c",
        "marker-symbol": "bus",
        "marker-size": "medium"
      },
      "geometry": {
        "type": "Point",
        "coordinates": [
          34.793207,
          32.08276
        ]
      }
    },
    {
      "type": "Feature",
      "properties": {
        "type": "original_route_stop",
        "stop_code": "21140",
        "stop_name": "ת. רכבת תל אביב סבידור/על פרשת דרכים",
        "marker-color": "#2ca02c",
        "marker-symbol": "bus",
        "marker-size": "medium"
      },
      "geometry": {
        "type": "Point",
        "coordinates": [
          34.795464,
          32.082162
        ]
      }
    },
    {
      "type": "Feature",
      "properties": {
        "type": "original_route_stop",
        "stop_code": "26331",
        "stop_name": "קריניצי/הרצל",
        "marker-color": "#2ca02c",
        "marker-symbol": "bus",
        "marker-size": "medium"
      },
      "geometry": {
        "type": "Point",
        "coordinates": [
          34.818167,
          32.080537
        ]
      }
    },
    {
      "type": "Feature",
      "properties": {
        "type": "original_route_stop",
        "stop_code": "22936",
        "stop_name": "בן גוריון/ הרצל",
        "marker-color": "#2ca02c",
        "marker-symbol": "bus",
        "marker-size": "medium"
      },
      "geometry": {
        "type": "Point",
        "coordinates": [
          34.81974,
          32.079852
        ]
      }
    },
    {
      "type": "Feature",
      "properties": {
        "type": "original_route_stop",
        "stop_code": "21748",
        "stop_name": "חיבת ציון/עוזיאל",
        "marker-color": "#2ca02c",
        "marker-symbol": "bus",
        "marker-size": "medium"
      },
      "geometry": {
        "type": "Point",
        "coordinates": [
          34.822923,
          32.079222
        ]
      }
    },
    {
      "type": "Feature",
      "properties": {
        "type": "original_route_stop",
        "stop_code": "21382",
        "stop_name": "חיבת ציון/הרא''ה",
        "marker-color": "#2ca02c",
        "marker-symbol": "bus",
        "marker-size": "medium"
      },
      "geometry": {
        "type": "Point",
        "coordinates": [
          34.824971,
          32.079147
        ]
      }
    },
    {
      "type": "Feature",
      "properties": {
        "type": "original_route_stop",
        "stop_code": "26229",
        "stop_name": "הרא''ה/ברקאי",
        "marker-color": "#2ca02c",
        "marker-symbol": "bus",
        "marker-size": "medium"
      },
      "geometry": {
        "type": "Point",
        "coordinates": [
          34.825142,
          32.0769
        ]
      }
    },
    {
      "type": "Feature",
      "properties": {
        "type": "original_route_stop",
        "stop_code": "21339",
        "stop_name": "הרא''ה/ שד. ירושלים",
        "marker-color": "#2ca02c",
        "marker-symbol": "bus",
        "marker-size": "medium"
      },
      "geometry": {
        "type": "Point",
        "coordinates": [
          34.824917,
          32.073636
        ]
      }
    },
    {
      "type": "Feature",
      "properties": {
        "type": "original_route_stop",
        "stop_code": "21567",
        "stop_name": "נגבה/ הרא''ה",
        "marker-color": "#2ca02c",
        "marker-symbol": "bus",
        "marker-size": "medium"
      },
      "geometry": {
        "type": "Point",
        "coordinates": [
          34.825215,
          32.070305
        ]
      }
    },
    {
      "type": "Feature",
      "properties": {
        "type": "original_route_stop",
        "stop_code": "26221",
        "stop_name": "דרך נגבה/הירדן",
        "marker-color": "#2ca02c",
        "marker-symbol": "bus",
        "marker-size": "medium"
      },
      "geometry": {
        "type": "Point",
        "coordinates": [
          34.829165,
          32.070046
        ]
      }
    },
    {
      "type": "Feature",
      "properties": {
        "type": "original_route_stop",
        "stop_code": "26223",
        "stop_name": "דרך נגבה/בן אליעזר",
        "marker-color": "#2ca02c",
        "marker-symbol": "bus",
        "marker-size": "medium"
      },
      "geometry": {
        "type": "Point",
        "coordinates": [
          34.832089,
          32.069882
        ]
      }
    },
    {
      "type": "Feature",
      "properties": {
        "type": "original_route_stop",
        "stop_code": "3432",
        "stop_name": "בן אליעזר/בן סרוק ",
        "marker-color": "#2ca02c",
        "marker-symbol": "bus",
        "marker-size": "medium"
      },
      "geometry": {
        "type": "Point",
        "coordinates": [
          34.832602,
          32.068243
        ]
      }
    },
    {
      "type": "Feature",
      "properties": {
        "type": "original_route_stop",
        "stop_code": "26463",
        "stop_name": "אצ''ל/בן אליעזר",
        "marker-color": "#2ca02c",
        "marker-symbol": "bus",
        "marker-size": "medium"
      },
      "geometry": {
        "type": "Point",
        "coordinates": [
          34.833592,
          32.066176
        ]
      }
    },
    {
      "type": "Feature",
      "properties": {
        "type": "original_route_stop",
        "stop_code": "26467",
        "stop_name": "אצ''ל/המחתרת",
        "marker-color": "#2ca02c",
        "marker-symbol": "bus",
        "marker-size": "medium"
      },
      "geometry": {
        "type": "Point",
        "coordinates": [
          34.83665,
          32.067623
        ]
      }
    },
    {
      "type": "Feature",
      "properties": {
        "type": "original_route_stop",
        "stop_code": "26468",
        "stop_name": "אצ''ל/הרב לנדרס",
        "marker-color": "#2ca02c",
        "marker-symbol": "bus",
        "marker-size": "medium"
      },
      "geometry": {
        "type": "Point",
        "coordinates": [
          34.837687,
          32.069621
        ]
      }
    },
    {
      "type": "Feature",
      "properties": {
        "type": "original_route_stop",
        "stop_code": "26472",
        "stop_name": "מסוף עמידר",
        "marker-color": "#2ca02c",
        "marker-symbol": "bus",
        "marker-size": "medium"
      },
      "geometry": {
        "type": "Point",
        "coordinates": [
          34.838966,
          32.069212
        ]
      }
    },
    {
      "type": "Feature",
      "properties": {
        "type": "cancelled_stop",
        "stop_code": "26249",
        "stop_name": "צומת עלית/ארלוזורוב",
        "marker-color": "#ff0000",
        "marker-symbol": "bus",
        "marker-size": "medium"
      },
      "geometry": {
        "type": "Point",
        "coordinates": [
          34.805596,
          32.081781
        ]
      }
    },
    {
      "type": "Feature",
      "properties": {
        "type": "cancelled_stop",
        "stop_code": "26259",
        "stop_name": "ארלוזורוב/החשמונאים",
        "marker-color": "#ff0000",
        "marker-symbol": "bus",
        "marker-size": "medium"
      },
      "geometry": {
        "type": "Point",
        "coordinates": [
          34.8092,
          32.081361
        ]
      }
    },
    {
      "type": "Feature",
      "properties": {
        "type": "cancelled_stop",
        "stop_code": "26273",
        "stop_name": "גן הקופים/ארלוזורוב",
        "marker-color": "#ff0000",
        "marker-symbol": "bus",
        "marker-size": "medium"
      },
      "geometry": {
        "type": "Point",
        "coordinates": [
          34.81226,
          32.080575
        ]
      }
    },
    {
      "type": "Feature",
      "properties": {
        "type": "new_stop",
        "stop_code": "21644",
        "stop_name": "ת.רק''ל אבא הלל/דרך ז'בוטינסקי",
        "marker-color": "#1f9ed6",
        "marker-symbol": "bus",
        "marker-size": "medium"
      },
      "geometry": {
        "type": "Point",
        "coordinates": [
          34.80505,
          32.083114
        ]
      }
    },
    {
      "type": "Feature",
      "properties": {
        "type": "new_stop",
        "stop_code": "26264",
        "stop_name": "דרך ז'בוטינסקי/ביאליק",
        "marker-color": "#1f9ed6",
        "marker-symbol": "bus",
        "marker-size": "medium"
      },
      "geometry": {
        "type": "Point",
        "coordinates": [
          34.810272,
          32.085076
        ]
      }
    },
    {
      "type": "Feature",
      "properties": {
        "type": "new_stop",
        "stop_code": "26278",
        "stop_name": "ביאליק/נורדאו",
        "marker-color": "#1f9ed6",
        "marker-symbol": "bus",
        "marker-size": "medium"
      },
      "geometry": {
        "type": "Point",
        "coordinates": [
          34.812421,
          32.084802
        ]
      }
    },
    {
      "type": "Feature",
      "properties": {
        "type": "new_stop",
        "stop_code": "26275",
        "stop_name": "עיריית ר''ג/ביאליק",
        "marker-color": "#1f9ed6",
        "marker-symbol": "bus",
        "marker-size": "medium"
      },
      "geometry": {
        "type": "Point",
        "coordinates": [
          34.814746,
          32.08225
        ]
      }
    },
    {
      "type": "Feature",
      "properties": {
        "type": "new_stop",
        "stop_code": "26274",
        "stop_name": "ביאליק/השוטרת",
        "marker-color": "#1f9ed6",
        "marker-symbol": "bus",
        "marker-size": "medium"
      },
      "geometry": {
        "type": "Point",
        "coordinates": [
          34.814843,
          32.081044
        ]
      }
    },
    {
      "type": "Feature",
      "properties": {
        "type": "reported_block_stop",
        "stop_code": "26249",
        "stop_name": "צומת עלית/ארלוזורוב",
        "marker-color": "#ff8800",
        "marker-symbol": "bus",
        "marker-size": "medium"
      },
      "geometry": {
        "type": "Point",
        "coordinates": [
          34.805596,
          32.081781
        ]
      }
    },
    {
      "type": "Feature",
      "properties": {
        "type": "reported_block_stop",
        "stop_code": "26259",
        "stop_name": "ארלוזורוב/החשמונאים",
        "marker-color": "#ff8800",
        "marker-symbol": "bus",
        "marker-size": "medium"
      },
      "geometry": {
        "type": "Point",
        "coordinates": [
          34.8092,
          32.081361
        ]
      }
    },
    {
      "type": "Feature",
      "properties": {
        "type": "deviate_from_stop",
        "stop_code": "28665",
        "stop_name": "הבורסה/דרך ז'בוטינסקי",
        "marker-color": "#8000ff",
        "marker-symbol": "bus",
        "marker-size": "medium"
      },
      "geometry": {
        "type": "Point",
        "coordinates": [
          34.800724,
          32.082534
        ]
      }
    },
    {
      "type": "Feature",
      "properties": {
        "type": "deviate_to_stop",
        "stop_code": "26140",
        "stop_name": "קריניצי/ביאליק",
        "marker-color": "#8000ff",
        "marker-symbol": "bus",
        "marker-size": "medium"
      },
      "geometry": {
        "type": "Point",
        "coordinates": [
          34.815753,
          32.079296
        ]
      }
    }
  ]
}