{
  "type": "FeatureCollection",
  "features": [
    {
      "type": "Feature",
      "properties": {
        "type": "deviation_path_edge",
        "from_stop_code": "30018",
        "to_stop_code": "37571",
        "stroke": "#00bcd4",
        "stroke-width": 3,
        "stroke-opacity": 0.95
      },
      "geometry": {
        "type": "LineString",
        "coordinates": [
          [
            34.746784021623064,
            32.00205493619861
          ],
          [
            34.746972,
            32.002394
          ],
          [
            34.747098,
            32.002566
          ],
          [
            34.74783,
            32.003594
          ],
          [
            34.747958,
            32.00365
          ],
          [
            34.74801,
            32.003663
          ],
          [
            34.748062,
            32.003669
          ],
          [
            34.748209,
            32.003655
          ],
          [
            34.748476,
            32.003536
          ],
          [
            34.749479,
            32.003166
          ],
          [
            34.749773,
            32.00307
          ],
          [
            34.749955,
            32.003011
          ],
          [
            34.750156,
            32.002966
          ],
          [
            34.750426,
            32.002918
          ],
          [
            34.751129,
            32.002807
          ],
          [
            34.751878,
            32.002708
          ],
          [
            34.752043,
            32.002676
          ],
          [
            34.753112,
            32.002469
          ],
          [
            34.753214,
            32.002452
          ],
          [
            34.75323,
            32.002448
          ],
          [
            34.753259,
            32.002559
          ],
          [
            34.753326,
            32.002875
          ],
          [
            34.753358,
            32.002974
          ],
          [
            34.753519273156016,
            32.00357364291648
          ]
        ]
      }
    },
    {
      "type": "Feature",
      "properties": {
        "type": "deviation_path_edge",
        "from_stop_code": "37571",
        "to_stop_code": "31457",
        "stroke": "#00bcd4",
        "stroke-width": 3,
        "stroke-opacity": 0.95
      },
      "geometry": {
        "type": "LineString",
        "coordinates": [
          [
            34.753519273156016,
            32.00357364291648
          ],
          [
            34.753688,
            32.004201
          ],
          [
            34.753704,
            32.004205
          ],
          [
            34.753722,
            32.004214
          ],
          [
            34.753738,
            32.004224
          ],
          [
            34.753752,
            32.004238
          ],
          [
            34.753762,
            32.004253
          ],
          [
            34.753767,
            32.004264
          ],
          [
            34.75377,
            32.004274
          ],
          [
            34.753771,
            32.004281
          ],
          [
            34.753772,
            32.004292
          ],
          [
            34.75377,
            32.00431
          ],
          [
            34.753764,
            32.004326
          ],
          [
            34.75376,
            32.004334
          ],
          [
            34.7541,
            32.005618
          ],
          [
            34.754173,
            32.005926
          ],
          [
            34.75444094318479,
            32.0068485385603
          ]
        ]
      }
    },
    {
      "type": "Feature",
      "properties": {
        "type": "deviation_path_edge",
        "from_stop_code": "31457",
        "to_stop_code": "36168",
        "stroke": "#00bcd4",
        "stroke-width": 3,
        "stroke-opacity": 0.95
      },
      "geometry": {
        "type": "LineString",
        "coordinates": [
          [
            34.75444094318479,
            32.0068485385603
          ],
          [
            34.754568,
            32.007286
          ],
          [
            34.7548801171031,
            32.00841901693295
          ]
        ]
      }
    },
    {
      "type": "Feature",
      "properties": {
        "type": "deviation_path_edge",
        "from_stop_code": "36168",
        "to_stop_code": "36164",
        "stroke": "#00bcd4",
        "stroke-width": 3,
        "stroke-opacity": 0.95
      },
      "geometry": {
        "type": "LineString",
        "coordinates": [
          [
            34.7548801171031,
            32.00841901693295
          ],
          [
            34.75496,
            32.008709
          ],
          [
            34.755105,
            32.009243
          ],
          [
            34.755117,
            32.009281
          ],
          [
            34.755194,
            32.0094
          ],
          [
            34.7552,
            32.009402
          ],
          [
            34.75521,
            32.009409
          ],
          [
            34.755219,
            32.009416
          ],
          [
            34.755231,
            32.009428
          ],
          [
            34.755239,
            32.009443
          ],
          [
            34.755243,
            32.009453
          ],
          [
            34.755245,
            32.009462
          ],
          [
            34.755246,
            32.009474
          ],
          [
            34.755244,
            32.009489
          ],
          [
            34.755239,
            32.009504
          ],
          [
            34.755231,
            32.009518
          ],
          [
            34.755227,
            32.009523
          ],
          [
            34.755214,
            32.009535
          ],
          [
            34.755199,
            32.009545
          ],
          [
            34.755182,
            32.009552
          ],
          [
            34.755164,
            32.009556
          ],
          [
            34.755151,
            32.009558
          ],
          [
            34.755138,
            32.009558
          ],
          [
            34.75512,
            32.009556
          ],
          [
            34.755104,
            32.009551
          ],
          [
            34.754508,
            32.009946
          ],
          [
            34.75382624213775,
            32.01034656426802
          ]
        ]
      }
    },
    {
      "type": "Feature",
      "properties": {
        "type": "deviation_path_edge",
        "from_stop_code": "36164",
        "to_stop_code": "36161",
        "stroke": "#00bcd4",
        "stroke-width": 3,
        "stroke-opacity": 0.95
      },
      "geometry": {
        "type": "LineString",
        "coordinates": [
          [
            34.75382624213775,
            32.01034656426802
          ],
          [
            34.752886,
            32.010899
          ],
          [
            34.752699,
            32.01098
          ],
          [
            34.752459,
            32.011084
          ],
          [
            34.752308026022426,
            32.01113971249286
          ]
        ]
      }
    },
    {
      "type": "Feature",
      "properties": {
        "type": "deviation_path_edge",
        "from_stop_code": "36161",
        "to_stop_code": "35797",
        "stroke": "#00bcd4",
        "stroke-width": 3,
        "stroke-opacity": 0.95
      },
      "geometry": {
        "type": "LineString",
        "coordinates": [
          [
            34.752308026022426,
            32.01113971249286
          ],
          [
            34.75202,
            32.011246
          ],
          [
            34.751966,
            32.011289
          ],
          [
            34.75193,
            32.011341
          ],
          [
            34.751915,
            32.011381
          ],
          [
            34.751899,
            32.011438
          ],
          [
            34.751972,
            32.011594
          ],
          [
            34.752329,
            32.012265
          ],
          [
            34.752409,
            32.012402
          ],
          [
            34.752674,
            32.012978
          ],
          [
            34.752875,
            32.013377
          ],
          [
            34.752953,
            32.01353
          ],
          [
            34.752982,
            32.013586
          ],
          [
            34.753097,
            32.013826
          ],
          [
            34.753156,
            32.014008
          ],
          [
            34.7531561553527,
            32.01400930257262
          ]
        ]
      }
    },
    {
      "type": "Feature",
      "properties": {
        "type": "original_route_shape",
        "shape_id": "165358",
        "stroke": "#1f2a7a",
        "stroke-width": 3,
        "stroke-opacity": 0.85
      },
      "geometry": {
        "type": "LineString",
        "coordinates": [
          [
            34.74678436272425,
            32.002054683811444
          ],
          [
            34.746972,
            32.002394
          ],
          [
            34.747098,
            32.002566
          ],
          [
            34.74783,
            32.003594
          ],
          [
            34.747954,
            32.003769
          ],
          [
            34.748024,
            32.003866
          ],
          [
            34.748148,
            32.004125
          ],
          [
            34.748778,
            32.005252
          ],
          [
            34.748819,
            32.005324
          ],
          [
            34.749011,
            32.00576
          ],
          [
            34.749629,
            32.006937
          ],
          [
            34.74987,
            32.007394
          ],
          [
            34.750248,
            32.008191
          ],
          [
            34.750336,
            32.008359
          ],
          [
            34.750678,
            32.009009
          ],
          [
            34.750733,
            32.009119
          ],
          [
            34.750871,
            32.009376
          ],
          [
            34.750993,
            32.009627
          ],
          [
            34.751106,
            32.009862
          ],
          [
            34.751193,
            32.010039
          ],
          [
            34.751237,
            32.010116
          ],
          [
            34.751377,
            32.010367
          ],
          [
            34.751635,
            32.010893
          ],
          [
            34.751804,
            32.011214
          ],
          [
            34.751846,
            32.011313
          ],
          [
            34.751899,
            32.011438
          ],
          [
            34.751972,
            32.011594
          ],
          [
            34.752329,
            32.012265
          ],
          [
            34.752409,
            32.012402
          ],
          [
            34.752674,
            32.012978
          ],
          [
            34.752875,
            32.013377
          ],
          [
            34.752953,
            32.01353
          ],
          [
            34.752982,
            32.013586
          ],
          [
            34.753097,
            32.013826
          ],
          [
            34.753156,
            32.014008
          ],
          [
            34.753169,
            32.014117
          ],
          [
            34.753213,
            32.0145
          ],
          [
            34.753213,
            32.014675
          ],
          [
            34.753205,
            32.014758
          ],
          [
            34.753193,
            32.014846
          ],
          [
            34.753154,
            32.014969
          ],
          [
            34.753098,
            32.015058
          ],
          [
            34.753062,
            32.015096
          ],
          [
            34.753018,
            32.015135
          ],
          [
            34.752971,
            32.01517
          ],
          [
            34.752866,
            32.015235
          ],
          [
            34.752707,
            32.015268
          ],
          [
            34.752231,
            32.015439
          ],
          [
            34.751784,
            32.015659
          ],
          [
            34.751547,
            32.015737
          ],
          [
            34.75049,
            32.01607
          ],
          [
            34.7501,
            32.01617
          ],
          [
            34.749963,
            32.016198
          ],
          [
            34.749506,
            32.016319
          ],
          [
            34.749245,
            32.01636
          ],
          [
            34.749095,
            32.016384
          ],
          [
            34.748736,
            32.016424
          ],
          [
            34.748109,
            32.016474
          ],
          [
            34.747603,
            32.016521
          ],
          [
            34.747123,
            32.016605
          ],
          [
            34.747092,
            32.016611
          ],
          [
            34.746627,
            32.016732
          ],
          [
            34.746071,
            32.016915
          ],
          [
            34.745372,
            32.017164
          ],
          [
            34.745502,
            32.017382
          ],
          [
            34.745593,
            32.017599
          ],
          [
            34.745693,
            32.017903
          ],
          [
            34.745676,
            32.018019
          ],
          [
            34.74569,
            32.018157
          ],
          [
            34.74569,
            32.01816
          ],
          [
            34.745691,
            32.018165
          ],
          [
            34.745692,
            32.018579
          ],
          [
            34.745675,
            32.018744
          ],
          [
            34.745669,
            32.018937
          ],
          [
            34.745663,
            32.019004
          ],
          [
            34.745554,
            32.019458
          ],
          [
            34.745438,
            32.021187
          ],
          [
            34.74543,
            32.021333
          ],
          [
            34.745371,
            32.022219
          ],
          [
            34.745356,
            32.022448
          ],
          [
            34.745348,
            32.022574
          ],
          [
            34.74534,
            32.022685
          ],
          [
            34.745269,
            32.023738
          ],
          [
            34.74519,
            32.025196
          ],
          [
            34.745178,
            32.025429
          ],
          [
            34.745154,
            32.025738
          ],
          [
            34.745144,
            32.026418
          ],
          [
            34.745157,
            32.026612
          ],
          [
            34.745169,
            32.026708
          ],
          [
            34.745213,
            32.0268
          ],
          [
            34.745267,
            32.026858
          ],
          [
            34.745279,
            32.026915
          ],
          [
            34.745295,
            32.027072
          ],
          [
            34.745286,
            32.02734
          ],
          [
            34.74528,
            32.027609
          ],
          [
            34.745259,
            32.028047
          ],
          [
            34.745243,
            32.028106
          ],
          [
            34.745075,
            32.028714
          ],
          [
            34.744777,
            32.029899
          ],
          [
            34.744638,
            32.030245
          ],
          [
            34.744336,
            32.030967
          ],
          [
            34.744252,
            32.031209
          ],
          [
            34.744194,
            32.031379
          ],
          [
            34.744063,
            32.031769
          ],
          [
            34.743993,
            32.031992
          ],
          [
            34.743871,
            32.032354
          ],
          [
            34.74386,
            32.032452
          ],
          [
            34.743903,
            32.032456
          ],
          [
            34.743934,
            32.032468
          ],
          [
            34.743967,
            32.032493
          ],
          [
            34.743987,
            32.032519
          ],
          [
            34.743999,
            32.032548
          ],
          [
            34.744004,
            32.032579
          ],
          [
            34.743999,
            32.032611
          ],
          [
            34.743982,
            32.032648
          ],
          [
            34.74396,
            32.032672
          ],
          [
            34.743925,
            32.032695
          ],
          [
            34.743986,
            32.032793
          ],
          [
            34.744126,
            32.032945
          ],
          [
            34.744203,
            32.033003
          ],
          [
            34.744253,
            32.033041
          ],
          [
            34.744739,
            32.033348
          ],
          [
            34.7449,
            32.033462
          ],
          [
            34.744952,
            32.033489
          ],
          [
            34.745368,
            32.033706
          ],
          [
            34.74569,
            32.033826
          ],
          [
            34.746142,
            32.034047
          ],
          [
            34.746315,
            32.034124
          ],
          [
            34.746334,
            32.034122
          ],
          [
            34.746351,
            32.034124
          ],
          [
            34.746362,
            32.034127
          ],
          [
            34.746373,
            32.034131
          ],
          [
            34.746388,
            32.034138
          ],
          [
            34.746401,
            32.034148
          ],
          [
            34.746412,
            32.03416
          ],
          [
            34.74642,
            32.034174
          ],
          [
            34.746423,
            32.034183
          ],
          [
            34.746425,
            32.03419
          ],
          [
            34.74717,
            32.034699
          ],
          [
            34.747412,
            32.034861
          ],
          [
            34.74768,
            32.035085
          ],
          [
            34.747964,
            32.035337
          ],
          [
            34.748059,
            32.035421
          ],
          [
            34.748331,
            32.035682
          ],
          [
            34.748942,
            32.036291
          ],
          [
            34.749108,
            32.036456
          ],
          [
            34.749254,
            32.0366
          ],
          [
            34.749706,
            32.037046
          ],
          [
            34.749936,
            32.037334
          ],
          [
            34.749975,
            32.037384
          ],
          [
            34.750038,
            32.037479
          ],
          [
            34.750218,
            32.037746
          ],
          [
            34.750366,
            32.03798
          ],
          [
            34.750434,
            32.038099
          ],
          [
            34.750444836565705,
            32.038117897913374
          ]
        ]
      }
    },
    {
      "type": "Feature",
      "properties": {
        "type": "original_route_stop",
        "stop_code": "36234",
        "stop_name": "ת.רק''ל יוספטל",
        "marker-color": "#2ca02c",
        "marker-symbol": "bus",
        "marker-size": "medium"
      },
      "geometry": {
        "type": "Point",
        "coordinates": [
          34.751271,
          32.015871
        ]
      }
    },
    {
      "type": "Feature",
      "properties": {
        "type": "original_route_stop",
        "stop_code": "36208",
        "stop_name": "ת.רק''ל בנימין/יוספטל",
        "marker-color": "#2ca02c",
        "marker-symbol": "bus",
        "marker-size": "medium"
      },
      "geometry": {
        "type": "Point",
        "coordinates": [
          34.74747,
          32.01659
        ]
      }
    },
    {
      "type": "Feature",
      "properties": {
        "type": "original_route_stop",
        "stop_code": "33719",
        "stop_name": "בלפור/פרלשטיין",
        "marker-color": "#2ca02c",
        "marker-symbol": "bus",
        "marker-size": "medium"
      },
      "geometry": {
        "type": "Point",
        "coordinates": [
          34.74552,
          32.020751
        ]
      }
    },
    {
      "type": "Feature",
      "properties": {
        "type": "original_route_stop",
        "stop_code": "36215",
        "stop_name": "בלפור/הרב קוק",
        "marker-color": "#2ca02c",
        "marker-symbol": "bus",
        "marker-size": "medium"
      },
      "geometry": {
        "type": "Point",
        "coordinates": [
          34.745285,
          32.02442
        ]
      }
    },
    {
      "type": "Feature",
      "properties": {
        "type": "original_route_stop",
        "stop_code": "36221",
        "stop_name": "בלפור/רוטשילד",
        "marker-color": "#2ca02c",
        "marker-symbol": "bus",
        "marker-size": "medium"
      },
      "geometry": {
        "type": "Point",
        "coordinates": [
          34.745339,
          32.027348
        ]
      }
    },
    {
      "type": "Feature",
      "properties": {
        "type": "original_route_stop",
        "stop_code": "36233",
        "stop_name": "בלפור/שמחה הולצברג",
        "marker-color": "#2ca02c",
        "marker-symbol": "bus",
        "marker-size": "medium"
      },
      "geometry": {
        "type": "Point",
        "coordinates": [
          34.744034,
          32.032033
        ]
      }
    },
    {
      "type": "Feature",
      "properties": {
        "type": "original_route_stop",
        "stop_code": "25201",
        "stop_name": "יפת/יוטבת",
        "marker-color": "#2ca02c",
        "marker-symbol": "bus",
        "marker-size": "medium"
      },
      "geometry": {
        "type": "Point",
        "coordinates": [
          34.745942,
          32.033897
        ]
      }
    },
    {
      "type": "Feature",
      "properties": {
        "type": "original_route_stop",
        "stop_code": "25203",
        "stop_name": "יפת/אייזיק חריף",
        "marker-color": "#2ca02c",
        "marker-symbol": "bus",
        "marker-size": "medium"
      },
      "geometry": {
        "type": "Point",
        "coordinates": [
          34.748487,
          32.035768
        ]
      }
    },
    {
      "type": "Feature",
      "properties": {
        "type": "original_route_stop",
        "stop_code": "25205",
        "stop_name": "יפת/הבעש''ט",
        "marker-color": "#2ca02c",
        "marker-symbol": "bus",
        "marker-size": "medium"
      },
      "geometry": {
        "type": "Point",
        "coordinates": [
          34.75049,
          32.038092
        ]
      }
    },
    {
      "type": "Feature",
      "properties": {
        "type": "cancelled_stop",
        "stop_code": "36118",
        "stop_name": "הרב ניסנבאום/הקוממיות",
        "marker-color": "#ff0000",
        "marker-symbol": "bus",
        "marker-size": "medium"
      },
      "geometry": {
        "type": "Point",
        "coordinates": [
          34.748332,
          32.00435
        ]
      }
    },
    {
      "type": "Feature",
      "properties": {
        "type": "cancelled_stop",
        "stop_code": "36134",
        "stop_name": "ת.רק''ל העמל/הרב ניסנבאום",
        "marker-color": "#ff0000",
        "marker-symbol": "bus",
        "marker-size": "medium"
      },
      "geometry": {
        "type": "Point",
        "coordinates": [
          34.748972,
          32.005543
        ]
      }
    },
    {
      "type": "Feature",
      "properties": {
        "type": "cancelled_stop",
        "stop_code": "36136",
        "stop_name": "הרב ניסנבאום/הרב מיימון",
        "marker-color": "#ff0000",
        "marker-symbol": "bus",
        "marker-size": "medium"
      },
      "geometry": {
        "type": "Point",
        "coordinates": [
          34.750553,
          32.008662
        ]
      }
    },
    {
      "type": "Feature",
      "properties": {
        "type": "cancelled_stop",
        "stop_code": "33082",
        "stop_name": "ת.רק''ל כ''ט בנובמבר/הרב ניסנבאום",
        "marker-color": "#ff0000",
        "marker-symbol": "bus",
        "marker-size": "medium"
      },
      "geometry": {
        "type": "Point",
        "coordinates": [
          34.751494,
          32.010489
        ]
      }
    },
    {
      "type": "Feature",
      "properties": {
        "type": "new_stop",
        "stop_code": "37571",
        "stop_name": "אנה פרנק/הקוממיות",
        "marker-color": "#1f9ed6",
        "marker-symbol": "bus",
        "marker-size": "medium"
      },
      "geometry": {
        "type": "Point",
        "coordinates": [
          34.75357,
          32.00356
        ]
      }
    },
    {
      "type": "Feature",
      "properties": {
        "type": "new_stop",
        "stop_code": "31457",
        "stop_name": "אנה פרנק/הרב מיימון",
        "marker-color": "#1f9ed6",
        "marker-symbol": "bus",
        "marker-size": "medium"
      },
      "geometry": {
        "type": "Point",
        "coordinates": [
          34.754491,
          32.006834
        ]
      }
    },
    {
      "type": "Feature",
      "properties": {
        "type": "new_stop",
        "stop_code": "36168",
        "stop_name": "אנה פרנק/כ''ט בנובמבר",
        "marker-color": "#1f9ed6",
        "marker-symbol": "bus",
        "marker-size": "medium"
      },
      "geometry": {
        "type": "Point",
        "coordinates": [
          34.754931,
          32.008405
        ]
      }
    },
    {
      "type": "Feature",
      "properties": {
        "type": "new_stop",
        "stop_code": "36164",
        "stop_name": "כ''ט בנובמבר/אנה פרנק",
        "marker-color": "#1f9ed6",
        "marker-symbol": "bus",
        "marker-size": "medium"
      },
      "geometry": {
        "type": "Point",
        "coordinates": [
          34.75385,
          32.010387
        ]
      }
    },
    {
      "type": "Feature",
      "properties": {
        "type": "new_stop",
        "stop_code": "36161",
        "stop_name": "ת.רק''ל כ''ט בנובמבר",
        "marker-color": "#1f9ed6",
        "marker-symbol": "bus",
        "marker-size": "medium"
      },
      "geometry": {
        "type": "Point",
        "coordinates": [
          34.752324,
          32.011183
        ]
      }
    },
    {
      "type": "Feature",
      "properties": {
        "type": "reported_block_stop",
        "stop_code": "36134",
        "stop_name": "ת.רק''ל העמל/הרב ניסנבאום",
        "marker-color": "#ff8800",
        "marker-symbol": "bus",
        "marker-size": "medium"
      },
      "geometry": {
        "type": "Point",
        "coordinates": [
          34.748972,
          32.005543
        ]
      }
    },
    {
      "type": "Feature",
      "properties": {
        "type": "reported_block_stop",
        "stop_code": "36136",
        "stop_name": "הרב ניסנבאום/הרב מיימון",
        "marker-color": "#ff8800",
        "marker-symbol": "bus",
        "marker-size": "medium"
      },
      "geometry": {
        "type": "Point",
        "coordinates": [
          34.750553,
          32.008662
        ]
      }
    },
    {
      "type": "Feature",
      "properties": {
        "type": "deviate_from_stop",
        "stop_code": "30018",
        "stop_name": "ת.רק''ל הקוממיות/דרך בגין",
        "marker-color": "#8000ff",
        "marker-symbol": "bus",
        "marker-size": "medium"
      },
      "geometry": {
        "type": "Point",
        "coordinates": [
          34.746829,
          32.00203
        ]
      }
    },
    {
      "type": "Feature",
      "properties": {
        "type": "deviate_to_stop",
        "stop_code": "35797",
        "stop_name": "בית ספר שזר/הרב ניסנבאום",
        "marker-color": "#8000ff",
        "marker-symbol": "bus",
        "marker-size": "medium"
      },
      "geometry": {
        "type": "Point",
        "coordinates": [
          34.753209,
          32.014003
        ]
      }
    }
  ]
}