{
  "type": "FeatureCollection",
  "features": [
    {
      "type": "Feature",
      "properties": {
        "type": "deviation_path_edge",
        "from_stop_code": "2881",
        "to_stop_code": "21303",
        "stroke": "#00bcd4",
        "stroke-width": 3,
        "stroke-opacity": 0.95
      },
      "geometry": {
        "type": "LineString",
        "coordinates": [
          [
            34.78473185813716,
            32.07745645056295
          ],
          [
            34.784831,
            32.077491
          ],
          [
            34.785109,
            32.077588
          ],
          [
            34.78525,
            32.077634
          ],
          [
            34.785555,
            32.077734
          ],
          [
            34.785644,
            32.077764
          ],
          [
            34.785772,
            32.077807
          ],
          [
            34.786781,
            32.07815
          ],
          [
            34.78704,
            32.078224
          ],
          [
            34.787132,
            32.078253
          ],
          [
            34.787248,
            32.0783
          ],
          [
            34.787251,
            32.0783
          ],
          [
            34.787388,
            32.078328
          ],
          [
            34.787521,
            32.078356
          ],
          [
            34.78755,
            32.078362
          ],
          [
            34.787949,
            32.078374
          ],
          [
            34.788031,
            32.078369
          ],
          [
            34.788213,
            32.078274
          ],
          [
            34.788246,
            32.078244
          ],
          [
            34.7883,
            32.078194
          ],
          [
            34.788359,
            32.078044
          ],
          [
            34.788366,
            32.077957
          ],
          [
            34.788378,
            32.07789
          ],
          [
            34.788394,
            32.077835
          ],
          [
            34.788414,
            32.077786
          ],
          [
            34.788497,
            32.077603
          ],
          [
            34.788643,
            32.077268
          ],
          [
            34.78875,
            32.07706
          ],
          [
            34.788781,
            32.076999
          ],
          [
            34.788822,
            32.07691
          ],
          [
            34.788917,
            32.076942
          ],
          [
            34.789457,
            32.077118
          ],
          [
            34.789918,
            32.077271
          ],
          [
            34.790403,
            32.077422
          ],
          [
            34.7905296031964,
            32.07746370458234
          ]
        ]
      }
    },
    {
      "type": "Feature",
      "properties": {
        "type": "deviation_path_edge",
        "from_stop_code": "21303",
        "to_stop_code": "21140",
        "stroke": "#00bcd4",
        "stroke-width": 3,
        "stroke-opacity": 0.95
      },
      "geometry": {
        "type": "LineString",
        "coordinates": [
          [
            34.7905296031964,
            32.07746370458234
          ],
          [
            34.790828,
            32.077562
          ],
          [
            34.791185,
            32.077688
          ],
          [
            34.791379,
            32.077757
          ],
          [
            34.791533,
            32.077804
          ],
          [
            34.791641,
            32.077837
          ],
          [
            34.791839,
            32.077902
          ],
          [
            34.792009,
            32.077943
          ],
          [
            34.792358,
            32.078013
          ],
          [
            34.792491,
            32.07804
          ],
          [
            34.792585,
            32.078053
          ],
          [
            34.792626,
            32.078052
          ],
          [
            34.792659,
            32.078051
          ],
          [
            34.792739,
            32.078042
          ],
          [
            34.792809,
            32.078022
          ],
          [
            34.792859,
            32.078019
          ],
          [
            34.792911,
            32.078019
          ],
          [
            34.792961,
            32.07803
          ],
          [
            34.793011,
            32.078049
          ],
          [
            34.793386,
            32.078787
          ],
          [
            34.793413,
            32.078841
          ],
          [
            34.793449,
            32.078897
          ],
          [
            34.793528,
            32.079024
          ],
          [
            34.793737,
            32.079317
          ],
          [
            34.793818,
            32.079432
          ],
          [
            34.793877,
            32.079526
          ],
          [
            34.793929,
            32.079624
          ],
          [
            34.793954,
            32.079666
          ],
          [
            34.79399,
            32.079775
          ],
          [
            34.794056,
            32.079988
          ],
          [
            34.794145,
            32.080267
          ],
          [
            34.794232,
            32.080616
          ],
          [
            34.794476,
            32.081728
          ],
          [
            34.794501,
            32.081843
          ],
          [
            34.794587,
            32.082191
          ],
          [
            34.794725,
            32.082374
          ],
          [
            34.794773,
            32.082405
          ],
          [
            34.794779,
            32.082409
          ],
          [
            34.794842,
            32.082424
          ],
          [
            34.795073,
            32.082416
          ],
          [
            34.795154,
            32.082383
          ],
          [
            34.795258,
            32.082338
          ],
          [
            34.795371,
            32.082284
          ],
          [
            34.79549112006651,
            32.082201474763465
          ]
        ]
      }
    },
    {
      "type": "Feature",
      "properties": {
        "type": "original_route_shape",
        "shape_id": "163945",
        "stroke": "#1f2a7a",
        "stroke-width": 3,
        "stroke-opacity": 0.85
      },
      "geometry": {
        "type": "LineString",
        "coordinates": [
          [
            34.784699,
            32.077445
          ],
          [
            34.784831,
            32.077491
          ],
          [
            34.785109,
            32.077588
          ],
          [
            34.78525,
            32.077634
          ],
          [
            34.785555,
            32.077734
          ],
          [
            34.785644,
            32.077764
          ],
          [
            34.785772,
            32.077807
          ],
          [
            34.786781,
            32.07815
          ],
          [
            34.78704,
            32.078224
          ],
          [
            34.787132,
            32.078253
          ],
          [
            34.787248,
            32.0783
          ],
          [
            34.787251,
            32.0783
          ],
          [
            34.787388,
            32.078328
          ],
          [
            34.787521,
            32.078356
          ],
          [
            34.78755,
            32.078362
          ],
          [
            34.787948,
            32.078374
          ],
          [
            34.787949,
            32.078374
          ],
          [
            34.788031,
            32.078369
          ],
          [
            34.78836,
            32.078355
          ],
          [
            34.78836,
            32.078329
          ],
          [
            34.78847,
            32.078357
          ],
          [
            34.788487,
            32.078593
          ],
          [
            34.788491,
            32.078616
          ],
          [
            34.788588,
            32.079292
          ],
          [
            34.788653,
            32.079761
          ],
          [
            34.788675,
            32.079916
          ],
          [
            34.788761,
            32.080429
          ],
          [
            34.788821,
            32.080791
          ],
          [
            34.788857,
            32.081028
          ],
          [
            34.788869,
            32.081114
          ],
          [
            34.78888,
            32.081185
          ],
          [
            34.788901,
            32.081323
          ],
          [
            34.78893,
            32.081556
          ],
          [
            34.788971,
            32.081863
          ],
          [
            34.789023,
            32.082197
          ],
          [
            34.789025,
            32.082221
          ],
          [
            34.789073,
            32.08262
          ],
          [
            34.789093,
            32.082793
          ],
          [
            34.789159,
            32.083359
          ],
          [
            34.789223,
            32.083458
          ],
          [
            34.789264,
            32.083493
          ],
          [
            34.789291,
            32.083507
          ],
          [
            34.789303,
            32.083513
          ],
          [
            34.789328,
            32.083522
          ],
          [
            34.789371,
            32.083526
          ],
          [
            34.789528,
            32.083519
          ],
          [
            34.789768,
            32.083469
          ],
          [
            34.790752,
            32.083265
          ],
          [
            34.791535,
            32.083102
          ],
          [
            34.791739,
            32.08306
          ],
          [
            34.792148,
            32.082981
          ],
          [
            34.792597,
            32.08291
          ],
          [
            34.793652,
            32.08273
          ],
          [
            34.794078,
            32.082655
          ],
          [
            34.794514,
            32.082568
          ],
          [
            34.794662,
            32.082546
          ],
          [
            34.794792,
            32.082522
          ],
          [
            34.794866,
            32.0825
          ],
          [
            34.794931,
            32.082476
          ],
          [
            34.795073,
            32.082416
          ],
          [
            34.795154,
            32.082383
          ],
          [
            34.795258,
            32.082338
          ],
          [
            34.795371,
            32.082284
          ],
          [
            34.795502,
            32.082194
          ],
          [
            34.795872,
            32.081904
          ],
          [
            34.795965,
            32.081829
          ],
          [
            34.79608,
            32.08173
          ],
          [
            34.796122,
            32.081689
          ],
          [
            34.796175,
            32.081638
          ],
          [
            34.796297,
            32.08152
          ],
          [
            34.796526,
            32.081271
          ],
          [
            34.796773,
            32.081002
          ],
          [
            34.796842,
            32.080929
          ],
          [
            34.796954,
            32.080806
          ],
          [
            34.797092,
            32.080676
          ],
          [
            34.797111,
            32.080658
          ],
          [
            34.797261,
            32.08055
          ],
          [
            34.79773982328379,
            32.08017390932374
          ]
        ]
      }
    },
    {
      "type": "Feature",
      "properties": {
        "type": "original_route_stop",
        "stop_code": "20017",
        "stop_name": "גשר דוד שיפמן /דרך מנחם בגין",
        "marker-color": "#2ca02c",
        "marker-symbol": "bus",
        "marker-size": "medium"
      },
      "geometry": {
        "type": "Point",
        "coordinates": [
          34.797359,
          32.080412
        ]
      }
    },
    {
      "type": "Feature",
      "properties": {
        "type": "cancelled_stop",
        "stop_code": "21238",
        "stop_name": "בית המשפט/ויצמן",
        "marker-color": "#ff0000",
        "marker-symbol": "bus",
        "marker-size": "medium"
      },
      "geometry": {
        "type": "Point",
        "coordinates": [
          34.788581,
          32.078868
        ]
      }
    },
    {
      "type": "Feature",
      "properties": {
        "type": "cancelled_stop",
        "stop_code": "21815",
        "stop_name": "ביה''ח איכילוב/ויצמן",
        "marker-color": "#ff0000",
        "marker-symbol": "bus",
        "marker-size": "medium"
      },
      "geometry": {
        "type": "Point",
        "coordinates": [
          34.788879,
          32.080816
        ]
      }
    },
    {
      "type": "Feature",
      "properties": {
        "type": "cancelled_stop",
        "stop_code": "25882",
        "stop_name": "ארלוזורוב/ויצמן",
        "marker-color": "#ff0000",
        "marker-symbol": "bus",
        "marker-size": "medium"
      },
      "geometry": {
        "type": "Point",
        "coordinates": [
          34.790102,
          32.083353
        ]
      }
    },
    {
      "type": "Feature",
      "properties": {
        "type": "cancelled_stop",
        "stop_code": "21035",
        "stop_name": "ארלוזורוב/דרך נמיר",
        "marker-color": "#ff0000",
        "marker-symbol": "bus",
        "marker-size": "medium"
      },
      "geometry": {
        "type": "Point",
        "coordinates": [
          34.793207,
          32.08276
        ]
      }
    },
    {
      "type": "Feature",
      "properties": {
        "type": "new_stop",
        "stop_code": "21303",
        "stop_name": "בית הדר דפנה/שד' שאול המלך",
        "marker-color": "#1f9ed6",
        "marker-symbol": "bus",
        "marker-size": "medium"
      },
      "geometry": {
        "type": "Point",
        "coordinates": [
          34.790544,
          32.07742
        ]
      }
    },
    {
      "type": "Feature",
      "properties": {
        "type": "reported_block_stop",
        "stop_code": "21238",
        "stop_name": "בית המשפט/ויצמן",
        "marker-color": "#ff8800",
        "marker-symbol": "bus",
        "marker-size": "medium"
      },
      "geometry": {
        "type": "Point",
        "coordinates": [
          34.788581,
          32.078868
        ]
      }
    },
    {
      "type": "Feature",
      "properties": {
        "type": "reported_block_stop",
        "stop_code": "21815",
        "stop_name": "ביה''ח איכילוב/ויצמן",
        "marker-color": "#ff8800",
        "marker-symbol": "bus",
        "marker-size": "medium"
      },
      "geometry": {
        "type": "Point",
        "coordinates": [
          34.788879,
          32.080816
        ]
      }
    },
    {
      "type": "Feature",
      "properties": {
        "type": "deviate_from_stop",
        "stop_code": "2881",
        "stop_name": "תחנה תפעולית/מסוף גולדה",
        "marker-color": "#8000ff",
        "marker-symbol": "bus",
        "marker-size": "medium"
      },
      "geometry": {
        "type": "Point",
        "coordinates": [
          34.784747,
          32.077413
        ]
      }
    },
    {
      "type": "Feature",
      "properties": {
        "type": "deviate_to_stop",
        "stop_code": "21140",
        "stop_name": "ת. רכבת תל אביב סבידור/על פרשת דרכים",
        "marker-color": "#8000ff",
        "marker-symbol": "bus",
        "marker-size": "medium"
      },
      "geometry": {
        "type": "Point",
        "coordinates": [
          34.795464,
          32.082162
        ]
      }
    }
  ]
}