{
  "type": "FeatureCollection",
  "features": [
    {
      "type": "Feature",
      "properties": {
        "type": "deviation_path",
        "trip_id": "10694125_020826",
        "shape_id": "165394",
        "stroke": "#00bcd4",
        "stroke-width": 3,
        "stroke-opacity": 0.95
      },
      "geometry": {
        "type": "LineString",
        "coordinates": [
          [
            34.815313576384234,
            32.058513543637986
          ],
          [
            34.814722,
            32.058467
          ],
          [
            34.814657,
            32.058468
          ],
          [
            34.813295,
            32.058487
          ],
          [
            34.813037,
            32.058517
          ],
          [
            34.812392,
            32.058592
          ],
          [
            34.811823,
            32.058693
          ],
          [
            34.811797,
            32.058568
          ],
          [
            34.811752,
            32.058368
          ],
          [
            34.811691,
            32.058121
          ],
          [
            34.811619,
            32.057832
          ],
          [
            34.811589,
            32.057714
          ],
          [
            34.811543,
            32.057527
          ],
          [
            34.811503,
            32.057376
          ],
          [
            34.811498,
            32.057351
          ],
          [
            34.811473,
            32.057233
          ],
          [
            34.811432,
            32.057109
          ],
          [
            34.811405,
            32.057027
          ],
          [
            34.811344,
            32.05684
          ],
          [
            34.811319,
            32.056767
          ],
          [
            34.811281,
            32.056651
          ],
          [
            34.811246,
            32.056548
          ],
          [
            34.811181,
            32.056354
          ],
          [
            34.811148,
            32.056253
          ],
          [
            34.811094,
            32.056125
          ],
          [
            34.811074,
            32.056079
          ],
          [
            34.811057,
            32.05605
          ],
          [
            34.810957,
            32.05584
          ],
          [
            34.810851,
            32.055661
          ],
          [
            34.810782,
            32.055544
          ],
          [
            34.810736,
            32.055459
          ],
          [
            34.810673,
            32.055359
          ],
          [
            34.810527,
            32.055102
          ],
          [
            34.810434,
            32.054951
          ],
          [
            34.809998,
            32.055215
          ],
          [
            34.809856,
            32.055306
          ],
          [
            34.809816,
            32.055332
          ],
          [
            34.809794,
            32.055347
          ],
          [
            34.809781,
            32.055353
          ],
          [
            34.809429,
            32.055537
          ],
          [
            34.8089,
            32.055794
          ],
          [
            34.808392,
            32.056017
          ],
          [
            34.807933,
            32.056185
          ],
          [
            34.80778,
            32.056234
          ],
          [
            34.806797,
            32.05655
          ],
          [
            34.806629,
            32.056612
          ],
          [
            34.806492,
            32.056661
          ],
          [
            34.806387,
            32.0567
          ],
          [
            34.806269,
            32.056743
          ],
          [
            34.806219,
            32.05676
          ],
          [
            34.805796,
            32.056901
          ],
          [
            34.805397,
            32.057055
          ],
          [
            34.80515,
            32.05719
          ],
          [
            34.804928,
            32.057348
          ],
          [
            34.804826,
            32.057443
          ],
          [
            34.804788,
            32.057478
          ],
          [
            34.804759,
            32.057503
          ],
          [
            34.804715,
            32.05754
          ],
          [
            34.804567,
            32.057709
          ],
          [
            34.804419,
            32.057937
          ],
          [
            34.80431,
            32.058165
          ],
          [
            34.804288,
            32.05821
          ],
          [
            34.804192,
            32.058497
          ],
          [
            34.804155,
            32.058843
          ],
          [
            34.804147,
            32.05905
          ],
          [
            34.80407,
            32.059192
          ],
          [
            34.803972,
            32.0593
          ],
          [
            34.803458,
            32.05929
          ],
          [
            34.803108,
            32.059279
          ],
          [
            34.80295143268218,
            32.059274013779685
          ]
        ]
      }
    },
    {
      "type": "Feature",
      "properties": {
        "type": "original_route_shape",
        "shape_id": "163134",
        "stroke": "#1f2a7a",
        "stroke-width": 3,
        "stroke-opacity": 0.85
      },
      "geometry": {
        "type": "LineString",
        "coordinates": [
          [
            34.84396737076528,
            32.06556388967836
          ],
          [
            34.843853,
            32.065537
          ],
          [
            34.843626,
            32.065466
          ],
          [
            34.84347,
            32.065419
          ],
          [
            34.843292,
            32.065375
          ],
          [
            34.842974,
            32.065298
          ],
          [
            34.842564,
            32.065208
          ],
          [
            34.842235,
            32.065145
          ],
          [
            34.841933,
            32.065107
          ],
          [
            34.841588,
            32.065106
          ],
          [
            34.84114,
            32.065118
          ],
          [
            34.840746,
            32.065151
          ],
          [
            34.840541,
            32.065167
          ],
          [
            34.839415,
            32.065272
          ],
          [
            34.839246,
            32.065289
          ],
          [
            34.839041,
            32.065308
          ],
          [
            34.838935,
            32.065318
          ],
          [
            34.838699,
            32.06534
          ],
          [
            34.838581,
            32.065343
          ],
          [
            34.838458,
            32.065345
          ],
          [
            34.83835,
            32.065339
          ],
          [
            34.83823,
            32.065314
          ],
          [
            34.8381,
            32.065277
          ],
          [
            34.838006,
            32.065243
          ],
          [
            34.837942,
            32.065212
          ],
          [
            34.837861,
            32.065161
          ],
          [
            34.837801,
            32.065119
          ],
          [
            34.837754,
            32.065079
          ],
          [
            34.837703,
            32.065026
          ],
          [
            34.837664,
            32.064977
          ],
          [
            34.837628,
            32.064927
          ],
          [
            34.837588,
            32.064865
          ],
          [
            34.837573,
            32.064831
          ],
          [
            34.837478,
            32.064616
          ],
          [
            34.83742,
            32.064469
          ],
          [
            34.837339,
            32.064199
          ],
          [
            34.837231,
            32.063839
          ],
          [
            34.837133,
            32.063548
          ],
          [
            34.837043,
            32.063302
          ],
          [
            34.836756,
            32.062682
          ],
          [
            34.834969,
            32.05857
          ],
          [
            34.834968,
            32.058569
          ],
          [
            34.834509,
            32.057483
          ],
          [
            34.834416,
            32.057289
          ],
          [
            34.834342,
            32.057199
          ],
          [
            34.834212,
            32.05711
          ],
          [
            34.834127,
            32.057084
          ],
          [
            34.834032,
            32.057053
          ],
          [
            34.83391,
            32.057045
          ],
          [
            34.833808,
            32.057047
          ],
          [
            34.833612,
            32.057086
          ],
          [
            34.833361,
            32.057164
          ],
          [
            34.833321,
            32.057176
          ],
          [
            34.832777,
            32.057369
          ],
          [
            34.832321,
            32.057517
          ],
          [
            34.832317,
            32.057518
          ],
          [
            34.831648,
            32.057702
          ],
          [
            34.8308,
            32.057987
          ],
          [
            34.83007,
            32.058226
          ],
          [
            34.82878,
            32.058605
          ],
          [
            34.828118,
            32.058782
          ],
          [
            34.828071,
            32.058798
          ],
          [
            34.828024,
            32.058816
          ],
          [
            34.827569,
            32.058956
          ],
          [
            34.825844,
            32.059457
          ],
          [
            34.825249,
            32.059605
          ],
          [
            34.825069,
            32.059639
          ],
          [
            34.82466,
            32.059728
          ],
          [
            34.824432,
            32.059787
          ],
          [
            34.824172,
            32.059836
          ],
          [
            34.823989,
            32.059877
          ],
          [
            34.823825,
            32.059906
          ],
          [
            34.823637,
            32.059928
          ],
          [
            34.823343,
            32.059953
          ],
          [
            34.823078,
            32.059969
          ],
          [
            34.822704,
            32.059969
          ],
          [
            34.822682,
            32.059969
          ],
          [
            34.822469,
            32.059953
          ],
          [
            34.822175,
            32.059915
          ],
          [
            34.821799,
            32.059839
          ],
          [
            34.821482,
            32.059767
          ],
          [
            34.821248,
            32.059694
          ],
          [
            34.821102,
            32.059653
          ],
          [
            34.819106,
            32.059277
          ],
          [
            34.818996,
            32.059256
          ],
          [
            34.81812,
            32.059052
          ],
          [
            34.816722,
            32.05872
          ],
          [
            34.81655,
            32.058679
          ],
          [
            34.8164,
            32.058656
          ],
          [
            34.815776,
            32.058563
          ],
          [
            34.815599,
            32.058536
          ],
          [
            34.814722,
            32.058467
          ],
          [
            34.814657,
            32.058468
          ],
          [
            34.813295,
            32.058487
          ],
          [
            34.813037,
            32.058517
          ],
          [
            34.812392,
            32.058592
          ],
          [
            34.811823,
            32.058693
          ],
          [
            34.811447,
            32.05876
          ],
          [
            34.811159,
            32.058811
          ],
          [
            34.810891,
            32.058856
          ],
          [
            34.810591,
            32.058903
          ],
          [
            34.810353,
            32.058941
          ],
          [
            34.810318,
            32.058948
          ],
          [
            34.809484,
            32.059112
          ],
          [
            34.808823,
            32.059292
          ],
          [
            34.808099,
            32.059517
          ],
          [
            34.807302,
            32.059841
          ],
          [
            34.806699,
            32.060157
          ],
          [
            34.806456,
            32.060309
          ],
          [
            34.805799,
            32.060757
          ],
          [
            34.80557,
            32.060983
          ],
          [
            34.805414,
            32.061136
          ],
          [
            34.805226,
            32.061315
          ],
          [
            34.805193,
            32.061346
          ],
          [
            34.805137,
            32.0614
          ],
          [
            34.805008,
            32.061327
          ],
          [
            34.804717,
            32.061096
          ],
          [
            34.804588,
            32.060968
          ],
          [
            34.804527,
            32.060913
          ],
          [
            34.80448,
            32.060861
          ],
          [
            34.804402,
            32.060761
          ],
          [
            34.804308,
            32.060635
          ],
          [
            34.804226,
            32.060506
          ],
          [
            34.804056,
            32.060082
          ],
          [
            34.804036,
            32.060014
          ],
          [
            34.804023,
            32.059954
          ],
          [
            34.804008,
            32.059879
          ],
          [
            34.803931,
            32.059573
          ],
          [
            34.803884,
            32.059477
          ],
          [
            34.803802,
            32.059399
          ],
          [
            34.803673,
            32.059347
          ],
          [
            34.803458,
            32.05929
          ],
          [
            34.803108,
            32.059279
          ],
          [
            34.802637,
            32.059264
          ],
          [
            34.802487,
            32.059259
          ],
          [
            34.8019,
            32.059226
          ],
          [
            34.801314,
            32.059196
          ],
          [
            34.800685,
            32.059182
          ],
          [
            34.800541,
            32.0593
          ],
          [
            34.800507,
            32.05933
          ],
          [
            34.800451,
            32.059396
          ],
          [
            34.800444,
            32.059723
          ],
          [
            34.800386,
            32.060386
          ],
          [
            34.80033,
            32.060731
          ],
          [
            34.800274,
            32.061061
          ],
          [
            34.800272,
            32.061071
          ],
          [
            34.800098,
            32.061643
          ],
          [
            34.799858,
            32.062278
          ],
          [
            34.799831,
            32.062349
          ],
          [
            34.799689,
            32.062745
          ],
          [
            34.79951,
            32.063245
          ],
          [
            34.799379,
            32.063633
          ],
          [
            34.799296,
            32.063882
          ],
          [
            34.799197,
            32.064227
          ],
          [
            34.799166,
            32.064334
          ],
          [
            34.799008,
            32.064308
          ],
          [
            34.798507,
            32.064226
          ],
          [
            34.798032,
            32.064138
          ],
          [
            34.797925,
            32.064119
          ],
          [
            34.797596,
            32.064066
          ],
          [
            34.796741,
            32.063986
          ],
          [
            34.795566,
            32.063946
          ],
          [
            34.795247,
            32.063954
          ],
          [
            34.794674,
            32.063993
          ],
          [
            34.794163,
            32.064027
          ],
          [
            34.79358,
            32.064098
          ],
          [
            34.792627,
            32.064258
          ],
          [
            34.792343,
            32.064317
          ],
          [
            34.792208,
            32.064346
          ],
          [
            34.791831,
            32.064414
          ],
          [
            34.791581,
            32.064459
          ],
          [
            34.791454,
            32.064479
          ],
          [
            34.791217,
            32.06452
          ],
          [
            34.790913,
            32.064572
          ],
          [
            34.790724,
            32.064604
          ],
          [
            34.790471,
            32.064649
          ],
          [
            34.789549,
            32.064804
          ],
          [
            34.789159,
            32.064876
          ],
          [
            34.788835,
            32.064952
          ],
          [
            34.788775,
            32.064963
          ],
          [
            34.788478,
            32.065015
          ],
          [
            34.788302,
            32.065032
          ],
          [
            34.788141,
            32.065039
          ],
          [
            34.787775,
            32.065097
          ],
          [
            34.787773,
            32.065097
          ],
          [
            34.787123,
            32.065214
          ],
          [
            34.786922,
            32.065286
          ],
          [
            34.78666,
            32.065337
          ],
          [
            34.786386,
            32.065386
          ],
          [
            34.786274,
            32.065404
          ],
          [
            34.785861,
            32.065504
          ],
          [
            34.785726,
            32.065535
          ],
          [
            34.785292126770635,
            32.06563170152844
          ]
        ]
      }
    },
    {
      "type": "Feature",
      "properties": {
        "type": "original_route_stop",
        "stop_code": "38128",
        "stop_name": "אוניברסיטת בר אילן/דרך אשכול",
        "marker-color": "#2ca02c",
        "marker-symbol": "bus",
        "marker-size": "medium"
      },
      "geometry": {
        "type": "Point",
        "coordinates": [
          34.843957,
          32.065608
        ]
      }
    },
    {
      "type": "Feature",
      "properties": {
        "type": "original_route_stop",
        "stop_code": "21132",
        "stop_name": "אלוף שדה/כביש 4",
        "marker-color": "#2ca02c",
        "marker-symbol": "bus",
        "marker-size": "medium"
      },
      "geometry": {
        "type": "Point",
        "coordinates": [
          34.832771,
          32.057419
        ]
      }
    },
    {
      "type": "Feature",
      "properties": {
        "type": "original_route_stop",
        "stop_code": "21042",
        "stop_name": "אלוף שדה/הירדן",
        "marker-color": "#2ca02c",
        "marker-symbol": "bus",
        "marker-size": "medium"
      },
      "geometry": {
        "type": "Point",
        "coordinates": [
          34.826633,
          32.059276
        ]
      }
    },
    {
      "type": "Feature",
      "properties": {
        "type": "original_route_stop",
        "stop_code": "26035",
        "stop_name": "דרך משה דיין/משה שטינשנידר",
        "marker-color": "#2ca02c",
        "marker-symbol": "bus",
        "marker-size": "medium"
      },
      "geometry": {
        "type": "Point",
        "coordinates": [
          34.800182,
          32.061547
        ]
      }
    },
    {
      "type": "Feature",
      "properties": {
        "type": "original_route_stop",
        "stop_code": "25695",
        "stop_name": "דרך משה דיין/הרכבי",
        "marker-color": "#2ca02c",
        "marker-symbol": "bus",
        "marker-size": "medium"
      },
      "geometry": {
        "type": "Point",
        "coordinates": [
          34.799609,
          32.063125
        ]
      }
    },
    {
      "type": "Feature",
      "properties": {
        "type": "original_route_stop",
        "stop_code": "25740",
        "stop_name": "ביה''ס ניב/יצחק שדה",
        "marker-color": "#2ca02c",
        "marker-symbol": "bus",
        "marker-size": "medium"
      },
      "geometry": {
        "type": "Point",
        "coordinates": [
          34.796565,
          32.064025
        ]
      }
    },
    {
      "type": "Feature",
      "properties": {
        "type": "original_route_stop",
        "stop_code": "21587",
        "stop_name": "סינרמה/יצחק שדה",
        "marker-color": "#2ca02c",
        "marker-symbol": "bus",
        "marker-size": "medium"
      },
      "geometry": {
        "type": "Point",
        "coordinates": [
          34.791082,
          32.064589
        ]
      }
    },
    {
      "type": "Feature",
      "properties": {
        "type": "original_route_stop",
        "stop_code": "21422",
        "stop_name": "יצחק שדה/שונצינו",
        "marker-color": "#2ca02c",
        "marker-symbol": "bus",
        "marker-size": "medium"
      },
      "geometry": {
        "type": "Point",
        "coordinates": [
          34.787835,
          32.065133
        ]
      }
    },
    {
      "type": "Feature",
      "properties": {
        "type": "original_route_stop",
        "stop_code": "21237",
        "stop_name": "יצחק שדה/המסגר",
        "marker-color": "#2ca02c",
        "marker-symbol": "bus",
        "marker-size": "medium"
      },
      "geometry": {
        "type": "Point",
        "coordinates": [
          34.785302,
          32.065676
        ]
      }
    },
    {
      "type": "Feature",
      "properties": {
        "type": "cancelled_stop",
        "stop_code": "21032",
        "stop_name": "דרך השלום/המאבק",
        "marker-color": "#ff0000",
        "marker-symbol": "bus",
        "marker-size": "medium"
      },
      "geometry": {
        "type": "Point",
        "coordinates": [
          34.809867,
          32.059083
        ]
      }
    },
    {
      "type": "Feature",
      "properties": {
        "type": "cancelled_stop",
        "stop_code": "21655",
        "stop_name": "דרך השלום/דרך הטייסים",
        "marker-color": "#ff0000",
        "marker-symbol": "bus",
        "marker-size": "medium"
      },
      "geometry": {
        "type": "Point",
        "coordinates": [
          34.806529,
          32.060318
        ]
      }
    },
    {
      "type": "Feature",
      "properties": {
        "type": "cancelled_stop",
        "stop_code": "26042",
        "stop_name": "דרך הטייסים/דרך השלום",
        "marker-color": "#ff0000",
        "marker-symbol": "bus",
        "marker-size": "medium"
      },
      "geometry": {
        "type": "Point",
        "coordinates": [
          34.803967,
          32.059945
        ]
      }
    },
    {
      "type": "Feature",
      "properties": {
        "type": "new_stop",
        "stop_code": "26071",
        "stop_name": "עודד/אלוף דוד",
        "marker-color": "#1f9ed6",
        "marker-symbol": "bus",
        "marker-size": "medium"
      },
      "geometry": {
        "type": "Point",
        "coordinates": [
          34.811478,
          32.057488
        ]
      }
    },
    {
      "type": "Feature",
      "properties": {
        "type": "new_stop",
        "stop_code": "21590",
        "stop_name": "דרך הטייסים/עודד",
        "marker-color": "#1f9ed6",
        "marker-symbol": "bus",
        "marker-size": "medium"
      },
      "geometry": {
        "type": "Point",
        "coordinates": [
          34.809903,
          32.055332
        ]
      }
    },
    {
      "type": "Feature",
      "properties": {
        "type": "new_stop",
        "stop_code": "21433",
        "stop_name": "פארק וולפסון/דרך הטייסים",
        "marker-color": "#1f9ed6",
        "marker-symbol": "bus",
        "marker-size": "medium"
      },
      "geometry": {
        "type": "Point",
        "coordinates": [
          34.806935,
          32.056554
        ]
      }
    },
    {
      "type": "Feature",
      "properties": {
        "type": "new_stop",
        "stop_code": "21602",
        "stop_name": "אורט סינגלובסקי/דרך הטייסים",
        "marker-color": "#1f9ed6",
        "marker-symbol": "bus",
        "marker-size": "medium"
      },
      "geometry": {
        "type": "Point",
        "coordinates": [
          34.805055,
          32.057317
        ]
      }
    },
    {
      "type": "Feature",
      "properties": {
        "type": "reported_block_stop",
        "stop_code": "21655",
        "stop_name": "דרך השלום/דרך הטייסים",
        "marker-color": "#ff8800",
        "marker-symbol": "bus",
        "marker-size": "medium"
      },
      "geometry": {
        "type": "Point",
        "coordinates": [
          34.806529,
          32.060318
        ]
      }
    },
    {
      "type": "Feature",
      "properties": {
        "type": "reported_block_stop",
        "stop_code": "26042",
        "stop_name": "דרך הטייסים/דרך השלום",
        "marker-color": "#ff8800",
        "marker-symbol": "bus",
        "marker-size": "medium"
      },
      "geometry": {
        "type": "Point",
        "coordinates": [
          34.803967,
          32.059945
        ]
      }
    },
    {
      "type": "Feature",
      "properties": {
        "type": "deviate_from_stop",
        "stop_code": "22926",
        "stop_name": "אלוף שדה/כורזין",
        "marker-color": "#8000ff",
        "marker-symbol": "bus",
        "marker-size": "medium"
      },
      "geometry": {
        "type": "Point",
        "coordinates": [
          34.81531,
          32.058559
        ]
      }
    },
    {
      "type": "Feature",
      "properties": {
        "type": "deviate_to_stop",
        "stop_code": "21595",
        "stop_name": "לה גווארדייה/דרך הטייסים",
        "marker-color": "#8000ff",
        "marker-symbol": "bus",
        "marker-size": "medium"
      },
      "geometry": {
        "type": "Point",
        "coordinates": [
          34.80295,
          32.059319
        ]
      }
    }
  ]
}