{
  "type": "FeatureCollection",
  "features": [
    {
      "type": "Feature",
      "properties": {
        "type": "deviation_path_edge",
        "from_stop_code": "36121",
        "to_stop_code": "36129",
        "stroke": "#00bcd4",
        "stroke-width": 3,
        "stroke-opacity": 0.95
      },
      "geometry": {
        "type": "LineString",
        "coordinates": [
          [
            34.74256809475658,
            32.00849432368293
          ],
          [
            34.743129,
            32.008987
          ],
          [
            34.74355,
            32.00936
          ],
          [
            34.743636,
            32.009441
          ],
          [
            34.744103,
            32.009805
          ],
          [
            34.744126,
            32.009803
          ],
          [
            34.744136,
            32.009802
          ],
          [
            34.744156,
            32.009804
          ],
          [
            34.744162,
            32.009805
          ],
          [
            34.744175,
            32.009807
          ],
          [
            34.744195,
            32.009813
          ],
          [
            34.744212,
            32.00982
          ],
          [
            34.744229,
            32.00983
          ],
          [
            34.744244,
            32.009841
          ],
          [
            34.744258,
            32.009853
          ],
          [
            34.744263,
            32.00986
          ],
          [
            34.744274,
            32.009874
          ],
          [
            34.744282,
            32.00989
          ],
          [
            34.744288,
            32.009906
          ],
          [
            34.744292,
            32.009922
          ],
          [
            34.744293,
            32.009939
          ],
          [
            34.744292,
            32.009956
          ],
          [
            34.74429,
            32.009961
          ],
          [
            34.744288,
            32.009973
          ],
          [
            34.744282,
            32.009989
          ],
          [
            34.744273,
            32.010004
          ],
          [
            34.744263,
            32.010019
          ],
          [
            34.744255,
            32.010027
          ],
          [
            34.744243,
            32.010038
          ],
          [
            34.744235,
            32.010043
          ],
          [
            34.744219,
            32.010053
          ],
          [
            34.744202,
            32.010062
          ],
          [
            34.744193,
            32.010065
          ],
          [
            34.744174,
            32.010071
          ],
          [
            34.744155,
            32.010074
          ],
          [
            34.744135,
            32.010075
          ],
          [
            34.744125,
            32.010075
          ],
          [
            34.744105,
            32.010073
          ],
          [
            34.744082,
            32.010068
          ],
          [
            34.74384,
            32.010327
          ],
          [
            34.7438154694923,
            32.01034959133713
          ]
        ]
      }
    },
    {
      "type": "Feature",
      "properties": {
        "type": "deviation_path_edge",
        "from_stop_code": "36129",
        "to_stop_code": "36103",
        "stroke": "#00bcd4",
        "stroke-width": 3,
        "stroke-opacity": 0.95
      },
      "geometry": {
        "type": "LineString",
        "coordinates": [
          [
            34.7438154694923,
            32.01034959133713
          ],
          [
            34.743587,
            32.01056
          ],
          [
            34.743472,
            32.010651
          ],
          [
            34.743297,
            32.010768
          ],
          [
            34.743197,
            32.010811
          ],
          [
            34.743083,
            32.01086
          ],
          [
            34.742984,
            32.010893
          ],
          [
            34.742758,
            32.010976
          ],
          [
            34.742514,
            32.011031
          ],
          [
            34.742172,
            32.011085
          ],
          [
            34.742053,
            32.011152
          ],
          [
            34.74201,
            32.011185
          ],
          [
            34.741995,
            32.011209
          ],
          [
            34.741982,
            32.011253
          ],
          [
            34.741949,
            32.011431
          ],
          [
            34.741997,
            32.01176
          ],
          [
            34.742022,
            32.011884
          ],
          [
            34.742114,
            32.012336
          ],
          [
            34.74213916859788,
            32.012450202512866
          ]
        ]
      }
    },
    {
      "type": "Feature",
      "properties": {
        "type": "deviation_path_edge",
        "from_stop_code": "36103",
        "to_stop_code": "36130",
        "stroke": "#00bcd4",
        "stroke-width": 3,
        "stroke-opacity": 0.95
      },
      "geometry": {
        "type": "LineString",
        "coordinates": [
          [
            34.74213916859788,
            32.012450202512866
          ],
          [
            34.742194,
            32.012699
          ],
          [
            34.742388,
            32.013585
          ],
          [
            34.742423,
            32.013747
          ],
          [
            34.742487,
            32.014048
          ],
          [
            34.74253903440273,
            32.014137547576794
          ]
        ]
      }
    },
    {
      "type": "Feature",
      "properties": {
        "type": "deviation_path_edge",
        "from_stop_code": "36130",
        "to_stop_code": "36209",
        "stroke": "#00bcd4",
        "stroke-width": 3,
        "stroke-opacity": 0.95
      },
      "geometry": {
        "type": "LineString",
        "coordinates": [
          [
            34.74253903440273,
            32.014137547576794
          ],
          [
            34.742659,
            32.014344
          ],
          [
            34.742717,
            32.014421
          ],
          [
            34.742861,
            32.014611
          ],
          [
            34.743017,
            32.014784
          ],
          [
            34.743113,
            32.01489
          ],
          [
            34.743263,
            32.015024
          ],
          [
            34.743615,
            32.015311
          ],
          [
            34.743738,
            32.015449
          ],
          [
            34.743959,
            32.015681
          ],
          [
            34.744462,
            32.016199
          ],
          [
            34.74456,
            32.016369
          ],
          [
            34.744637,
            32.01646
          ],
          [
            34.744843,
            32.016706
          ],
          [
            34.745054,
            32.016921
          ],
          [
            34.74522,
            32.017121
          ],
          [
            34.745304,
            32.017085
          ],
          [
            34.745565,
            32.016977
          ],
          [
            34.74607,
            32.016804
          ],
          [
            34.746485,
            32.016666
          ],
          [
            34.746757,
            32.016575
          ],
          [
            34.747112,
            32.016498
          ],
          [
            34.747388643055174,
            32.01645073435238
          ]
        ]
      }
    },
    {
      "type": "Feature",
      "properties": {
        "type": "deviation_path_edge",
        "from_stop_code": "36209",
        "to_stop_code": "36235",
        "stroke": "#00bcd4",
        "stroke-width": 3,
        "stroke-opacity": 0.95
      },
      "geometry": {
        "type": "LineString",
        "coordinates": [
          [
            34.747388643055174,
            32.01645073435238
          ],
          [
            34.74751,
            32.01643
          ],
          [
            34.748062,
            32.016379
          ],
          [
            34.748672,
            32.016331
          ],
          [
            34.749038,
            32.016302
          ],
          [
            34.749189,
            32.016274
          ],
          [
            34.749362,
            32.016227
          ],
          [
            34.74956,
            32.016181
          ],
          [
            34.749842,
            32.016125
          ],
          [
            34.750047,
            32.016067
          ],
          [
            34.750255,
            32.01601
          ],
          [
            34.750407,
            32.015959
          ],
          [
            34.751128,
            32.015685
          ],
          [
            34.751411,
            32.015588
          ],
          [
            34.75144162118251,
            32.01557683227462
          ]
        ]
      }
    },
    {
      "type": "Feature",
      "properties": {
        "type": "original_route_shape",
        "shape_id": "143615",
        "stroke": "#1f2a7a",
        "stroke-width": 3,
        "stroke-opacity": 0.85
      },
      "geometry": {
        "type": "LineString",
        "coordinates": [
          [
            34.767378247060655,
            31.99808325105785
          ],
          [
            34.767385,
            31.998368
          ],
          [
            34.767439,
            31.998952
          ],
          [
            34.767473,
            31.999223
          ],
          [
            34.767482,
            31.999297
          ],
          [
            34.767503,
            31.999483
          ],
          [
            34.767597,
            32.00054
          ],
          [
            34.767625,
            32.000814
          ],
          [
            34.76763,
            32.000845
          ],
          [
            34.767644,
            32.00093
          ],
          [
            34.767547,
            32.000939
          ],
          [
            34.767086,
            32.000963
          ],
          [
            34.765942,
            32.001028
          ],
          [
            34.765771,
            32.001036
          ],
          [
            34.764617,
            32.001089
          ],
          [
            34.763914,
            32.00112
          ],
          [
            34.763816,
            32.001124
          ],
          [
            34.762788,
            32.00119
          ],
          [
            34.760919,
            32.001279
          ],
          [
            34.760194,
            32.001353
          ],
          [
            34.759846,
            32.001395
          ],
          [
            34.759774,
            32.001403
          ],
          [
            34.759691,
            32.001415
          ],
          [
            34.7593,
            32.001452
          ],
          [
            34.759056,
            32.001487
          ],
          [
            34.758469,
            32.001558
          ],
          [
            34.757456,
            32.00172
          ],
          [
            34.755818,
            32.001984
          ],
          [
            34.755361,
            32.00208
          ],
          [
            34.755279,
            32.002097
          ],
          [
            34.754864,
            32.002188
          ],
          [
            34.753785,
            32.002432
          ],
          [
            34.753259,
            32.002559
          ],
          [
            34.753143,
            32.002581
          ],
          [
            34.752668,
            32.002672
          ],
          [
            34.751383,
            32.002952
          ],
          [
            34.750825,
            32.003063
          ],
          [
            34.750079,
            32.003248
          ],
          [
            34.749864,
            32.003307
          ],
          [
            34.748486,
            32.003681
          ],
          [
            34.748024,
            32.003866
          ],
          [
            34.747857,
            32.003944
          ],
          [
            34.747468,
            32.004087
          ],
          [
            34.746289,
            32.00456
          ],
          [
            34.745549,
            32.004868
          ],
          [
            34.744582,
            32.005256
          ],
          [
            34.743809,
            32.005568
          ],
          [
            34.743721,
            32.005608
          ],
          [
            34.743325,
            32.005802
          ],
          [
            34.742795,
            32.006059
          ],
          [
            34.742385,
            32.006333
          ],
          [
            34.742355,
            32.006354
          ],
          [
            34.741913,
            32.006737
          ],
          [
            34.741751,
            32.006871
          ],
          [
            34.741626,
            32.006983
          ],
          [
            34.741413,
            32.007237
          ],
          [
            34.7414,
            32.007258
          ],
          [
            34.74139,
            32.007292
          ],
          [
            34.741395,
            32.007327
          ],
          [
            34.7414,
            32.007362
          ],
          [
            34.741421,
            32.007422
          ],
          [
            34.741472,
            32.007503
          ],
          [
            34.74204,
            32.00803
          ],
          [
            34.742422,
            32.008366
          ],
          [
            34.743129,
            32.008987
          ],
          [
            34.74355,
            32.00936
          ],
          [
            34.743636,
            32.009441
          ],
          [
            34.744103,
            32.009805
          ],
          [
            34.744126,
            32.009803
          ],
          [
            34.744136,
            32.009802
          ],
          [
            34.744156,
            32.009804
          ],
          [
            34.744162,
            32.009805
          ],
          [
            34.744175,
            32.009807
          ],
          [
            34.744195,
            32.009813
          ],
          [
            34.744212,
            32.00982
          ],
          [
            34.744229,
            32.00983
          ],
          [
            34.744244,
            32.009841
          ],
          [
            34.744258,
            32.009853
          ],
          [
            34.744263,
            32.00986
          ],
          [
            34.744274,
            32.009874
          ],
          [
            34.744282,
            32.00989
          ],
          [
            34.744288,
            32.009906
          ],
          [
            34.744292,
            32.009922
          ],
          [
            34.744293,
            32.009939
          ],
          [
            34.744292,
            32.009956
          ],
          [
            34.74429,
            32.009961
          ],
          [
            34.744431,
            32.010097
          ],
          [
            34.744843,
            32.010537
          ],
          [
            34.745172,
            32.010855
          ],
          [
            34.74562,
            32.011287
          ],
          [
            34.745714,
            32.011385
          ],
          [
            34.746761,
            32.012497
          ],
          [
            34.747777,
            32.01355
          ],
          [
            34.748219,
            32.013998
          ],
          [
            34.74911,
            32.014766
          ],
          [
            34.748554,
            32.014947
          ],
          [
            34.74846,
            32.014985
          ],
          [
            34.748414,
            32.015015
          ],
          [
            34.748379,
            32.015063
          ],
          [
            34.74836,
            32.0151
          ],
          [
            34.748374,
            32.015221
          ],
          [
            34.748503,
            32.015405
          ],
          [
            34.748537,
            32.015445
          ],
          [
            34.748678,
            32.015586
          ],
          [
            34.749003,
            32.015986
          ],
          [
            34.749189,
            32.016274
          ],
          [
            34.749362,
            32.016227
          ],
          [
            34.74956,
            32.016181
          ],
          [
            34.749842,
            32.016125
          ],
          [
            34.750047,
            32.016067
          ],
          [
            34.750255,
            32.01601
          ],
          [
            34.750407,
            32.015959
          ],
          [
            34.751128,
            32.015685
          ],
          [
            34.751411,
            32.015588
          ],
          [
            34.751581,
            32.015526
          ],
          [
            34.751964,
            32.01536
          ],
          [
            34.752267,
            32.015224
          ],
          [
            34.752526,
            32.015105
          ],
          [
            34.752948,
            32.014927
          ],
          [
            34.753019,
            32.014922
          ],
          [
            34.753071,
            32.014932
          ],
          [
            34.75311,
            32.014941
          ],
          [
            34.753154,
            32.014969
          ],
          [
            34.753282,
            32.015094
          ],
          [
            34.753334,
            32.015139
          ],
          [
            34.753383,
            32.015176
          ],
          [
            34.753488,
            32.015219
          ],
          [
            34.754153,
            32.015395
          ],
          [
            34.754526,
            32.015473
          ],
          [
            34.754565,
            32.015479
          ],
          [
            34.754611,
            32.015487
          ],
          [
            34.754609,
            32.015608
          ],
          [
            34.754574,
            32.015896
          ],
          [
            34.754526,
            32.016329
          ],
          [
            34.754522,
            32.016426
          ],
          [
            34.75451,
            32.016718
          ],
          [
            34.75449,
            32.01721
          ],
          [
            34.754455,
            32.017617
          ],
          [
            34.754464,
            32.018146
          ],
          [
            34.754434,
            32.018487
          ],
          [
            34.754406,
            32.019084
          ],
          [
            34.754442,
            32.019557
          ],
          [
            34.754475,
            32.020003
          ],
          [
            34.754491,
            32.020381
          ],
          [
            34.754518,
            32.02099
          ],
          [
            34.754521,
            32.021055
          ],
          [
            34.754524,
            32.021441
          ],
          [
            34.754529,
            32.021922
          ],
          [
            34.753554,
            32.021958
          ],
          [
            34.752892,
            32.021977
          ],
          [
            34.75253,
            32.021988
          ],
          [
            34.751884,
            32.022001
          ],
          [
            34.751195,
            32.021985
          ],
          [
            34.750081,
            32.022055
          ],
          [
            34.749761,
            32.022065
          ],
          [
            34.749256,
            32.022084
          ],
          [
            34.749151,
            32.022092
          ],
          [
            34.748989,
            32.022102
          ],
          [
            34.748816,
            32.022126
          ],
          [
            34.748662,
            32.022174
          ],
          [
            34.748464,
            32.022277
          ],
          [
            34.747541,
            32.02293
          ],
          [
            34.747225,
            32.023174
          ],
          [
            34.747105,
            32.023254
          ],
          [
            34.746989,
            32.023332
          ],
          [
            34.746865,
            32.023415
          ],
          [
            34.746625,
            32.023202
          ],
          [
            34.746389,
            32.023049
          ],
          [
            34.746172,
            32.022921
          ],
          [
            34.745931,
            32.022824
          ],
          [
            34.74563,
            32.022744
          ],
          [
            34.74534,
            32.022685
          ],
          [
            34.745269,
            32.023738
          ],
          [
            34.74519,
            32.025196
          ],
          [
            34.745178,
            32.025429
          ],
          [
            34.745154,
            32.025733
          ],
          [
            34.745144,
            32.026418
          ],
          [
            34.745219,
            32.026555
          ],
          [
            34.745296,
            32.026633
          ],
          [
            34.745355,
            32.026675
          ],
          [
            34.745558,
            32.02673
          ],
          [
            34.745804,
            32.026776
          ],
          [
            34.74654,
            32.026885
          ],
          [
            34.746677,
            32.026908
          ],
          [
            34.747674,
            32.027074
          ],
          [
            34.747951,
            32.027136
          ],
          [
            34.748274,
            32.027173
          ],
          [
            34.748348,
            32.027162
          ],
          [
            34.748429,
            32.027155
          ],
          [
            34.748447,
            32.027157
          ],
          [
            34.748498,
            32.027164
          ],
          [
            34.74855,
            32.027182
          ],
          [
            34.748599,
            32.02722
          ],
          [
            34.748681,
            32.0274
          ],
          [
            34.748759,
            32.027677
          ],
          [
            34.749347,
            32.028532
          ],
          [
            34.749427,
            32.028651
          ],
          [
            34.749922,
            32.029274
          ],
          [
            34.749943,
            32.029307
          ],
          [
            34.750071,
            32.029461
          ],
          [
            34.750283,
            32.029707
          ],
          [
            34.750313,
            32.029741
          ],
          [
            34.750644,
            32.030161
          ],
          [
            34.75088,
            32.030496
          ],
          [
            34.750926,
            32.030576
          ],
          [
            34.750972,
            32.030655
          ],
          [
            34.751025,
            32.030762
          ],
          [
            34.751151,
            32.031053
          ],
          [
            34.751243,
            32.0313
          ],
          [
            34.751346,
            32.031634
          ],
          [
            34.751384,
            32.031852
          ],
          [
            34.751415,
            32.032034
          ],
          [
            34.751573,
            32.032767
          ],
          [
            34.751733,
            32.033594
          ],
          [
            34.751839,
            32.033981
          ],
          [
            34.751866,
            32.034052
          ],
          [
            34.75205,
            32.03442
          ],
          [
            34.752159,
            32.03461
          ],
          [
            34.752293,
            32.034798
          ],
          [
            34.752412,
            32.034949
          ],
          [
            34.752542,
            32.035094
          ],
          [
            34.752761,
            32.035282
          ],
          [
            34.752962,
            32.035412
          ],
          [
            34.753124,
            32.035515
          ],
          [
            34.753322,
            32.035609
          ],
          [
            34.753467,
            32.035667
          ],
          [
            34.753612,
            32.035716
          ],
          [
            34.753823,
            32.035789
          ],
          [
            34.754315,
            32.035952
          ],
          [
            34.754509,
            32.036015
          ],
          [
            34.754688,
            32.036072
          ],
          [
            34.754844,
            32.036116
          ],
          [
            34.755069,
            32.036171
          ],
          [
            34.755312,
            32.036213
          ],
          [
            34.755643,
            32.036257
          ],
          [
            34.755705,
            32.036256
          ],
          [
            34.756013,
            32.036265
          ],
          [
            34.757337,
            32.036312
          ],
          [
            34.757415,
            32.036315
          ],
          [
            34.758654,
            32.036293
          ],
          [
            34.758807,
            32.036294
          ],
          [
            34.758878,
            32.036282
          ],
          [
            34.758972,
            32.036251
          ],
          [
            34.759057,
            32.0362
          ],
          [
            34.759115,
            32.03613
          ],
          [
            34.759175,
            32.036043
          ],
          [
            34.759182,
            32.036013
          ],
          [
            34.759246,
            32.035907
          ],
          [
            34.759308,
            32.035836
          ],
          [
            34.759406,
            32.035763
          ],
          [
            34.759541,
            32.035694
          ],
          [
            34.759576,
            32.035676
          ],
          [
            34.759688,
            32.035646
          ],
          [
            34.759804,
            32.035634
          ],
          [
            34.759919,
            32.035639
          ],
          [
            34.760011,
            32.035662
          ],
          [
            34.760032,
            32.035667
          ],
          [
            34.760135,
            32.035716
          ],
          [
            34.760225,
            32.035765
          ],
          [
            34.760303,
            32.035828
          ],
          [
            34.760349,
            32.035876
          ],
          [
            34.760406,
            32.035938
          ],
          [
            34.760447,
            32.036003
          ],
          [
            34.760492,
            32.0361
          ],
          [
            34.760568,
            32.036204
          ],
          [
            34.760639,
            32.036294
          ],
          [
            34.760701,
            32.036343
          ],
          [
            34.760769,
            32.036375
          ],
          [
            34.760847,
            32.036402
          ],
          [
            34.760951,
            32.036424
          ],
          [
            34.761165,
            32.036465
          ],
          [
            34.761347,
            32.036492
          ],
          [
            34.761514,
            32.036511
          ],
          [
            34.761633,
            32.036515
          ],
          [
            34.761732,
            32.036555
          ],
          [
            34.761724,
            32.036642
          ],
          [
            34.761754,
            32.036823
          ],
          [
            34.76178,
            32.036903
          ],
          [
            34.761993,
            32.036935
          ],
          [
            34.762064,
            32.036912
          ],
          [
            34.76210178988327,
            32.0369096381323
          ]
        ]
      }
    },
    {
      "type": "Feature",
      "properties": {
        "type": "original_route_stop",
        "stop_code": "36319",
        "stop_name": "בן גוריון/רבינוביץ",
        "marker-color": "#2ca02c",
        "marker-symbol": "bus",
        "marker-size": "medium"
      },
      "geometry": {
        "type": "Point",
        "coordinates": [
          34.767431,
          31.998082
        ]
      }
    },
    {
      "type": "Feature",
      "properties": {
        "type": "original_route_stop",
        "stop_code": "36321",
        "stop_name": "משה דיין/בן גוריון",
        "marker-color": "#2ca02c",
        "marker-symbol": "bus",
        "marker-size": "medium"
      },
      "geometry": {
        "type": "Point",
        "coordinates": [
          34.766169,
          32.00106
        ]
      }
    },
    {
      "type": "Feature",
      "properties": {
        "type": "original_route_stop",
        "stop_code": "36176",
        "stop_name": "תחנת דלק היובל/משה דיין",
        "marker-color": "#2ca02c",
        "marker-symbol": "bus",
        "marker-size": "medium"
      },
      "geometry": {
        "type": "Point",
        "coordinates": [
          34.76328,
          32.001204
        ]
      }
    },
    {
      "type": "Feature",
      "properties": {
        "type": "original_route_stop",
        "stop_code": "38452",
        "stop_name": "ת. רכבת הקוממיות",
        "marker-color": "#2ca02c",
        "marker-symbol": "bus",
        "marker-size": "medium"
      },
      "geometry": {
        "type": "Point",
        "coordinates": [
          34.75953,
          32.001476
        ]
      }
    },
    {
      "type": "Feature",
      "properties": {
        "type": "original_route_stop",
        "stop_code": "31455",
        "stop_name": "בית העלמין/הקוממיות",
        "marker-color": "#2ca02c",
        "marker-symbol": "bus",
        "marker-size": "medium"
      },
      "geometry": {
        "type": "Point",
        "coordinates": [
          34.75448,
          32.002322
        ]
      }
    },
    {
      "type": "Feature",
      "properties": {
        "type": "original_route_stop",
        "stop_code": "35614",
        "stop_name": "הקוממיות/אנה פרנק",
        "marker-color": "#2ca02c",
        "marker-symbol": "bus",
        "marker-size": "medium"
      },
      "geometry": {
        "type": "Point",
        "coordinates": [
          34.752376,
          32.002782
        ]
      }
    },
    {
      "type": "Feature",
      "properties": {
        "type": "original_route_stop",
        "stop_code": "36115",
        "stop_name": "הקוממיות/הרב ניסנבאום",
        "marker-color": "#2ca02c",
        "marker-symbol": "bus",
        "marker-size": "medium"
      },
      "geometry": {
        "type": "Point",
        "coordinates": [
          34.747223,
          32.004235
        ]
      }
    },
    {
      "type": "Feature",
      "properties": {
        "type": "original_route_stop",
        "stop_code": "36111",
        "stop_name": "הקוממיות/נפחא",
        "marker-color": "#2ca02c",
        "marker-symbol": "bus",
        "marker-size": "medium"
      },
      "geometry": {
        "type": "Point",
        "coordinates": [
          34.743966,
          32.005555
        ]
      }
    },
    {
      "type": "Feature",
      "properties": {
        "type": "original_route_stop",
        "stop_code": "36098",
        "stop_name": "הקוממיות/הנביאים",
        "marker-color": "#2ca02c",
        "marker-symbol": "bus",
        "marker-size": "medium"
      },
      "geometry": {
        "type": "Point",
        "coordinates": [
          34.741865,
          32.006839
        ]
      }
    },
    {
      "type": "Feature",
      "properties": {
        "type": "original_route_stop",
        "stop_code": "36239",
        "stop_name": "כצנלסון/יוספטל",
        "marker-color": "#2ca02c",
        "marker-symbol": "bus",
        "marker-size": "medium"
      },
      "geometry": {
        "type": "Point",
        "coordinates": [
          34.754575,
          32.016434
        ]
      }
    },
    {
      "type": "Feature",
      "properties": {
        "type": "original_route_stop",
        "stop_code": "36242",
        "stop_name": "כצנלסון/אנילביץ'",
        "marker-color": "#2ca02c",
        "marker-symbol": "bus",
        "marker-size": "medium"
      },
      "geometry": {
        "type": "Point",
        "coordinates": [
          34.754556,
          32.020643
        ]
      }
    },
    {
      "type": "Feature",
      "properties": {
        "type": "original_route_stop",
        "stop_code": "36244",
        "stop_name": "אנילביץ'/כצנלסון",
        "marker-color": "#2ca02c",
        "marker-symbol": "bus",
        "marker-size": "medium"
      },
      "geometry": {
        "type": "Point",
        "coordinates": [
          34.753697,
          32.021998
        ]
      }
    },
    {
      "type": "Feature",
      "properties": {
        "type": "original_route_stop",
        "stop_code": "36212",
        "stop_name": "הרב עוזיאל/דניאל",
        "marker-color": "#2ca02c",
        "marker-symbol": "bus",
        "marker-size": "medium"
      },
      "geometry": {
        "type": "Point",
        "coordinates": [
          34.749758,
          32.02211
        ]
      }
    },
    {
      "type": "Feature",
      "properties": {
        "type": "original_route_stop",
        "stop_code": "36223",
        "stop_name": "הרב עוזיאל/שדרות העצמאות",
        "marker-color": "#2ca02c",
        "marker-symbol": "bus",
        "marker-size": "medium"
      },
      "geometry": {
        "type": "Point",
        "coordinates": [
          34.747665,
          32.022902
        ]
      }
    },
    {
      "type": "Feature",
      "properties": {
        "type": "original_route_stop",
        "stop_code": "36215",
        "stop_name": "בלפור/הרב קוק",
        "marker-color": "#2ca02c",
        "marker-symbol": "bus",
        "marker-size": "medium"
      },
      "geometry": {
        "type": "Point",
        "coordinates": [
          34.745285,
          32.02442
        ]
      }
    },
    {
      "type": "Feature",
      "properties": {
        "type": "original_route_stop",
        "stop_code": "36222",
        "stop_name": "רוטשילד/בלפור",
        "marker-color": "#2ca02c",
        "marker-symbol": "bus",
        "marker-size": "medium"
      },
      "geometry": {
        "type": "Point",
        "coordinates": [
          34.745833,
          32.026735
        ]
      }
    },
    {
      "type": "Feature",
      "properties": {
        "type": "original_route_stop",
        "stop_code": "36227",
        "stop_name": "ת.רק''ל העצמאות",
        "marker-color": "#2ca02c",
        "marker-symbol": "bus",
        "marker-size": "medium"
      },
      "geometry": {
        "type": "Point",
        "coordinates": [
          34.748983,
          32.027912
        ]
      }
    },
    {
      "type": "Feature",
      "properties": {
        "type": "original_route_stop",
        "stop_code": "36230",
        "stop_name": "שד' ירושלים/שמחה הולצברג",
        "marker-color": "#2ca02c",
        "marker-symbol": "bus",
        "marker-size": "medium"
      },
      "geometry": {
        "type": "Point",
        "coordinates": [
          34.750499,
          32.029896
        ]
      }
    },
    {
      "type": "Feature",
      "properties": {
        "type": "original_route_stop",
        "stop_code": "20496",
        "stop_name": "שד' ירושלים/הגיבורים",
        "marker-color": "#2ca02c",
        "marker-symbol": "bus",
        "marker-size": "medium"
      },
      "geometry": {
        "type": "Point",
        "coordinates": [
          34.751313,
          32.031351
        ]
      }
    },
    {
      "type": "Feature",
      "properties": {
        "type": "original_route_stop",
        "stop_code": "25211",
        "stop_name": "שד' ירושלים/מחרוזת",
        "marker-color": "#2ca02c",
        "marker-symbol": "bus",
        "marker-size": "medium"
      },
      "geometry": {
        "type": "Point",
        "coordinates": [
          34.752164,
          32.034515
        ]
      }
    },
    {
      "type": "Feature",
      "properties": {
        "type": "original_route_stop",
        "stop_code": "25218",
        "stop_name": "מרכז הטניס/הרב הלר",
        "marker-color": "#2ca02c",
        "marker-symbol": "bus",
        "marker-size": "medium"
      },
      "geometry": {
        "type": "Point",
        "coordinates": [
          34.755922,
          32.036217
        ]
      }
    },
    {
      "type": "Feature",
      "properties": {
        "type": "original_route_stop",
        "stop_code": "38462",
        "stop_name": "ת. רכבת וולפסון",
        "marker-color": "#2ca02c",
        "marker-symbol": "bus",
        "marker-size": "medium"
      },
      "geometry": {
        "type": "Point",
        "coordinates": [
          34.759942,
          32.035598
        ]
      }
    },
    {
      "type": "Feature",
      "properties": {
        "type": "original_route_stop",
        "stop_code": "39719",
        "stop_name": "מסוף וולפסון",
        "marker-color": "#2ca02c",
        "marker-symbol": "bus",
        "marker-size": "medium"
      },
      "geometry": {
        "type": "Point",
        "coordinates": [
          34.762099,
          32.036865
        ]
      }
    },
    {
      "type": "Feature",
      "properties": {
        "type": "cancelled_stop",
        "stop_code": "36139",
        "stop_name": "ביה''ס בני ציון/הנביאים",
        "marker-color": "#ff0000",
        "marker-symbol": "bus",
        "marker-size": "medium"
      },
      "geometry": {
        "type": "Point",
        "coordinates": [
          34.746522,
          32.012171
        ]
      }
    },
    {
      "type": "Feature",
      "properties": {
        "type": "cancelled_stop",
        "stop_code": "36142",
        "stop_name": "הנביאים/השר רבינוביץ'",
        "marker-color": "#ff0000",
        "marker-symbol": "bus",
        "marker-size": "medium"
      },
      "geometry": {
        "type": "Point",
        "coordinates": [
          34.748571,
          32.014236
        ]
      }
    },
    {
      "type": "Feature",
      "properties": {
        "type": "cancelled_stop",
        "stop_code": "36210",
        "stop_name": "שד' בר אילן/החרושת",
        "marker-color": "#ff0000",
        "marker-symbol": "bus",
        "marker-size": "medium"
      },
      "geometry": {
        "type": "Point",
        "coordinates": [
          34.748599,
          32.015438
        ]
      }
    },
    {
      "type": "Feature",
      "properties": {
        "type": "new_stop",
        "stop_code": "36129",
        "stop_name": "יצחק שדה/הנביאים",
        "marker-color": "#1f9ed6",
        "marker-symbol": "bus",
        "marker-size": "medium"
      },
      "geometry": {
        "type": "Point",
        "coordinates": [
          34.743849,
          32.010386
        ]
      }
    },
    {
      "type": "Feature",
      "properties": {
        "type": "new_stop",
        "stop_code": "36103",
        "stop_name": "בלפור/יצחק שדה",
        "marker-color": "#1f9ed6",
        "marker-symbol": "bus",
        "marker-size": "medium"
      },
      "geometry": {
        "type": "Point",
        "coordinates": [
          34.74219,
          32.012439
        ]
      }
    },
    {
      "type": "Feature",
      "properties": {
        "type": "new_stop",
        "stop_code": "36130",
        "stop_name": "בלפור/מקס נורדאו",
        "marker-color": "#1f9ed6",
        "marker-symbol": "bus",
        "marker-size": "medium"
      },
      "geometry": {
        "type": "Point",
        "coordinates": [
          34.742583,
          32.014112
        ]
      }
    },
    {
      "type": "Feature",
      "properties": {
        "type": "new_stop",
        "stop_code": "36209",
        "stop_name": "ת.רק''ל בנימין/יוספטל",
        "marker-color": "#1f9ed6",
        "marker-symbol": "bus",
        "marker-size": "medium"
      },
      "geometry": {
        "type": "Point",
        "coordinates": [
          34.747381,
          32.016406
        ]
      }
    },
    {
      "type": "Feature",
      "properties": {
        "type": "reported_block_stop",
        "stop_code": "36139",
        "stop_name": "ביה''ס בני ציון/הנביאים",
        "marker-color": "#ff8800",
        "marker-symbol": "bus",
        "marker-size": "medium"
      },
      "geometry": {
        "type": "Point",
        "coordinates": [
          34.746522,
          32.012171
        ]
      }
    },
    {
      "type": "Feature",
      "properties": {
        "type": "reported_block_stop",
        "stop_code": "36142",
        "stop_name": "הנביאים/השר רבינוביץ'",
        "marker-color": "#ff8800",
        "marker-symbol": "bus",
        "marker-size": "medium"
      },
      "geometry": {
        "type": "Point",
        "coordinates": [
          34.748571,
          32.014236
        ]
      }
    },
    {
      "type": "Feature",
      "properties": {
        "type": "deviate_from_stop",
        "stop_code": "36121",
        "stop_name": "הנביאים/הקוממיות",
        "marker-color": "#8000ff",
        "marker-symbol": "bus",
        "marker-size": "medium"
      },
      "geometry": {
        "type": "Point",
        "coordinates": [
          34.7426,
          32.008458
        ]
      }
    },
    {
      "type": "Feature",
      "properties": {
        "type": "deviate_to_stop",
        "stop_code": "36235",
        "stop_name": "ת.רק''ל יוספטל",
        "marker-color": "#8000ff",
        "marker-symbol": "bus",
        "marker-size": "medium"
      },
      "geometry": {
        "type": "Point",
        "coordinates": [
          34.751426,
          32.015534
        ]
      }
    }
  ]
}