{
  "type": "FeatureCollection",
  "features": [
    {
      "type": "Feature",
      "properties": {
        "type": "deviation_path",
        "trip_id": "585733535_010926",
        "shape_id": "164494",
        "stroke": "#00bcd4",
        "stroke-width": 3,
        "stroke-opacity": 0.95
      },
      "geometry": {
        "type": "LineString",
        "coordinates": [
          [
            34.871045639152634,
            32.18356260954099
          ],
          [
            34.871267,
            32.184398
          ],
          [
            34.871279,
            32.184402
          ],
          [
            34.871293,
            32.18441
          ],
          [
            34.871306,
            32.184419
          ],
          [
            34.871316,
            32.184431
          ],
          [
            34.871323,
            32.184444
          ],
          [
            34.871328,
            32.184458
          ],
          [
            34.871329,
            32.184473
          ],
          [
            34.871328,
            32.184487
          ],
          [
            34.871323,
            32.184501
          ],
          [
            34.871315,
            32.184514
          ],
          [
            34.871303,
            32.184527
          ],
          [
            34.871293,
            32.184536
          ],
          [
            34.871279,
            32.184543
          ],
          [
            34.871258,
            32.184549
          ],
          [
            34.871247,
            32.184551
          ],
          [
            34.871235,
            32.184551
          ],
          [
            34.871224,
            32.18455
          ],
          [
            34.871214,
            32.184547
          ],
          [
            34.871204,
            32.184544
          ],
          [
            34.871193,
            32.184539
          ],
          [
            34.871184,
            32.184534
          ],
          [
            34.871176,
            32.184527
          ],
          [
            34.871169,
            32.18452
          ],
          [
            34.871163,
            32.184512
          ],
          [
            34.871158,
            32.184503
          ],
          [
            34.871154,
            32.184494
          ],
          [
            34.871152,
            32.184484
          ],
          [
            34.871151,
            32.184475
          ],
          [
            34.870551,
            32.184596
          ],
          [
            34.86996,
            32.184716
          ],
          [
            34.868955,
            32.184904
          ],
          [
            34.868093,
            32.185158
          ],
          [
            34.868094,
            32.185172
          ],
          [
            34.868092,
            32.185183
          ],
          [
            34.868088,
            32.185193
          ],
          [
            34.868081,
            32.185203
          ],
          [
            34.868073,
            32.185211
          ],
          [
            34.868063,
            32.185218
          ],
          [
            34.868052,
            32.185223
          ],
          [
            34.868041,
            32.185226
          ],
          [
            34.868032,
            32.185227
          ],
          [
            34.86802,
            32.185227
          ],
          [
            34.868008,
            32.185225
          ],
          [
            34.867996,
            32.185221
          ],
          [
            34.867986,
            32.185215
          ],
          [
            34.867977,
            32.185207
          ],
          [
            34.867969,
            32.185198
          ],
          [
            34.867965,
            32.185189
          ],
          [
            34.866793,
            32.185424
          ],
          [
            34.866093,
            32.18557
          ],
          [
            34.865195,
            32.185746
          ],
          [
            34.8652,
            32.185758
          ],
          [
            34.865202,
            32.185776
          ],
          [
            34.865201,
            32.185789
          ],
          [
            34.865195,
            32.185806
          ],
          [
            34.865188,
            32.185817
          ],
          [
            34.865179,
            32.185827
          ],
          [
            34.865164,
            32.185837
          ],
          [
            34.865146,
            32.185844
          ],
          [
            34.865123,
            32.185846
          ],
          [
            34.8651,
            32.185842
          ],
          [
            34.865084,
            32.185834
          ],
          [
            34.86507,
            32.185822
          ],
          [
            34.865062,
            32.185811
          ],
          [
            34.865054,
            32.185795
          ],
          [
            34.865052,
            32.185786
          ],
          [
            34.864957,
            32.185812
          ],
          [
            34.864855,
            32.185835
          ],
          [
            34.864749,
            32.18585
          ],
          [
            34.86459,
            32.185868
          ],
          [
            34.864419,
            32.185886
          ],
          [
            34.864104,
            32.185905
          ],
          [
            34.863465,
            32.185964
          ],
          [
            34.863381,
            32.18598
          ],
          [
            34.862861,
            32.186081
          ],
          [
            34.862647,
            32.186132
          ],
          [
            34.86227,
            32.186226
          ],
          [
            34.862271,
            32.186255
          ],
          [
            34.862259,
            32.186289
          ],
          [
            34.86232,
            32.186485
          ],
          [
            34.862364,
            32.186627
          ],
          [
            34.862516,
            32.187143
          ],
          [
            34.862867,
            32.18829
          ],
          [
            34.863235,
            32.189479
          ],
          [
            34.863358,
            32.189937
          ],
          [
            34.863363,
            32.189938
          ],
          [
            34.863387,
            32.189944
          ],
          [
            34.863409,
            32.189953
          ],
          [
            34.863428,
            32.189966
          ],
          [
            34.863444,
            32.189981
          ],
          [
            34.863457,
            32.189999
          ],
          [
            34.863463,
            32.190011
          ],
          [
            34.863465,
            32.190018
          ],
          [
            34.863468,
            32.190031
          ],
          [
            34.863469,
            32.190044
          ],
          [
            34.863467,
            32.190065
          ],
          [
            34.86346,
            32.190084
          ],
          [
            34.863453,
            32.190096
          ],
          [
            34.863444,
            32.190108
          ],
          [
            34.863433,
            32.190118
          ],
          [
            34.863421,
            32.190127
          ],
          [
            34.863413,
            32.190132
          ],
          [
            34.863579,
            32.190751
          ],
          [
            34.863594,
            32.191394
          ],
          [
            34.86361,
            32.191401
          ],
          [
            34.86363,
            32.191413
          ],
          [
            34.863646,
            32.191427
          ],
          [
            34.863656,
            32.191438
          ],
          [
            34.863666,
            32.191457
          ],
          [
            34.863671,
            32.19147
          ],
          [
            34.863674,
            32.191483
          ],
          [
            34.863675,
            32.1915
          ],
          [
            34.863673,
            32.191517
          ],
          [
            34.863666,
            32.191536
          ],
          [
            34.863659,
            32.191549
          ],
          [
            34.863646,
            32.191566
          ],
          [
            34.863629,
            32.19158
          ],
          [
            34.863616,
            32.191588
          ],
          [
            34.863602,
            32.191595
          ],
          [
            34.86358,
            32.191602
          ],
          [
            34.86355552447872,
            32.191793285612434
          ]
        ]
      }
    },
    {
      "type": "Feature",
      "properties": {
        "type": "original_route_shape",
        "shape_id": "155333",
        "stroke": "#1f2a7a",
        "stroke-width": 3,
        "stroke-opacity": 0.85
      },
      "geometry": {
        "type": "LineString",
        "coordinates": [
          [
            34.88747273971423,
            32.17333961411622
          ],
          [
            34.887628,
            32.173344
          ],
          [
            34.887682,
            32.173348
          ],
          [
            34.887765,
            32.173361
          ],
          [
            34.887802,
            32.173384
          ],
          [
            34.88781,
            32.173468
          ],
          [
            34.887815,
            32.173489
          ],
          [
            34.887888,
            32.173617
          ],
          [
            34.887924,
            32.173651
          ],
          [
            34.888051,
            32.173806
          ],
          [
            34.888233,
            32.173979
          ],
          [
            34.888357,
            32.174089
          ],
          [
            34.888492,
            32.174195
          ],
          [
            34.888552,
            32.174256
          ],
          [
            34.88872,
            32.17437
          ],
          [
            34.888835,
            32.174438
          ],
          [
            34.888843,
            32.174439
          ],
          [
            34.888859,
            32.174443
          ],
          [
            34.888874,
            32.174449
          ],
          [
            34.888889,
            32.174456
          ],
          [
            34.88891,
            32.17447
          ],
          [
            34.888923,
            32.174481
          ],
          [
            34.888935,
            32.174493
          ],
          [
            34.888946,
            32.174506
          ],
          [
            34.888956,
            32.17452
          ],
          [
            34.888967,
            32.174542
          ],
          [
            34.888975,
            32.174565
          ],
          [
            34.888977,
            32.17458
          ],
          [
            34.888978,
            32.174593
          ],
          [
            34.888978,
            32.174602
          ],
          [
            34.888975,
            32.174616
          ],
          [
            34.888969,
            32.174635
          ],
          [
            34.889163,
            32.174793
          ],
          [
            34.889325,
            32.174916
          ],
          [
            34.889667,
            32.175228
          ],
          [
            34.88974,
            32.175295
          ],
          [
            34.890112,
            32.175634
          ],
          [
            34.890546,
            32.17603
          ],
          [
            34.890615,
            32.176155
          ],
          [
            34.89037,
            32.176421
          ],
          [
            34.889716,
            32.177079
          ],
          [
            34.889364,
            32.177322
          ],
          [
            34.889193,
            32.177403
          ],
          [
            34.888938,
            32.177469
          ],
          [
            34.88847,
            32.177558
          ],
          [
            34.888314,
            32.177588
          ],
          [
            34.888111,
            32.177613
          ],
          [
            34.887794,
            32.17767
          ],
          [
            34.887107,
            32.177807
          ],
          [
            34.886371,
            32.177951
          ],
          [
            34.88602,
            32.178026
          ],
          [
            34.8857,
            32.178094
          ],
          [
            34.884727,
            32.17832
          ],
          [
            34.884439,
            32.178384
          ],
          [
            34.883549,
            32.17858
          ],
          [
            34.882633,
            32.178781
          ],
          [
            34.882417,
            32.178829
          ],
          [
            34.881886,
            32.17895
          ],
          [
            34.881545,
            32.179023
          ],
          [
            34.881313,
            32.179071
          ],
          [
            34.881213,
            32.179091
          ],
          [
            34.880183,
            32.179311
          ],
          [
            34.879649,
            32.179422
          ],
          [
            34.879551,
            32.179443
          ],
          [
            34.879408,
            32.179473
          ],
          [
            34.879291,
            32.179498
          ],
          [
            34.878897,
            32.179591
          ],
          [
            34.878666,
            32.179639
          ],
          [
            34.878255,
            32.179738
          ],
          [
            34.878001,
            32.179788
          ],
          [
            34.877518,
            32.179897
          ],
          [
            34.876829,
            32.180054
          ],
          [
            34.876702,
            32.180082
          ],
          [
            34.876301,
            32.180171
          ],
          [
            34.876045,
            32.180234
          ],
          [
            34.875949,
            32.180251
          ],
          [
            34.874852,
            32.180503
          ],
          [
            34.874788,
            32.180518
          ],
          [
            34.874245,
            32.180642
          ],
          [
            34.874113,
            32.180673
          ],
          [
            34.873582,
            32.180789
          ],
          [
            34.873512,
            32.180805
          ],
          [
            34.872827,
            32.180957
          ],
          [
            34.872574,
            32.181008
          ],
          [
            34.872145,
            32.181098
          ],
          [
            34.872068,
            32.181114
          ],
          [
            34.871593,
            32.181221
          ],
          [
            34.871275,
            32.181292
          ],
          [
            34.870973,
            32.181359
          ],
          [
            34.870663,
            32.181428
          ],
          [
            34.870568,
            32.181495
          ],
          [
            34.870525,
            32.181533
          ],
          [
            34.870497,
            32.181573
          ],
          [
            34.870488,
            32.181622
          ],
          [
            34.870488,
            32.181669
          ],
          [
            34.870504,
            32.181795
          ],
          [
            34.870614,
            32.182129
          ],
          [
            34.870634,
            32.182136
          ],
          [
            34.870651,
            32.182146
          ],
          [
            34.870666,
            32.182159
          ],
          [
            34.870678,
            32.182174
          ],
          [
            34.870683,
            32.182184
          ],
          [
            34.870687,
            32.182195
          ],
          [
            34.870691,
            32.182213
          ],
          [
            34.87069,
            32.18223
          ],
          [
            34.870686,
            32.182248
          ],
          [
            34.87068,
            32.182259
          ],
          [
            34.870674,
            32.182269
          ],
          [
            34.870664,
            32.18228
          ],
          [
            34.87096,
            32.183211
          ],
          [
            34.870953,
            32.183213
          ],
          [
            34.871267,
            32.184398
          ],
          [
            34.871279,
            32.184402
          ],
          [
            34.871293,
            32.18441
          ],
          [
            34.871306,
            32.184419
          ],
          [
            34.871316,
            32.184431
          ],
          [
            34.871323,
            32.184444
          ],
          [
            34.871328,
            32.184458
          ],
          [
            34.871329,
            32.184473
          ],
          [
            34.871328,
            32.184487
          ],
          [
            34.871323,
            32.184501
          ],
          [
            34.871315,
            32.184514
          ],
          [
            34.871303,
            32.184527
          ],
          [
            34.871625,
            32.185524
          ],
          [
            34.871774,
            32.185995
          ],
          [
            34.871993,
            32.186755
          ],
          [
            34.872074,
            32.186941
          ],
          [
            34.872223,
            32.187201
          ],
          [
            34.872252,
            32.187212
          ],
          [
            34.872282,
            32.187234
          ],
          [
            34.872299,
            32.187257
          ],
          [
            34.872312,
            32.18729
          ],
          [
            34.872314,
            32.187311
          ],
          [
            34.872311,
            32.187332
          ],
          [
            34.872305,
            32.187352
          ],
          [
            34.872291,
            32.187377
          ],
          [
            34.872275,
            32.187391
          ],
          [
            34.872565,
            32.188199
          ],
          [
            34.872616,
            32.188289
          ],
          [
            34.872626,
            32.188297
          ],
          [
            34.872633,
            32.188306
          ],
          [
            34.87264,
            32.188316
          ],
          [
            34.872645,
            32.188327
          ],
          [
            34.872648,
            32.188338
          ],
          [
            34.872649,
            32.18835
          ],
          [
            34.872649,
            32.188361
          ],
          [
            34.872648,
            32.188372
          ],
          [
            34.872644,
            32.188383
          ],
          [
            34.872639,
            32.188394
          ],
          [
            34.872633,
            32.188404
          ],
          [
            34.872625,
            32.188413
          ],
          [
            34.872616,
            32.188422
          ],
          [
            34.872606,
            32.188429
          ],
          [
            34.872594,
            32.188435
          ],
          [
            34.872577,
            32.188442
          ],
          [
            34.872563,
            32.188445
          ],
          [
            34.872543,
            32.188447
          ],
          [
            34.872523,
            32.188446
          ],
          [
            34.872503,
            32.188441
          ],
          [
            34.872485,
            32.188434
          ],
          [
            34.872469,
            32.188423
          ],
          [
            34.872456,
            32.188411
          ],
          [
            34.872448,
            32.188401
          ],
          [
            34.872213,
            32.188442
          ],
          [
            34.871767,
            32.188506
          ],
          [
            34.870519,
            32.188632
          ],
          [
            34.870522,
            32.188644
          ],
          [
            34.870522,
            32.188652
          ],
          [
            34.870522,
            32.18866
          ],
          [
            34.870518,
            32.188672
          ],
          [
            34.870512,
            32.188683
          ],
          [
            34.870507,
            32.18869
          ],
          [
            34.870501,
            32.188697
          ],
          [
            34.87049,
            32.188705
          ],
          [
            34.870477,
            32.188711
          ],
          [
            34.870463,
            32.188716
          ],
          [
            34.870454,
            32.188717
          ],
          [
            34.870444,
            32.188718
          ],
          [
            34.87043,
            32.188717
          ],
          [
            34.87042,
            32.188715
          ],
          [
            34.870411,
            32.188712
          ],
          [
            34.870402,
            32.188708
          ],
          [
            34.870394,
            32.188703
          ],
          [
            34.870387,
            32.188698
          ],
          [
            34.87038,
            32.188692
          ],
          [
            34.870375,
            32.188685
          ],
          [
            34.87037,
            32.188678
          ],
          [
            34.870367,
            32.18867
          ],
          [
            34.870365,
            32.188662
          ],
          [
            34.870364,
            32.188649
          ],
          [
            34.868549,
            32.188858
          ],
          [
            34.868389,
            32.188877
          ],
          [
            34.867941,
            32.188928
          ],
          [
            34.867797,
            32.188945
          ],
          [
            34.866588,
            32.189093
          ],
          [
            34.866508,
            32.189104
          ],
          [
            34.866104,
            32.189161
          ],
          [
            34.866105,
            32.189167
          ],
          [
            34.866105,
            32.189177
          ],
          [
            34.8661,
            32.189193
          ],
          [
            34.866087,
            32.189209
          ],
          [
            34.866064,
            32.18922
          ],
          [
            34.866046,
            32.189223
          ],
          [
            34.866031,
            32.189222
          ],
          [
            34.86601,
            32.189214
          ],
          [
            34.865999,
            32.189205
          ],
          [
            34.865995,
            32.189199
          ],
          [
            34.86572,
            32.189264
          ],
          [
            34.86552,
            32.189325
          ],
          [
            34.865173,
            32.189416
          ],
          [
            34.86492,
            32.189538
          ],
          [
            34.864481,
            32.189736
          ],
          [
            34.864342,
            32.189797
          ],
          [
            34.863465,
            32.190018
          ],
          [
            34.863468,
            32.190031
          ],
          [
            34.863469,
            32.190044
          ],
          [
            34.863467,
            32.190065
          ],
          [
            34.86346,
            32.190084
          ],
          [
            34.863453,
            32.190096
          ],
          [
            34.863444,
            32.190108
          ],
          [
            34.863433,
            32.190118
          ],
          [
            34.863421,
            32.190127
          ],
          [
            34.863413,
            32.190132
          ],
          [
            34.863537,
            32.190593
          ],
          [
            34.863579,
            32.190751
          ],
          [
            34.863594,
            32.191394
          ],
          [
            34.86361,
            32.191401
          ],
          [
            34.86363,
            32.191413
          ],
          [
            34.863646,
            32.191427
          ],
          [
            34.863656,
            32.191438
          ],
          [
            34.863666,
            32.191457
          ],
          [
            34.863671,
            32.19147
          ],
          [
            34.863674,
            32.191483
          ],
          [
            34.863675,
            32.1915
          ],
          [
            34.863673,
            32.191517
          ],
          [
            34.863666,
            32.191536
          ],
          [
            34.863659,
            32.191549
          ],
          [
            34.863646,
            32.191566
          ],
          [
            34.863629,
            32.19158
          ],
          [
            34.863616,
            32.191588
          ],
          [
            34.863602,
            32.191595
          ],
          [
            34.86358,
            32.191602
          ],
          [
            34.863515,
            32.19211
          ],
          [
            34.863544,
            32.192256
          ],
          [
            34.863565,
            32.192282
          ],
          [
            34.863593,
            32.192303
          ],
          [
            34.863764,
            32.192391
          ],
          [
            34.864894,
            32.192483
          ],
          [
            34.865616,
            32.192518
          ],
          [
            34.866021,
            32.192507
          ],
          [
            34.867831,
            32.192475
          ],
          [
            34.867911,
            32.192474
          ],
          [
            34.872442,
            32.192395
          ],
          [
            34.872698,
            32.192385
          ],
          [
            34.872831,
            32.192392
          ],
          [
            34.873239,
            32.192382
          ],
          [
            34.873264,
            32.192508
          ],
          [
            34.873434,
            32.193353
          ],
          [
            34.873449,
            32.193504
          ],
          [
            34.873458,
            32.193604
          ],
          [
            34.873445,
            32.193761
          ],
          [
            34.873415,
            32.194023
          ],
          [
            34.873398,
            32.194214
          ],
          [
            34.873398,
            32.194227
          ],
          [
            34.873395,
            32.194262
          ],
          [
            34.873417,
            32.194442
          ],
          [
            34.873444,
            32.194602
          ],
          [
            34.873477,
            32.19474
          ],
          [
            34.87351,
            32.194841
          ],
          [
            34.87353,
            32.194915
          ],
          [
            34.873581,
            32.195042
          ],
          [
            34.873671,
            32.195205
          ],
          [
            34.873841,
            32.195514
          ],
          [
            34.874249,
            32.196159
          ],
          [
            34.874553,
            32.196633
          ],
          [
            34.874641,
            32.196801
          ],
          [
            34.87478,
            32.197268
          ],
          [
            34.875658,
            32.197354
          ],
          [
            34.875705,
            32.197354
          ],
          [
            34.875762,
            32.197358
          ],
          [
            34.875827,
            32.197324
          ],
          [
            34.875886,
            32.197274
          ],
          [
            34.875913,
            32.197222
          ],
          [
            34.875923,
            32.197195
          ],
          [
            34.875919,
            32.197172
          ],
          [
            34.875773,
            32.196613
          ],
          [
            34.875684,
            32.196345
          ],
          [
            34.875662,
            32.196286
          ],
          [
            34.875776,
            32.196264
          ],
          [
            34.875863,
            32.196248
          ],
          [
            34.876034,
            32.196219
          ],
          [
            34.876623,
            32.196248
          ],
          [
            34.876717,
            32.196253
          ],
          [
            34.877207,
            32.196308
          ],
          [
            34.877858,
            32.196354
          ],
          [
            34.878318,
            32.196383
          ],
          [
            34.878605,
            32.196402
          ],
          [
            34.878699,
            32.1951
          ],
          [
            34.878763,
            32.194556
          ],
          [
            34.878779,
            32.194305
          ],
          [
            34.878705,
            32.194212
          ],
          [
            34.878671,
            32.194189
          ],
          [
            34.878546,
            32.194142
          ],
          [
            34.878535,
            32.194152
          ],
          [
            34.87852,
            32.194162
          ],
          [
            34.878504,
            32.19417
          ],
          [
            34.878486,
            32.194177
          ],
          [
            34.878467,
            32.194183
          ],
          [
            34.878447,
            32.194186
          ],
          [
            34.878427,
            32.194188
          ],
          [
            34.878407,
            32.194188
          ],
          [
            34.878386,
            32.194187
          ],
          [
            34.878367,
            32.194183
          ],
          [
            34.878348,
            32.194178
          ],
          [
            34.878329,
            32.194172
          ],
          [
            34.878317,
            32.194165
          ],
          [
            34.878298,
            32.194154
          ],
          [
            34.878284,
            32.194143
          ],
          [
            34.878274,
            32.194132
          ],
          [
            34.878264,
            32.194118
          ],
          [
            34.878257,
            32.194104
          ],
          [
            34.878255,
            32.194097
          ],
          [
            34.878253,
            32.19409
          ],
          [
            34.878251,
            32.194076
          ],
          [
            34.878252,
            32.194062
          ],
          [
            34.878253,
            32.194054
          ],
          [
            34.878257,
            32.19404
          ],
          [
            34.878264,
            32.194027
          ],
          [
            34.878273,
            32.194014
          ],
          [
            34.878279,
            32.194008
          ],
          [
            34.878294,
            32.193994
          ],
          [
            34.878306,
            32.193986
          ],
          [
            34.878322,
            32.193977
          ],
          [
            34.878339,
            32.19397
          ],
          [
            34.878348,
            32.193967
          ],
          [
            34.878367,
            32.193962
          ],
          [
            34.878377,
            32.19396
          ],
          [
            34.878407,
            32.193957
          ],
          [
            34.878438,
            32.193958
          ],
          [
            34.878448,
            32.19396
          ],
          [
            34.878468,
            32.193963
          ],
          [
            34.878487,
            32.193969
          ],
          [
            34.878496,
            32.193972
          ],
          [
            34.878513,
            32.19398
          ],
          [
            34.878521,
            32.193985
          ],
          [
            34.878535,
            32.193995
          ],
          [
            34.878542,
            32.194
          ],
          [
            34.878554,
            32.194012
          ],
          [
            34.878612,
            32.19403
          ],
          [
            34.878667,
            32.194072
          ],
          [
            34.878745,
            32.194141
          ],
          [
            34.878774,
            32.194175
          ],
          [
            34.878789,
            32.194207
          ],
          [
            34.878795,
            32.194233
          ],
          [
            34.878779,
            32.194305
          ],
          [
            34.878763,
            32.194556
          ],
          [
            34.878699,
            32.1951
          ],
          [
            34.878605,
            32.196402
          ],
          [
            34.878658,
            32.196405
          ],
          [
            34.879328,
            32.196455
          ],
          [
            34.879385,
            32.196459
          ],
          [
            34.879825,
            32.196499
          ],
          [
            34.880067,
            32.196515
          ],
          [
            34.880161,
            32.196529
          ],
          [
            34.880244,
            32.19656
          ],
          [
            34.880309,
            32.196457
          ],
          [
            34.880378,
            32.196316
          ],
          [
            34.88041,
            32.196216
          ],
          [
            34.880435,
            32.196107
          ],
          [
            34.880456,
            32.195973
          ],
          [
            34.880535,
            32.195402
          ],
          [
            34.880663,
            32.194596
          ],
          [
            34.880713,
            32.194278
          ],
          [
            34.880771,
            32.193998
          ],
          [
            34.880793,
            32.193811
          ],
          [
            34.880811,
            32.19367
          ],
          [
            34.880836,
            32.193463
          ],
          [
            34.880819,
            32.193408
          ],
          [
            34.880816,
            32.193372
          ],
          [
            34.880826,
            32.193328
          ],
          [
            34.880976,
            32.192552
          ],
          [
            34.880974,
            32.192294
          ],
          [
            34.880988,
            32.192163
          ],
          [
            34.881193,
            32.192117
          ],
          [
            34.881926,
            32.191945
          ],
          [
            34.882331,
            32.19185
          ],
          [
            34.883297,
            32.191613
          ],
          [
            34.883663,
            32.191522
          ],
          [
            34.883773,
            32.191498
          ],
          [
            34.883796,
            32.19162
          ],
          [
            34.883863,
            32.191945
          ],
          [
            34.883904,
            32.192182
          ],
          [
            34.88405,
            32.192774
          ],
          [
            34.884092,
            32.192948
          ],
          [
            34.884106,
            32.193064
          ],
          [
            34.884173,
            32.193479
          ],
          [
            34.884246,
            32.193898
          ],
          [
            34.884353,
            32.194373
          ],
          [
            34.884517,
            32.195301
          ],
          [
            34.884535,
            32.1954
          ],
          [
            34.884543,
            32.195733
          ],
          [
            34.884548,
            32.195847
          ],
          [
            34.884543,
            32.195919
          ],
          [
            34.884489,
            32.196611
          ],
          [
            34.88448,
            32.196736
          ],
          [
            34.884474,
            32.196794
          ],
          [
            34.884466,
            32.196873
          ],
          [
            34.884445,
            32.197038
          ],
          [
            34.884302,
            32.198179
          ],
          [
            34.884277,
            32.198444
          ],
          [
            34.884193,
            32.199372
          ],
          [
            34.884177,
            32.199465
          ],
          [
            34.884148,
            32.199537
          ],
          [
            34.884129,
            32.199556
          ],
          [
            34.884091,
            32.19958
          ],
          [
            34.884039,
            32.199581
          ],
          [
            34.883908,
            32.199583
          ],
          [
            34.88364656494052,
            32.19956251135898
          ]
        ]
      }
    },
    {
      "type": "Feature",
      "properties": {
        "type": "original_route_stop",
        "stop_code": "32078",
        "stop_name": "רכבת רעננה דרום/איסוף",
        "marker-color": "#2ca02c",
        "marker-symbol": "bus",
        "marker-size": "medium"
      },
      "geometry": {
        "type": "Point",
        "coordinates": [
          34.887474,
          32.173295
        ]
      }
    },
    {
      "type": "Feature",
      "properties": {
        "type": "original_route_stop",
        "stop_code": "39961",
        "stop_name": "מסוף רעננה/הפנינה",
        "marker-color": "#2ca02c",
        "marker-symbol": "bus",
        "marker-size": "medium"
      },
      "geometry": {
        "type": "Point",
        "coordinates": [
          34.889928,
          32.1754
        ]
      }
    },
    {
      "type": "Feature",
      "properties": {
        "type": "original_route_stop",
        "stop_code": "37013",
        "stop_name": "אחוזה/הרב יצחק נסים",
        "marker-color": "#2ca02c",
        "marker-symbol": "bus",
        "marker-size": "medium"
      },
      "geometry": {
        "type": "Point",
        "coordinates": [
          34.886744,
          32.177924
        ]
      }
    },
    {
      "type": "Feature",
      "properties": {
        "type": "original_route_stop",
        "stop_code": "37062",
        "stop_name": "אחוזה/רבוצקי",
        "marker-color": "#2ca02c",
        "marker-symbol": "bus",
        "marker-size": "medium"
      },
      "geometry": {
        "type": "Point",
        "coordinates": [
          34.883885,
          32.178553
        ]
      }
    },
    {
      "type": "Feature",
      "properties": {
        "type": "original_route_stop",
        "stop_code": "37060",
        "stop_name": "מרכז אליאב/אחוזה",
        "marker-color": "#2ca02c",
        "marker-symbol": "bus",
        "marker-size": "medium"
      },
      "geometry": {
        "type": "Point",
        "coordinates": [
          34.88064,
          32.17926
        ]
      }
    },
    {
      "type": "Feature",
      "properties": {
        "type": "original_route_stop",
        "stop_code": "37058",
        "stop_name": "עיריית רעננה/אחוזה",
        "marker-color": "#2ca02c",
        "marker-symbol": "bus",
        "marker-size": "medium"
      },
      "geometry": {
        "type": "Point",
        "coordinates": [
          34.877759,
          32.17989
        ]
      }
    },
    {
      "type": "Feature",
      "properties": {
        "type": "original_route_stop",
        "stop_code": "37056",
        "stop_name": "אחוזה/ז'בוטינסקי",
        "marker-color": "#2ca02c",
        "marker-symbol": "bus",
        "marker-size": "medium"
      },
      "geometry": {
        "type": "Point",
        "coordinates": [
          34.874388,
          32.180657
        ]
      }
    },
    {
      "type": "Feature",
      "properties": {
        "type": "original_route_stop",
        "stop_code": "37055",
        "stop_name": "אחוזה/בן גוריון",
        "marker-color": "#2ca02c",
        "marker-symbol": "bus",
        "marker-size": "medium"
      },
      "geometry": {
        "type": "Point",
        "coordinates": [
          34.871547,
          32.181278
        ]
      }
    },
    {
      "type": "Feature",
      "properties": {
        "type": "original_route_stop",
        "stop_code": "39954",
        "stop_name": "שדרות וייצמן/מגדל",
        "marker-color": "#2ca02c",
        "marker-symbol": "bus",
        "marker-size": "medium"
      },
      "geometry": {
        "type": "Point",
        "coordinates": [
          34.866262,
          32.192458
        ]
      }
    },
    {
      "type": "Feature",
      "properties": {
        "type": "original_route_stop",
        "stop_code": "39921",
        "stop_name": "דב הוז/סעדיה גאון",
        "marker-color": "#2ca02c",
        "marker-symbol": "bus",
        "marker-size": "medium"
      },
      "geometry": {
        "type": "Point",
        "coordinates": [
          34.873504,
          32.193519
        ]
      }
    },
    {
      "type": "Feature",
      "properties": {
        "type": "original_route_stop",
        "stop_code": "39920",
        "stop_name": "דב הוז/יוחנן בן זכאי",
        "marker-color": "#2ca02c",
        "marker-symbol": "bus",
        "marker-size": "medium"
      },
      "geometry": {
        "type": "Point",
        "coordinates": [
          34.873984,
          32.195644
        ]
      }
    },
    {
      "type": "Feature",
      "properties": {
        "type": "original_route_stop",
        "stop_code": "39919",
        "stop_name": "אסתר המלכה/עתידים",
        "marker-color": "#2ca02c",
        "marker-symbol": "bus",
        "marker-size": "medium"
      },
      "geometry": {
        "type": "Point",
        "coordinates": [
          34.875598,
          32.197303
        ]
      }
    },
    {
      "type": "Feature",
      "properties": {
        "type": "original_route_stop",
        "stop_code": "34842",
        "stop_name": "קניון רננים/התעשייה",
        "marker-color": "#2ca02c",
        "marker-symbol": "bus",
        "marker-size": "medium"
      },
      "geometry": {
        "type": "Point",
        "coordinates": [
          34.878194,
          32.19633
        ]
      }
    },
    {
      "type": "Feature",
      "properties": {
        "type": "original_route_stop",
        "stop_code": "39918",
        "stop_name": "קאנטרי/הסדנא",
        "marker-color": "#2ca02c",
        "marker-symbol": "bus",
        "marker-size": "medium"
      },
      "geometry": {
        "type": "Point",
        "coordinates": [
          34.878379,
          32.193914
        ]
      }
    },
    {
      "type": "Feature",
      "properties": {
        "type": "original_route_stop",
        "stop_code": "39917",
        "stop_name": "הסדנא/התעשייה",
        "marker-color": "#2ca02c",
        "marker-symbol": "bus",
        "marker-size": "medium"
      },
      "geometry": {
        "type": "Point",
        "coordinates": [
          34.878688,
          32.195985
        ]
      }
    },
    {
      "type": "Feature",
      "properties": {
        "type": "original_route_stop",
        "stop_code": "39912",
        "stop_name": "החרושת/המסגר",
        "marker-color": "#2ca02c",
        "marker-symbol": "bus",
        "marker-size": "medium"
      },
      "geometry": {
        "type": "Point",
        "coordinates": [
          34.880484,
          32.195385
        ]
      }
    },
    {
      "type": "Feature",
      "properties": {
        "type": "original_route_stop",
        "stop_code": "39913",
        "stop_name": "החרושת/ויצמן",
        "marker-color": "#2ca02c",
        "marker-symbol": "bus",
        "marker-size": "medium"
      },
      "geometry": {
        "type": "Point",
        "coordinates": [
          34.880767,
          32.193588
        ]
      }
    },
    {
      "type": "Feature",
      "properties": {
        "type": "original_route_stop",
        "stop_code": "34259",
        "stop_name": "שדרות וייצמן/החרושת",
        "marker-color": "#2ca02c",
        "marker-symbol": "bus",
        "marker-size": "medium"
      },
      "geometry": {
        "type": "Point",
        "coordinates": [
          34.881454,
          32.192009
        ]
      }
    },
    {
      "type": "Feature",
      "properties": {
        "type": "original_route_stop",
        "stop_code": "39905",
        "stop_name": "בית המילניום/התדהר",
        "marker-color": "#2ca02c",
        "marker-symbol": "bus",
        "marker-size": "medium"
      },
      "geometry": {
        "type": "Point",
        "coordinates": [
          34.883956,
          32.192173
        ]
      }
    },
    {
      "type": "Feature",
      "properties": {
        "type": "original_route_stop",
        "stop_code": "39908",
        "stop_name": "התדהר/התעשייה",
        "marker-color": "#2ca02c",
        "marker-symbol": "bus",
        "marker-size": "medium"
      },
      "geometry": {
        "type": "Point",
        "coordinates": [
          34.884461,
          32.197342
        ]
      }
    },
    {
      "type": "Feature",
      "properties": {
        "type": "original_route_stop",
        "stop_code": "38081",
        "stop_name": "דפנה/התדהר",
        "marker-color": "#2ca02c",
        "marker-symbol": "bus",
        "marker-size": "medium"
      },
      "geometry": {
        "type": "Point",
        "coordinates": [
          34.883643,
          32.199608
        ]
      }
    },
    {
      "type": "Feature",
      "properties": {
        "type": "cancelled_stop",
        "stop_code": "37726",
        "stop_name": "קרן היסוד/ההסתדרות",
        "marker-color": "#ff0000",
        "marker-symbol": "bus",
        "marker-size": "medium"
      },
      "geometry": {
        "type": "Point",
        "coordinates": [
          34.872115,
          32.186905
        ]
      }
    },
    {
      "type": "Feature",
      "properties": {
        "type": "cancelled_stop",
        "stop_code": "39725",
        "stop_name": "מרכז לקשיש/ההגנה",
        "marker-color": "#ff0000",
        "marker-symbol": "bus",
        "marker-size": "medium"
      },
      "geometry": {
        "type": "Point",
        "coordinates": [
          34.868116,
          32.188954
        ]
      }
    },
    {
      "type": "Feature",
      "properties": {
        "type": "cancelled_stop",
        "stop_code": "39931",
        "stop_name": "המחתרות/שפינוזה",
        "marker-color": "#ff0000",
        "marker-symbol": "bus",
        "marker-size": "medium"
      },
      "geometry": {
        "type": "Point",
        "coordinates": [
          34.864841,
          32.189625
        ]
      }
    },
    {
      "type": "Feature",
      "properties": {
        "type": "new_stop",
        "stop_code": "37592",
        "stop_name": "החי''ל/הר סיני",
        "marker-color": "#1f9ed6",
        "marker-symbol": "bus",
        "marker-size": "medium"
      },
      "geometry": {
        "type": "Point",
        "coordinates": [
          34.869537,
          32.184841
        ]
      }
    },
    {
      "type": "Feature",
      "properties": {
        "type": "new_stop",
        "stop_code": "39879",
        "stop_name": "החי''ל/חפץ חיים",
        "marker-color": "#1f9ed6",
        "marker-symbol": "bus",
        "marker-size": "medium"
      },
      "geometry": {
        "type": "Point",
        "coordinates": [
          34.86754,
          32.185321
        ]
      }
    },
    {
      "type": "Feature",
      "properties": {
        "type": "new_stop",
        "stop_code": "37294",
        "stop_name": "חטיבת אלון/החי''ל",
        "marker-color": "#1f9ed6",
        "marker-symbol": "bus",
        "marker-size": "medium"
      },
      "geometry": {
        "type": "Point",
        "coordinates": [
          34.864486,
          32.185925
        ]
      }
    },
    {
      "type": "Feature",
      "properties": {
        "type": "new_stop",
        "stop_code": "32074",
        "stop_name": "הנשיאים/החי''ל",
        "marker-color": "#1f9ed6",
        "marker-symbol": "bus",
        "marker-size": "medium"
      },
      "geometry": {
        "type": "Point",
        "coordinates": [
          34.862375,
          32.186485
        ]
      }
    },
    {
      "type": "Feature",
      "properties": {
        "type": "reported_block_stop",
        "stop_code": "39725",
        "stop_name": "מרכז לקשיש/ההגנה",
        "marker-color": "#ff8800",
        "marker-symbol": "bus",
        "marker-size": "medium"
      },
      "geometry": {
        "type": "Point",
        "coordinates": [
          34.868116,
          32.188954
        ]
      }
    },
    {
      "type": "Feature",
      "properties": {
        "type": "reported_block_stop",
        "stop_code": "39931",
        "stop_name": "המחתרות/שפינוזה",
        "marker-color": "#ff8800",
        "marker-symbol": "bus",
        "marker-size": "medium"
      },
      "geometry": {
        "type": "Point",
        "coordinates": [
          34.864841,
          32.189625
        ]
      }
    },
    {
      "type": "Feature",
      "properties": {
        "type": "deviate_from_stop",
        "stop_code": "39883",
        "stop_name": "קרן היסוד/גולומב",
        "marker-color": "#8000ff",
        "marker-symbol": "bus",
        "marker-size": "medium"
      },
      "geometry": {
        "type": "Point",
        "coordinates": [
          34.871097,
          32.183549
        ]
      }
    },
    {
      "type": "Feature",
      "properties": {
        "type": "deviate_to_stop",
        "stop_code": "30030",
        "stop_name": "ספורטק/הנשיאים",
        "marker-color": "#8000ff",
        "marker-symbol": "bus",
        "marker-size": "medium"
      },
      "geometry": {
        "type": "Point",
        "coordinates": [
          34.863608,
          32.1918
        ]
      }
    }
  ]
}