{
  "type": "FeatureCollection",
  "features": [
    {
      "type": "Feature",
      "properties": {
        "type": "deviation_path",
        "trip_id": "10698509_020826",
        "shape_id": "165108",
        "stroke": "#00bcd4",
        "stroke-width": 3,
        "stroke-opacity": 0.95
      },
      "geometry": {
        "type": "LineString",
        "coordinates": [
          [
            34.79716442073141,
            32.113057845386294
          ],
          [
            34.79688,
            32.11303
          ],
          [
            34.796458,
            32.112987
          ],
          [
            34.79587,
            32.112939
          ],
          [
            34.795928,
            32.11331
          ],
          [
            34.796038,
            32.113941
          ],
          [
            34.796149,
            32.114423
          ],
          [
            34.796329,
            32.115667
          ],
          [
            34.79636,
            32.115866
          ],
          [
            34.796376,
            32.115963
          ],
          [
            34.796442,
            32.116332
          ],
          [
            34.796557,
            32.116986
          ],
          [
            34.79658,
            32.117093
          ],
          [
            34.796607,
            32.117169
          ],
          [
            34.796639,
            32.117223
          ],
          [
            34.796711,
            32.117314
          ],
          [
            34.796779,
            32.117368
          ],
          [
            34.796854,
            32.117414
          ],
          [
            34.79694,
            32.117451
          ],
          [
            34.797264,
            32.117553
          ],
          [
            34.797426,
            32.117598
          ],
          [
            34.797445,
            32.117587
          ],
          [
            34.797459,
            32.117581
          ],
          [
            34.797474,
            32.117576
          ],
          [
            34.797489,
            32.117574
          ],
          [
            34.797505,
            32.117572
          ],
          [
            34.797528,
            32.117573
          ],
          [
            34.797551,
            32.117578
          ],
          [
            34.797566,
            32.117582
          ],
          [
            34.797579,
            32.117589
          ],
          [
            34.797598,
            32.1176
          ],
          [
            34.797608,
            32.11761
          ],
          [
            34.797617,
            32.117619
          ],
          [
            34.797671,
            32.117635
          ],
          [
            34.797715,
            32.11764
          ],
          [
            34.797782,
            32.117643
          ],
          [
            34.798274,
            32.117777
          ],
          [
            34.799106,
            32.117983
          ],
          [
            34.799211,
            32.118006
          ],
          [
            34.799465,
            32.11806
          ],
          [
            34.799512,
            32.118071
          ],
          [
            34.799835,
            32.118174
          ],
          [
            34.799967,
            32.118225
          ],
          [
            34.800016,
            32.118214
          ],
          [
            34.800057,
            32.118214
          ],
          [
            34.800091,
            32.118222
          ],
          [
            34.800127,
            32.118238
          ],
          [
            34.800141,
            32.11825
          ],
          [
            34.800248,
            32.118261
          ],
          [
            34.80035,
            32.118273
          ],
          [
            34.80045,
            32.118279
          ],
          [
            34.800639,
            32.118275
          ],
          [
            34.801512,
            32.118133
          ],
          [
            34.801648,
            32.118176
          ],
          [
            34.801657,
            32.118216
          ],
          [
            34.801741,
            32.118615
          ],
          [
            34.801817667661986,
            32.11905200567333
          ]
        ]
      }
    },
    {
      "type": "Feature",
      "properties": {
        "type": "original_route_shape",
        "shape_id": "147178",
        "stroke": "#1f2a7a",
        "stroke-width": 3,
        "stroke-opacity": 0.85
      },
      "geometry": {
        "type": "LineString",
        "coordinates": [
          [
            34.84132621417212,
            32.114186965347955
          ],
          [
            34.840918,
            32.114488
          ],
          [
            34.840914,
            32.114522
          ],
          [
            34.840895,
            32.114548
          ],
          [
            34.840972,
            32.114607
          ],
          [
            34.841155,
            32.114746
          ],
          [
            34.841208,
            32.114793
          ],
          [
            34.841307,
            32.114883
          ],
          [
            34.84148,
            32.115074
          ],
          [
            34.841791,
            32.115379
          ],
          [
            34.841834,
            32.11538
          ],
          [
            34.841875,
            32.115393
          ],
          [
            34.841909,
            32.115416
          ],
          [
            34.841937,
            32.115454
          ],
          [
            34.841943,
            32.115488
          ],
          [
            34.841946,
            32.115505
          ],
          [
            34.841939,
            32.115534
          ],
          [
            34.841929,
            32.115554
          ],
          [
            34.841902,
            32.115584
          ],
          [
            34.841858,
            32.115608
          ],
          [
            34.841849,
            32.11561
          ],
          [
            34.841816,
            32.115616
          ],
          [
            34.841773,
            32.115613
          ],
          [
            34.841733,
            32.115599
          ],
          [
            34.841699,
            32.115575
          ],
          [
            34.841632,
            32.115645
          ],
          [
            34.841398,
            32.115852
          ],
          [
            34.84116,
            32.116046
          ],
          [
            34.841024,
            32.116165
          ],
          [
            34.840668,
            32.116476
          ],
          [
            34.840776,
            32.116578
          ],
          [
            34.840947,
            32.116738
          ],
          [
            34.841166,
            32.116944
          ],
          [
            34.841179,
            32.116956
          ],
          [
            34.841405,
            32.117187
          ],
          [
            34.841489,
            32.117315
          ],
          [
            34.841614,
            32.117519
          ],
          [
            34.84167,
            32.117661
          ],
          [
            34.841704,
            32.118024
          ],
          [
            34.841641,
            32.118328
          ],
          [
            34.841573,
            32.118603
          ],
          [
            34.841593,
            32.118614
          ],
          [
            34.841607,
            32.118625
          ],
          [
            34.841624,
            32.118649
          ],
          [
            34.84163,
            32.118666
          ],
          [
            34.841633,
            32.118694
          ],
          [
            34.841626,
            32.118722
          ],
          [
            34.841618,
            32.118738
          ],
          [
            34.841606,
            32.118751
          ],
          [
            34.841592,
            32.118763
          ],
          [
            34.841569,
            32.118774
          ],
          [
            34.841559,
            32.118778
          ],
          [
            34.841522,
            32.11878
          ],
          [
            34.841498,
            32.118775
          ],
          [
            34.841481,
            32.118767
          ],
          [
            34.841462,
            32.118753
          ],
          [
            34.84145,
            32.11874
          ],
          [
            34.841442,
            32.11872
          ],
          [
            34.841434,
            32.118702
          ],
          [
            34.841434,
            32.11869
          ],
          [
            34.840971,
            32.118896
          ],
          [
            34.8409,
            32.118921
          ],
          [
            34.84083,
            32.118934
          ],
          [
            34.840592,
            32.118944
          ],
          [
            34.840494,
            32.118937
          ],
          [
            34.840259,
            32.118917
          ],
          [
            34.840013,
            32.118864
          ],
          [
            34.839645,
            32.118789
          ],
          [
            34.839129,
            32.11857
          ],
          [
            34.839045,
            32.118533
          ],
          [
            34.83892,
            32.118449
          ],
          [
            34.838821,
            32.118366
          ],
          [
            34.838796,
            32.118345
          ],
          [
            34.838734,
            32.118264
          ],
          [
            34.838672,
            32.118177
          ],
          [
            34.838592,
            32.118061
          ],
          [
            34.838562,
            32.118028
          ],
          [
            34.838522,
            32.118003
          ],
          [
            34.838444,
            32.117978
          ],
          [
            34.838223,
            32.117896
          ],
          [
            34.838142,
            32.117869
          ],
          [
            34.837865,
            32.117773
          ],
          [
            34.837851,
            32.117768
          ],
          [
            34.837763,
            32.117728
          ],
          [
            34.837679,
            32.11769
          ],
          [
            34.837706,
            32.117659
          ],
          [
            34.837726,
            32.117628
          ],
          [
            34.837888,
            32.117389
          ],
          [
            34.838094,
            32.117066
          ],
          [
            34.838358,
            32.116647
          ],
          [
            34.838483,
            32.116448
          ],
          [
            34.838644,
            32.116219
          ],
          [
            34.838812,
            32.116019
          ],
          [
            34.83899,
            32.115824
          ],
          [
            34.839108,
            32.115696
          ],
          [
            34.839423,
            32.115419
          ],
          [
            34.839706,
            32.115211
          ],
          [
            34.839849,
            32.115104
          ],
          [
            34.840006,
            32.114996
          ],
          [
            34.840144,
            32.114902
          ],
          [
            34.840213,
            32.114844
          ],
          [
            34.840256,
            32.114798
          ],
          [
            34.840311,
            32.114669
          ],
          [
            34.840355,
            32.114547
          ],
          [
            34.840366,
            32.114495
          ],
          [
            34.840381,
            32.114379
          ],
          [
            34.840374,
            32.114298
          ],
          [
            34.840364,
            32.11421
          ],
          [
            34.840343,
            32.114098
          ],
          [
            34.840286,
            32.114013
          ],
          [
            34.840215,
            32.113905
          ],
          [
            34.840054,
            32.113719
          ],
          [
            34.839988,
            32.113634
          ],
          [
            34.839973,
            32.113615
          ],
          [
            34.839887,
            32.113491
          ],
          [
            34.839616,
            32.113064
          ],
          [
            34.839327,
            32.112549
          ],
          [
            34.839179,
            32.112308
          ],
          [
            34.839123,
            32.112218
          ],
          [
            34.838845,
            32.111774
          ],
          [
            34.838673,
            32.11152
          ],
          [
            34.838402,
            32.111189
          ],
          [
            34.837983,
            32.110719
          ],
          [
            34.837818,
            32.110543
          ],
          [
            34.837758,
            32.11048
          ],
          [
            34.83769,
            32.110407
          ],
          [
            34.83736,
            32.1101
          ],
          [
            34.836952,
            32.109744
          ],
          [
            34.83659,
            32.109421
          ],
          [
            34.836139,
            32.109011
          ],
          [
            34.835709,
            32.108621
          ],
          [
            34.835083,
            32.108099
          ],
          [
            34.834656,
            32.107761
          ],
          [
            34.83438,
            32.107565
          ],
          [
            34.834115,
            32.107389
          ],
          [
            34.833832,
            32.107226
          ],
          [
            34.83361,
            32.107119
          ],
          [
            34.833369,
            32.107023
          ],
          [
            34.833082,
            32.106934
          ],
          [
            34.832942,
            32.10689
          ],
          [
            34.832594,
            32.10681
          ],
          [
            34.832355,
            32.106769
          ],
          [
            34.832119,
            32.106745
          ],
          [
            34.831886,
            32.106737
          ],
          [
            34.831602,
            32.106747
          ],
          [
            34.831333,
            32.106771
          ],
          [
            34.831029,
            32.10681
          ],
          [
            34.830543,
            32.106883
          ],
          [
            34.830213,
            32.106939
          ],
          [
            34.829777,
            32.107013
          ],
          [
            34.829472,
            32.107066
          ],
          [
            34.829032,
            32.107141
          ],
          [
            34.828462,
            32.107223
          ],
          [
            34.828129,
            32.107268
          ],
          [
            34.827867,
            32.107333
          ],
          [
            34.827768,
            32.107371
          ],
          [
            34.827693,
            32.107409
          ],
          [
            34.827598,
            32.107463
          ],
          [
            34.827484,
            32.107534
          ],
          [
            34.82726,
            32.107742
          ],
          [
            34.827096,
            32.108162
          ],
          [
            34.827078,
            32.108214
          ],
          [
            34.826993,
            32.108459
          ],
          [
            34.826916,
            32.108682
          ],
          [
            34.82673,
            32.109111
          ],
          [
            34.82668,
            32.109226
          ],
          [
            34.826326,
            32.109842
          ],
          [
            34.826029,
            32.110357
          ],
          [
            34.825891,
            32.110317
          ],
          [
            34.825675,
            32.110235
          ],
          [
            34.825208,
            32.11012
          ],
          [
            34.824671,
            32.110063
          ],
          [
            34.824707,
            32.10937
          ],
          [
            34.824735,
            32.108861
          ],
          [
            34.824754,
            32.10856
          ],
          [
            34.824762,
            32.108382
          ],
          [
            34.824767,
            32.10829
          ],
          [
            34.824785,
            32.107892
          ],
          [
            34.824776,
            32.107799
          ],
          [
            34.824754,
            32.107725
          ],
          [
            34.82472,
            32.10764
          ],
          [
            34.824665,
            32.107514
          ],
          [
            34.824615,
            32.107444
          ],
          [
            34.824572,
            32.107394
          ],
          [
            34.82454,
            32.107366
          ],
          [
            34.824455,
            32.107297
          ],
          [
            34.824373,
            32.107241
          ],
          [
            34.824296,
            32.107198
          ],
          [
            34.824217,
            32.107164
          ],
          [
            34.824132,
            32.107139
          ],
          [
            34.824095,
            32.107128
          ],
          [
            34.823985,
            32.107105
          ],
          [
            34.823776,
            32.107081
          ],
          [
            34.823536,
            32.107062
          ],
          [
            34.823426,
            32.10705
          ],
          [
            34.823202,
            32.107028
          ],
          [
            34.822971,
            32.107004
          ],
          [
            34.822091,
            32.106912
          ],
          [
            34.821953,
            32.106896
          ],
          [
            34.821702,
            32.106874
          ],
          [
            34.821459,
            32.106848
          ],
          [
            34.821133,
            32.106832
          ],
          [
            34.820958,
            32.106847
          ],
          [
            34.820793,
            32.106881
          ],
          [
            34.820591,
            32.106945
          ],
          [
            34.820432,
            32.107005
          ],
          [
            34.820278,
            32.107089
          ],
          [
            34.820077,
            32.10727
          ],
          [
            34.819935,
            32.107432
          ],
          [
            34.819838,
            32.107611
          ],
          [
            34.819787,
            32.107739
          ],
          [
            34.81976,
            32.107842
          ],
          [
            34.819732,
            32.107955
          ],
          [
            34.819681,
            32.10811
          ],
          [
            34.819567,
            32.108334
          ],
          [
            34.819594,
            32.108343
          ],
          [
            34.819621,
            32.108363
          ],
          [
            34.819641,
            32.108389
          ],
          [
            34.819648,
            32.108407
          ],
          [
            34.819649,
            32.108451
          ],
          [
            34.81963,
            32.108491
          ],
          [
            34.819605,
            32.108513
          ],
          [
            34.819582,
            32.108524
          ],
          [
            34.819563,
            32.108587
          ],
          [
            34.819525,
            32.10869
          ],
          [
            34.819457,
            32.108823
          ],
          [
            34.819383,
            32.108954
          ],
          [
            34.819312,
            32.109045
          ],
          [
            34.819101,
            32.109317
          ],
          [
            34.81897,
            32.10947
          ],
          [
            34.818905,
            32.109546
          ],
          [
            34.818633,
            32.109777
          ],
          [
            34.818472,
            32.109898
          ],
          [
            34.818206,
            32.110081
          ],
          [
            34.817868,
            32.110255
          ],
          [
            34.817612,
            32.110389
          ],
          [
            34.817248,
            32.110604
          ],
          [
            34.816933,
            32.110772
          ],
          [
            34.816705,
            32.110893
          ],
          [
            34.816617,
            32.110939
          ],
          [
            34.81642,
            32.110919
          ],
          [
            34.816366,
            32.110691
          ],
          [
            34.816319,
            32.110518
          ],
          [
            34.816259,
            32.110293
          ],
          [
            34.816209,
            32.110156
          ],
          [
            34.816138,
            32.109962
          ],
          [
            34.816084,
            32.109839
          ],
          [
            34.81589,
            32.109391
          ],
          [
            34.815764,
            32.109181
          ],
          [
            34.815716,
            32.109101
          ],
          [
            34.815441,
            32.108665
          ],
          [
            34.815169,
            32.108275
          ],
          [
            34.814983,
            32.108023
          ],
          [
            34.814918,
            32.107934
          ],
          [
            34.814886,
            32.107894
          ],
          [
            34.814842,
            32.107852
          ],
          [
            34.81457,
            32.107531
          ],
          [
            34.814514,
            32.107469
          ],
          [
            34.814099,
            32.107012
          ],
          [
            34.813911,
            32.106847
          ],
          [
            34.813511,
            32.106496
          ],
          [
            34.813417,
            32.106399
          ],
          [
            34.81303,
            32.106092
          ],
          [
            34.812379,
            32.105575
          ],
          [
            34.812375,
            32.105571
          ],
          [
            34.811915,
            32.105263
          ],
          [
            34.811645,
            32.105086
          ],
          [
            34.811511,
            32.105011
          ],
          [
            34.810996,
            32.104722
          ],
          [
            34.810529,
            32.10446
          ],
          [
            34.810114,
            32.104273
          ],
          [
            34.810004,
            32.104223
          ],
          [
            34.809934,
            32.10419
          ],
          [
            34.809653,
            32.104055
          ],
          [
            34.809345,
            32.103915
          ],
          [
            34.809207,
            32.103852
          ],
          [
            34.808048,
            32.103378
          ],
          [
            34.80753,
            32.103187
          ],
          [
            34.807054,
            32.10303
          ],
          [
            34.806468,
            32.102838
          ],
          [
            34.806363,
            32.102811
          ],
          [
            34.806049,
            32.102724
          ],
          [
            34.805464,
            32.102565
          ],
          [
            34.804969,
            32.102455
          ],
          [
            34.804533,
            32.102357
          ],
          [
            34.804237,
            32.10229
          ],
          [
            34.804193,
            32.10228
          ],
          [
            34.804065,
            32.102252
          ],
          [
            34.803943,
            32.102223
          ],
          [
            34.803236,
            32.102062
          ],
          [
            34.803054,
            32.102019
          ],
          [
            34.803015,
            32.102011
          ],
          [
            34.802783,
            32.102032
          ],
          [
            34.802712,
            32.10204
          ],
          [
            34.802623,
            32.102072
          ],
          [
            34.802558,
            32.102107
          ],
          [
            34.802515,
            32.102143
          ],
          [
            34.80248,
            32.102181
          ],
          [
            34.802436,
            32.102246
          ],
          [
            34.802407,
            32.10232
          ],
          [
            34.802393,
            32.102401
          ],
          [
            34.802397,
            32.102509
          ],
          [
            34.802424,
            32.102624
          ],
          [
            34.802462,
            32.102718
          ],
          [
            34.802564,
            32.102908
          ],
          [
            34.802692,
            32.103045
          ],
          [
            34.80284,
            32.103181
          ],
          [
            34.803134,
            32.103428
          ],
          [
            34.803289,
            32.103585
          ],
          [
            34.803405,
            32.103687
          ],
          [
            34.803443,
            32.103744
          ],
          [
            34.803487,
            32.103818
          ],
          [
            34.803509,
            32.103878
          ],
          [
            34.803524,
            32.103936
          ],
          [
            34.803536,
            32.104019
          ],
          [
            34.803544,
            32.104164
          ],
          [
            34.803544,
            32.104244
          ],
          [
            34.803521,
            32.104463
          ],
          [
            34.803512,
            32.104644
          ],
          [
            34.803535,
            32.104791
          ],
          [
            34.803568,
            32.104881
          ],
          [
            34.803602,
            32.104953
          ],
          [
            34.80366,
            32.105037
          ],
          [
            34.803701,
            32.105085
          ],
          [
            34.803759,
            32.10513
          ],
          [
            34.803814,
            32.105176
          ],
          [
            34.803938,
            32.10527
          ],
          [
            34.804084,
            32.105386
          ],
          [
            34.80432,
            32.105576
          ],
          [
            34.804361,
            32.105611
          ],
          [
            34.804409,
            32.105662
          ],
          [
            34.804447,
            32.105711
          ],
          [
            34.804488,
            32.105772
          ],
          [
            34.804523,
            32.105853
          ],
          [
            34.804551,
            32.105926
          ],
          [
            34.804564,
            32.105959
          ],
          [
            34.804641,
            32.106174
          ],
          [
            34.804671,
            32.10629
          ],
          [
            34.804713,
            32.106473
          ],
          [
            34.80474,
            32.106557
          ],
          [
            34.804787,
            32.106659
          ],
          [
            34.8048,
            32.106671
          ],
          [
            34.804812,
            32.106686
          ],
          [
            34.804831,
            32.106721
          ],
          [
            34.804835,
            32.106745
          ],
          [
            34.804836,
            32.106776
          ],
          [
            34.804829,
            32.106808
          ],
          [
            34.804813,
            32.106838
          ],
          [
            34.804795,
            32.106863
          ],
          [
            34.804788,
            32.106869
          ],
          [
            34.804749,
            32.106893
          ],
          [
            34.804717,
            32.106908
          ],
          [
            34.804692,
            32.106914
          ],
          [
            34.80466,
            32.10692
          ],
          [
            34.804632,
            32.106918
          ],
          [
            34.804598,
            32.10691
          ],
          [
            34.804563,
            32.106898
          ],
          [
            34.804545,
            32.106889
          ],
          [
            34.804516,
            32.10687
          ],
          [
            34.804494,
            32.10685
          ],
          [
            34.804477,
            32.106817
          ],
          [
            34.804251,
            32.106798
          ],
          [
            34.803931,
            32.106812
          ],
          [
            34.8038,
            32.106818
          ],
          [
            34.803501,
            32.106815
          ],
          [
            34.803282,
            32.106797
          ],
          [
            34.803025,
            32.106745
          ],
          [
            34.802746,
            32.106649
          ],
          [
            34.802417,
            32.106532
          ],
          [
            34.802339,
            32.106521
          ],
          [
            34.802238,
            32.106522
          ],
          [
            34.802225,
            32.106531
          ],
          [
            34.802218,
            32.106536
          ],
          [
            34.802202,
            32.106545
          ],
          [
            34.802185,
            32.106551
          ],
          [
            34.802167,
            32.106556
          ],
          [
            34.802148,
            32.106559
          ],
          [
            34.802129,
            32.10656
          ],
          [
            34.80211,
            32.10656
          ],
          [
            34.802085,
            32.106555
          ],
          [
            34.802065,
            32.106549
          ],
          [
            34.802056,
            32.106546
          ],
          [
            34.80204,
            32.106538
          ],
          [
            34.802025,
            32.106528
          ],
          [
            34.802018,
            32.106523
          ],
          [
            34.802006,
            32.106511
          ],
          [
            34.802,
            32.106505
          ],
          [
            34.801995,
            32.106498
          ],
          [
            34.801987,
            32.106484
          ],
          [
            34.801981,
            32.10647
          ],
          [
            34.801978,
            32.106462
          ],
          [
            34.801975,
            32.106447
          ],
          [
            34.801975,
            32.106427
          ],
          [
            34.801742,
            32.106296
          ],
          [
            34.801528,
            32.106225
          ],
          [
            34.801444,
            32.106207
          ],
          [
            34.801337,
            32.106196
          ],
          [
            34.801214,
            32.106192
          ],
          [
            34.801195,
            32.106192
          ],
          [
            34.801009,
            32.106227
          ],
          [
            34.800845,
            32.106275
          ],
          [
            34.800719,
            32.10632
          ],
          [
            34.800636,
            32.106362
          ],
          [
            34.800533,
            32.106415
          ],
          [
            34.800486,
            32.106349
          ],
          [
            34.800317,
            32.106095
          ],
          [
            34.800256,
            32.106015
          ],
          [
            34.800144,
            32.105855
          ],
          [
            34.800091,
            32.105784
          ],
          [
            34.799976,
            32.105633
          ],
          [
            34.799635,
            32.105276
          ],
          [
            34.799363,
            32.105034
          ],
          [
            34.79904,
            32.104807
          ],
          [
            34.798823,
            32.104667
          ],
          [
            34.798815,
            32.104661
          ],
          [
            34.798552,
            32.104514
          ],
          [
            34.798034,
            32.104254
          ],
          [
            34.797889,
            32.104191
          ],
          [
            34.797775,
            32.104139
          ],
          [
            34.796738,
            32.103713
          ],
          [
            34.796079,
            32.103479
          ],
          [
            34.795794,
            32.103378
          ],
          [
            34.795222,
            32.103232
          ],
          [
            34.79493,
            32.103158
          ],
          [
            34.794681,
            32.103181
          ],
          [
            34.794626,
            32.103212
          ],
          [
            34.794613,
            32.103223
          ],
          [
            34.794597,
            32.103236
          ],
          [
            34.794534,
            32.103339
          ],
          [
            34.794549,
            32.103981
          ],
          [
            34.794566,
            32.10454
          ],
          [
            34.794584,
            32.104824
          ],
          [
            34.794595,
            32.104827
          ],
          [
            34.794606,
            32.104831
          ],
          [
            34.794622,
            32.104839
          ],
          [
            34.794636,
            32.10485
          ],
          [
            34.794644,
            32.104858
          ],
          [
            34.794651,
            32.104867
          ],
          [
            34.794656,
            32.104877
          ],
          [
            34.79466,
            32.104887
          ],
          [
            34.794663,
            32.104903
          ],
          [
            34.794662,
            32.104919
          ],
          [
            34.79466,
            32.104929
          ],
          [
            34.794656,
            32.104938
          ],
          [
            34.79465,
            32.104949
          ],
          [
            34.794644,
            32.104958
          ],
          [
            34.794636,
            32.104966
          ],
          [
            34.794622,
            32.104977
          ],
          [
            34.794611,
            32.104983
          ],
          [
            34.7946,
            32.104987
          ],
          [
            34.794588,
            32.10499
          ],
          [
            34.794573,
            32.104993
          ],
          [
            34.794557,
            32.104993
          ],
          [
            34.794539,
            32.104991
          ],
          [
            34.794529,
            32.104988
          ],
          [
            34.794487,
            32.105138
          ],
          [
            34.79442,
            32.105469
          ],
          [
            34.794316,
            32.105936
          ],
          [
            34.794238,
            32.106391
          ],
          [
            34.794136,
            32.106988
          ],
          [
            34.794096,
            32.107253
          ],
          [
            34.794106,
            32.107815
          ],
          [
            34.794131,
            32.108268
          ],
          [
            34.794145,
            32.108386
          ],
          [
            34.794186,
            32.108518
          ],
          [
            34.794269,
            32.108673
          ],
          [
            34.794339,
            32.108794
          ],
          [
            34.794416,
            32.10892
          ],
          [
            34.794756,
            32.109221
          ],
          [
            34.795085,
            32.10941
          ],
          [
            34.795269,
            32.109458
          ],
          [
            34.795636,
            32.109554
          ],
          [
            34.795738,
            32.109581
          ],
          [
            34.795822,
            32.109593
          ],
          [
            34.796543,
            32.109693
          ],
          [
            34.797412,
            32.109835
          ],
          [
            34.798209,
            32.109984
          ],
          [
            34.798221,
            32.109962
          ],
          [
            34.798239,
            32.109945
          ],
          [
            34.798258,
            32.109935
          ],
          [
            34.798284,
            32.109929
          ],
          [
            34.798317,
            32.109931
          ],
          [
            34.798337,
            32.109938
          ],
          [
            34.79835,
            32.109947
          ],
          [
            34.798362,
            32.109957
          ],
          [
            34.798373,
            32.109974
          ],
          [
            34.798381,
            32.110002
          ],
          [
            34.798381,
            32.110016
          ],
          [
            34.798376,
            32.110031
          ],
          [
            34.798361,
            32.110056
          ],
          [
            34.798345,
            32.110069
          ],
          [
            34.798321,
            32.11008
          ],
          [
            34.79825,
            32.110359
          ],
          [
            34.798149,
            32.110863
          ],
          [
            34.798006,
            32.111592
          ],
          [
            34.797948,
            32.111886
          ],
          [
            34.797783,
            32.112769
          ],
          [
            34.797734,
            32.112982
          ],
          [
            34.79771,
            32.113106
          ],
          [
            34.797614,
            32.113098
          ],
          [
            34.797166,
            32.113058
          ],
          [
            34.79688,
            32.11303
          ],
          [
            34.796458,
            32.112987
          ],
          [
            34.79587,
            32.112939
          ],
          [
            34.795928,
            32.11331
          ],
          [
            34.796038,
            32.113941
          ],
          [
            34.796149,
            32.114423
          ],
          [
            34.79601,
            32.114416
          ],
          [
            34.795096,
            32.114516
          ],
          [
            34.794719,
            32.114547
          ],
          [
            34.794639,
            32.114569
          ],
          [
            34.794582,
            32.114601
          ],
          [
            34.794528,
            32.114655
          ],
          [
            34.794606,
            32.115052
          ],
          [
            34.79471,
            32.11556
          ],
          [
            34.794774,
            32.115869
          ],
          [
            34.794814,
            32.116124
          ],
          [
            34.794853,
            32.116312
          ],
          [
            34.794944,
            32.116759
          ],
          [
            34.795,
            32.117037
          ],
          [
            34.795046,
            32.117238
          ],
          [
            34.795141,
            32.117699
          ],
          [
            34.795219,
            32.118094
          ],
          [
            34.795282,
            32.118449
          ],
          [
            34.795293,
            32.118519
          ],
          [
            34.795369,
            32.118966
          ],
          [
            34.795428,
            32.119338
          ],
          [
            34.795473,
            32.119564
          ],
          [
            34.795616,
            32.120228
          ],
          [
            34.795669,
            32.120509
          ],
          [
            34.795777,
            32.121073
          ],
          [
            34.795803,
            32.121131
          ],
          [
            34.795836,
            32.121164
          ],
          [
            34.795899,
            32.121184
          ],
          [
            34.795972,
            32.121194
          ],
          [
            34.796059,
            32.121194
          ],
          [
            34.796154,
            32.121181
          ],
          [
            34.796271,
            32.121165
          ],
          [
            34.796547,
            32.12112
          ],
          [
            34.796735,
            32.121095
          ],
          [
            34.797071,
            32.121052
          ],
          [
            34.797482,
            32.120997
          ],
          [
            34.79778,
            32.120957
          ],
          [
            34.797907,
            32.120942
          ],
          [
            34.798035,
            32.120926
          ],
          [
            34.798441,
            32.120866
          ],
          [
            34.798519,
            32.120854
          ],
          [
            34.798625,
            32.120838
          ],
          [
            34.798699,
            32.120824
          ],
          [
            34.799423,
            32.120716
          ],
          [
            34.799518,
            32.120702
          ],
          [
            34.799609,
            32.120689
          ],
          [
            34.799679,
            32.120678
          ],
          [
            34.800229,
            32.120602
          ],
          [
            34.800356,
            32.120584
          ],
          [
            34.800289,
            32.120497
          ],
          [
            34.800261,
            32.120403
          ],
          [
            34.800213,
            32.120138
          ],
          [
            34.800207,
            32.120099
          ],
          [
            34.800109,
            32.119679
          ],
          [
            34.800093,
            32.11959
          ],
          [
            34.800006,
            32.119175
          ],
          [
            34.799972,
            32.118985
          ],
          [
            34.799904,
            32.118608
          ],
          [
            34.799898,
            32.118529
          ],
          [
            34.799913,
            32.118436
          ],
          [
            34.799894,
            32.118417
          ],
          [
            34.799881,
            32.118386
          ],
          [
            34.799872,
            32.118355
          ],
          [
            34.799881,
            32.118305
          ],
          [
            34.799903,
            32.11827
          ],
          [
            34.79993,
            32.118245
          ],
          [
            34.799967,
            32.118225
          ],
          [
            34.800016,
            32.118214
          ],
          [
            34.800057,
            32.118214
          ],
          [
            34.800091,
            32.118222
          ],
          [
            34.800127,
            32.118238
          ],
          [
            34.800141,
            32.11825
          ],
          [
            34.800248,
            32.118261
          ],
          [
            34.80035,
            32.118273
          ],
          [
            34.80045,
            32.118279
          ],
          [
            34.800639,
            32.118275
          ],
          [
            34.801512,
            32.118133
          ],
          [
            34.801637,
            32.118121
          ],
          [
            34.801648,
            32.118176
          ],
          [
            34.801657,
            32.118216
          ],
          [
            34.801741,
            32.118615
          ],
          [
            34.802051,
            32.120382
          ],
          [
            34.802168,
            32.121048
          ],
          [
            34.802193,
            32.121161
          ],
          [
            34.802236,
            32.121356
          ],
          [
            34.802244,
            32.121394
          ],
          [
            34.802265,
            32.121488
          ],
          [
            34.802315,
            32.121718
          ],
          [
            34.802411,
            32.122158
          ],
          [
            34.802526,
            32.122755
          ],
          [
            34.802546,
            32.122861
          ],
          [
            34.802762,
            32.123984
          ],
          [
            34.802844,
            32.124413
          ],
          [
            34.802869,
            32.124543
          ],
          [
            34.802878,
            32.124589
          ],
          [
            34.802895,
            32.124596
          ],
          [
            34.802905,
            32.124602
          ],
          [
            34.802916,
            32.12461
          ],
          [
            34.802924,
            32.124617
          ],
          [
            34.802932,
            32.124627
          ],
          [
            34.80294,
            32.124642
          ],
          [
            34.802944,
            32.124652
          ],
          [
            34.802947,
            32.124665
          ],
          [
            34.802947,
            32.124674
          ],
          [
            34.802946,
            32.124686
          ],
          [
            34.802942,
            32.124702
          ],
          [
            34.802933,
            32.124719
          ],
          [
            34.802924,
            32.124731
          ],
          [
            34.802915,
            32.124739
          ],
          [
            34.802905,
            32.124747
          ],
          [
            34.802888,
            32.124755
          ],
          [
            34.80287,
            32.124761
          ],
          [
            34.802857,
            32.124763
          ],
          [
            34.802849,
            32.124764
          ],
          [
            34.802831,
            32.124763
          ],
          [
            34.802813,
            32.12476
          ],
          [
            34.802795,
            32.124754
          ],
          [
            34.802778,
            32.124744
          ],
          [
            34.802765,
            32.124733
          ],
          [
            34.802396,
            32.124802
          ],
          [
            34.801829,
            32.124849
          ],
          [
            34.80104,
            32.124897
          ],
          [
            34.801036,
            32.124913
          ],
          [
            34.801007,
            32.12495
          ],
          [
            34.800958,
            32.124978
          ],
          [
            34.800915,
            32.12499
          ],
          [
            34.800857,
            32.124988
          ],
          [
            34.80082,
            32.124979
          ],
          [
            34.800777,
            32.124953
          ],
          [
            34.800746,
            32.124921
          ],
          [
            34.800742,
            32.124906
          ],
          [
            34.799115,
            32.124981
          ],
          [
            34.798851,
            32.124995
          ],
          [
            34.798157,
            32.125032
          ],
          [
            34.79815,
            32.125049
          ],
          [
            34.79814,
            32.12506
          ],
          [
            34.798127,
            32.125072
          ],
          [
            34.798105,
            32.125081
          ],
          [
            34.798086,
            32.125084
          ],
          [
            34.798079,
            32.125085
          ],
          [
            34.798053,
            32.125081
          ],
          [
            34.798029,
            32.125071
          ],
          [
            34.798017,
            32.125062
          ],
          [
            34.798002,
            32.125042
          ],
          [
            34.797994,
            32.125019
          ],
          [
            34.797995,
            32.12499
          ],
          [
            34.798005,
            32.124968
          ],
          [
            34.798022,
            32.124949
          ],
          [
            34.798044,
            32.124936
          ],
          [
            34.798056,
            32.124933
          ],
          [
            34.798002,
            32.124695
          ],
          [
            34.797915,
            32.124361
          ],
          [
            34.797874,
            32.124119
          ],
          [
            34.797804,
            32.123807
          ],
          [
            34.797741,
            32.123468
          ],
          [
            34.797722,
            32.123317
          ],
          [
            34.797658,
            32.123144
          ],
          [
            34.797644,
            32.123085
          ],
          [
            34.797611,
            32.122909
          ],
          [
            34.797524,
            32.122519
          ],
          [
            34.797455,
            32.122399
          ],
          [
            34.79741,
            32.122356
          ],
          [
            34.797357,
            32.122333
          ],
          [
            34.797297,
            32.122322
          ],
          [
            34.7972,
            32.122317
          ],
          [
            34.796649,
            32.12241
          ],
          [
            34.795435,
            32.122607
          ],
          [
            34.794726,
            32.122722
          ],
          [
            34.794542,
            32.122751
          ],
          [
            34.794341,
            32.122783
          ],
          [
            34.793169,
            32.122968
          ],
          [
            34.79305,
            32.123002
          ],
          [
            34.792488,
            32.123081
          ],
          [
            34.792012,
            32.123161
          ],
          [
            34.791997,
            32.123163
          ],
          [
            34.791686,
            32.123214
          ],
          [
            34.791526,
            32.123241
          ],
          [
            34.791209,
            32.123294
          ],
          [
            34.790129,
            32.123504
          ],
          [
            34.789614,
            32.123604
          ],
          [
            34.789226,
            32.123698
          ],
          [
            34.789033,
            32.123811
          ],
          [
            34.789011,
            32.123833
          ],
          [
            34.788989,
            32.123868
          ],
          [
            34.788985,
            32.123905
          ],
          [
            34.788973,
            32.124138
          ],
          [
            34.789547,
            32.125533
          ],
          [
            34.789652,
            32.125789
          ],
          [
            34.79027,
            32.127416
          ],
          [
            34.790288,
            32.127469
          ],
          [
            34.792093,
            32.13204
          ],
          [
            34.79315,
            32.131715
          ],
          [
            34.793284,
            32.131665
          ],
          [
            34.79356,
            32.13156
          ],
          [
            34.793615,
            32.131541
          ],
          [
            34.793842,
            32.13147
          ],
          [
            34.793878,
            32.131461
          ],
          [
            34.794082,
            32.13141
          ],
          [
            34.794205,
            32.131397
          ],
          [
            34.794426,
            32.131389
          ],
          [
            34.794603,
            32.131404
          ],
          [
            34.79484,
            32.131464
          ],
          [
            34.795022,
            32.131552
          ],
          [
            34.79514,
            32.131628
          ],
          [
            34.795319,
            32.131765
          ],
          [
            34.795417,
            32.131868
          ],
          [
            34.795467,
            32.131922
          ],
          [
            34.795612,
            32.13215
          ],
          [
            34.795681,
            32.132271
          ],
          [
            34.795878,
            32.132621
          ],
          [
            34.795921,
            32.132686
          ],
          [
            34.795949,
            32.132728
          ],
          [
            34.796073,
            32.132964
          ],
          [
            34.796141,
            32.133124
          ],
          [
            34.796151,
            32.133145
          ],
          [
            34.796279,
            32.133548
          ],
          [
            34.796353,
            32.13383
          ],
          [
            34.796507,
            32.134196
          ],
          [
            34.796687,
            32.134584
          ],
          [
            34.796812,
            32.134851
          ],
          [
            34.797002,
            32.135207
          ],
          [
            34.797567,
            32.136266
          ],
          [
            34.797601,
            32.136322
          ],
          [
            34.797947,
            32.136911
          ],
          [
            34.798105,
            32.137168
          ],
          [
            34.798144,
            32.137256
          ],
          [
            34.798148,
            32.137265
          ],
          [
            34.798158,
            32.137305
          ],
          [
            34.798147,
            32.137322
          ],
          [
            34.798107,
            32.13735
          ],
          [
            34.798065,
            32.137368
          ],
          [
            34.798022,
            32.137388
          ],
          [
            34.797981,
            32.137379
          ],
          [
            34.797947,
            32.137364
          ],
          [
            34.79784325541786,
            32.13720623964369
          ]
        ]
      }
    },
    {
      "type": "Feature",
      "properties": {
        "type": "original_route_stop",
        "stop_code": "26806",
        "stop_name": "מסוף עתידים",
        "marker-color": "#2ca02c",
        "marker-symbol": "bus",
        "marker-size": "medium"
      },
      "geometry": {
        "type": "Point",
        "coordinates": [
          34.841355,
          32.114226
        ]
      }
    },
    {
      "type": "Feature",
      "properties": {
        "type": "original_route_stop",
        "stop_code": "20284",
        "stop_name": "בית אבות בית בלב/בית אל",
        "marker-color": "#2ca02c",
        "marker-symbol": "bus",
        "marker-size": "medium"
      },
      "geometry": {
        "type": "Point",
        "coordinates": [
          34.841304,
          32.117013
        ]
      }
    },
    {
      "type": "Feature",
      "properties": {
        "type": "original_route_stop",
        "stop_code": "20283",
        "stop_name": "בית אל/רמה",
        "marker-color": "#2ca02c",
        "marker-symbol": "bus",
        "marker-size": "medium"
      },
      "geometry": {
        "type": "Point",
        "coordinates": [
          34.840769,
          32.118982
        ]
      }
    },
    {
      "type": "Feature",
      "properties": {
        "type": "original_route_stop",
        "stop_code": "26799",
        "stop_name": "בית אל/דבורה הנביאה",
        "marker-color": "#2ca02c",
        "marker-symbol": "bus",
        "marker-size": "medium"
      },
      "geometry": {
        "type": "Point",
        "coordinates": [
          34.838153,
          32.117921
        ]
      }
    },
    {
      "type": "Feature",
      "properties": {
        "type": "original_route_stop",
        "stop_code": "26790",
        "stop_name": "דבורה הנביאה/ראול ולנברג",
        "marker-color": "#2ca02c",
        "marker-symbol": "bus",
        "marker-size": "medium"
      },
      "geometry": {
        "type": "Point",
        "coordinates": [
          34.839416,
          32.115365
        ]
      }
    },
    {
      "type": "Feature",
      "properties": {
        "type": "original_route_stop",
        "stop_code": "20874",
        "stop_name": "ראול ולנברג/דבורה הנביאה",
        "marker-color": "#2ca02c",
        "marker-symbol": "bus",
        "marker-size": "medium"
      },
      "geometry": {
        "type": "Point",
        "coordinates": [
          34.840255,
          32.114058
        ]
      }
    },
    {
      "type": "Feature",
      "properties": {
        "type": "original_route_stop",
        "stop_code": "21357",
        "stop_name": "ראול ולנברג/הארד",
        "marker-color": "#2ca02c",
        "marker-symbol": "bus",
        "marker-size": "medium"
      },
      "geometry": {
        "type": "Point",
        "coordinates": [
          34.838729,
          32.111693
        ]
      }
    },
    {
      "type": "Feature",
      "properties": {
        "type": "original_route_stop",
        "stop_code": "21356",
        "stop_name": "ראול ולנברג/הנחושת",
        "marker-color": "#2ca02c",
        "marker-symbol": "bus",
        "marker-size": "medium"
      },
      "geometry": {
        "type": "Point",
        "coordinates": [
          34.837112,
          32.109949
        ]
      }
    },
    {
      "type": "Feature",
      "properties": {
        "type": "original_route_stop",
        "stop_code": "21831",
        "stop_name": "מטה מרחב ירקון/ראול ולנברג",
        "marker-color": "#2ca02c",
        "marker-symbol": "bus",
        "marker-size": "medium"
      },
      "geometry": {
        "type": "Point",
        "coordinates": [
          34.835807,
          32.108777
        ]
      }
    },
    {
      "type": "Feature",
      "properties": {
        "type": "original_route_stop",
        "stop_code": "26595",
        "stop_name": "ראול ולנברג/הברזל",
        "marker-color": "#2ca02c",
        "marker-symbol": "bus",
        "marker-size": "medium"
      },
      "geometry": {
        "type": "Point",
        "coordinates": [
          34.832216,
          32.1068
        ]
      }
    },
    {
      "type": "Feature",
      "properties": {
        "type": "original_route_stop",
        "stop_code": "26454",
        "stop_name": "ראול ולנברג/משמר הירדן",
        "marker-color": "#2ca02c",
        "marker-symbol": "bus",
        "marker-size": "medium"
      },
      "geometry": {
        "type": "Point",
        "coordinates": [
          34.83096,
          32.106866
        ]
      }
    },
    {
      "type": "Feature",
      "properties": {
        "type": "original_route_stop",
        "stop_code": "21533",
        "stop_name": "פנחס רוזן/ראול ולנברג",
        "marker-color": "#2ca02c",
        "marker-symbol": "bus",
        "marker-size": "medium"
      },
      "geometry": {
        "type": "Point",
        "coordinates": [
          34.827298,
          32.107787
        ]
      }
    },
    {
      "type": "Feature",
      "properties": {
        "type": "original_route_stop",
        "stop_code": "20187",
        "stop_name": "פנחס רוזן/אשכנזי",
        "marker-color": "#2ca02c",
        "marker-symbol": "bus",
        "marker-size": "medium"
      },
      "geometry": {
        "type": "Point",
        "coordinates": [
          34.82657,
          32.109521
        ]
      }
    },
    {
      "type": "Feature",
      "properties": {
        "type": "original_route_stop",
        "stop_code": "26445",
        "stop_name": "יד המעביר/קהילת יאסי",
        "marker-color": "#2ca02c",
        "marker-symbol": "bus",
        "marker-size": "medium"
      },
      "geometry": {
        "type": "Point",
        "coordinates": [
          34.824644,
          32.109558
        ]
      }
    },
    {
      "type": "Feature",
      "properties": {
        "type": "original_route_stop",
        "stop_code": "26432",
        "stop_name": "שלום אש/קיציס",
        "marker-color": "#2ca02c",
        "marker-symbol": "bus",
        "marker-size": "medium"
      },
      "geometry": {
        "type": "Point",
        "coordinates": [
          34.821139,
          32.106877
        ]
      }
    },
    {
      "type": "Feature",
      "properties": {
        "type": "original_route_stop",
        "stop_code": "26423",
        "stop_name": "שלום אש/קהילת ורשה",
        "marker-color": "#2ca02c",
        "marker-symbol": "bus",
        "marker-size": "medium"
      },
      "geometry": {
        "type": "Point",
        "coordinates": [
          34.819681,
          32.108224
        ]
      }
    },
    {
      "type": "Feature",
      "properties": {
        "type": "original_route_stop",
        "stop_code": "26428",
        "stop_name": "הדר יוסף/קהילת ורשה",
        "marker-color": "#2ca02c",
        "marker-symbol": "bus",
        "marker-size": "medium"
      },
      "geometry": {
        "type": "Point",
        "coordinates": [
          34.818831,
          32.109673
        ]
      }
    },
    {
      "type": "Feature",
      "properties": {
        "type": "original_route_stop",
        "stop_code": "26424",
        "stop_name": "בני אפרים/הדר יוסף",
        "marker-color": "#2ca02c",
        "marker-symbol": "bus",
        "marker-size": "medium"
      },
      "geometry": {
        "type": "Point",
        "coordinates": [
          34.81622,
          32.110352
        ]
      }
    },
    {
      "type": "Feature",
      "properties": {
        "type": "original_route_stop",
        "stop_code": "21716",
        "stop_name": "שד' רוקח/בכור שטרית",
        "marker-color": "#2ca02c",
        "marker-symbol": "bus",
        "marker-size": "medium"
      },
      "geometry": {
        "type": "Point",
        "coordinates": [
          34.814433,
          32.107454
        ]
      }
    },
    {
      "type": "Feature",
      "properties": {
        "type": "original_route_stop",
        "stop_code": "22919",
        "stop_name": "לונה פארק/שד' רוקח",
        "marker-color": "#2ca02c",
        "marker-symbol": "bus",
        "marker-size": "medium"
      },
      "geometry": {
        "type": "Point",
        "coordinates": [
          34.812227,
          32.105529
        ]
      }
    },
    {
      "type": "Feature",
      "properties": {
        "type": "original_route_stop",
        "stop_code": "23074",
        "stop_name": "אקספו תל אביב/שד' רוקח",
        "marker-color": "#2ca02c",
        "marker-symbol": "bus",
        "marker-size": "medium"
      },
      "geometry": {
        "type": "Point",
        "coordinates": [
          34.810684,
          32.104601
        ]
      }
    },
    {
      "type": "Feature",
      "properties": {
        "type": "original_route_stop",
        "stop_code": "21718",
        "stop_name": "ת. רכבת האוניברסיטה/שד' רוקח",
        "marker-color": "#2ca02c",
        "marker-symbol": "bus",
        "marker-size": "medium"
      },
      "geometry": {
        "type": "Point",
        "coordinates": [
          34.805312,
          32.102578
        ]
      }
    },
    {
      "type": "Feature",
      "properties": {
        "type": "original_route_stop",
        "stop_code": "21227",
        "stop_name": "קמפוס ברושים/שלום רוזנפלד",
        "marker-color": "#2ca02c",
        "marker-symbol": "bus",
        "marker-size": "medium"
      },
      "geometry": {
        "type": "Point",
        "coordinates": [
          34.802794,
          32.106714
        ]
      }
    },
    {
      "type": "Feature",
      "properties": {
        "type": "original_route_stop",
        "stop_code": "21497",
        "stop_name": "מכון הנפט/חיים לבנון",
        "marker-color": "#2ca02c",
        "marker-symbol": "bus",
        "marker-size": "medium"
      },
      "geometry": {
        "type": "Point",
        "coordinates": [
          34.799808,
          32.105529
        ]
      }
    },
    {
      "type": "Feature",
      "properties": {
        "type": "original_route_stop",
        "stop_code": "25077",
        "stop_name": "מוזאון ארץ ישראל/חיים לבנון",
        "marker-color": "#2ca02c",
        "marker-symbol": "bus",
        "marker-size": "medium"
      },
      "geometry": {
        "type": "Point",
        "coordinates": [
          34.797712,
          32.104164
        ]
      }
    },
    {
      "type": "Feature",
      "properties": {
        "type": "original_route_stop",
        "stop_code": "21423",
        "stop_name": "חיים לבנון/רדינג",
        "marker-color": "#2ca02c",
        "marker-symbol": "bus",
        "marker-size": "medium"
      },
      "geometry": {
        "type": "Point",
        "coordinates": [
          34.795796,
          32.103428
        ]
      }
    },
    {
      "type": "Feature",
      "properties": {
        "type": "original_route_stop",
        "stop_code": "21698",
        "stop_name": "רדינג/ברודצקי",
        "marker-color": "#2ca02c",
        "marker-symbol": "bus",
        "marker-size": "medium"
      },
      "geometry": {
        "type": "Point",
        "coordinates": [
          34.794623,
          32.104603
        ]
      }
    },
    {
      "type": "Feature",
      "properties": {
        "type": "original_route_stop",
        "stop_code": "21699",
        "stop_name": "ביה''ס אליאנס/רדינג",
        "marker-color": "#2ca02c",
        "marker-symbol": "bus",
        "marker-size": "medium"
      },
      "geometry": {
        "type": "Point",
        "coordinates": [
          34.794153,
          32.107227
        ]
      }
    },
    {
      "type": "Feature",
      "properties": {
        "type": "original_route_stop",
        "stop_code": "21216",
        "stop_name": "רדינג/אשר ברש",
        "marker-color": "#2ca02c",
        "marker-symbol": "bus",
        "marker-size": "medium"
      },
      "geometry": {
        "type": "Point",
        "coordinates": [
          34.794712,
          32.109117
        ]
      }
    },
    {
      "type": "Feature",
      "properties": {
        "type": "original_route_stop",
        "stop_code": "21701",
        "stop_name": "רדינג/הברון הירש",
        "marker-color": "#2ca02c",
        "marker-symbol": "bus",
        "marker-size": "medium"
      },
      "geometry": {
        "type": "Point",
        "coordinates": [
          34.797792,
          32.10986
        ]
      }
    },
    {
      "type": "Feature",
      "properties": {
        "type": "original_route_stop",
        "stop_code": "21199",
        "stop_name": "קניון רמת אביב/ברודצקי",
        "marker-color": "#2ca02c",
        "marker-symbol": "bus",
        "marker-size": "medium"
      },
      "geometry": {
        "type": "Point",
        "coordinates": [
          34.797919,
          32.112327
        ]
      }
    },
    {
      "type": "Feature",
      "properties": {
        "type": "original_route_stop",
        "stop_code": "26691",
        "stop_name": "רקנאטי/שד' קק''ל",
        "marker-color": "#2ca02c",
        "marker-symbol": "bus",
        "marker-size": "medium"
      },
      "geometry": {
        "type": "Point",
        "coordinates": [
          34.802615,
          32.122942
        ]
      }
    },
    {
      "type": "Feature",
      "properties": {
        "type": "original_route_stop",
        "stop_code": "26692",
        "stop_name": "מרכז שוסטר/אבא אחימאיר",
        "marker-color": "#2ca02c",
        "marker-symbol": "bus",
        "marker-size": "medium"
      },
      "geometry": {
        "type": "Point",
        "coordinates": [
          34.802224,
          32.124862
        ]
      }
    },
    {
      "type": "Feature",
      "properties": {
        "type": "original_route_stop",
        "stop_code": "26650",
        "stop_name": "אבא אחימאיר/שלמה בן יוסף",
        "marker-color": "#2ca02c",
        "marker-symbol": "bus",
        "marker-size": "medium"
      },
      "geometry": {
        "type": "Point",
        "coordinates": [
          34.798707,
          32.125048
        ]
      }
    },
    {
      "type": "Feature",
      "properties": {
        "type": "original_route_stop",
        "stop_code": "26648",
        "stop_name": "שלמה בן יוסף/שד' קק''ל",
        "marker-color": "#2ca02c",
        "marker-symbol": "bus",
        "marker-size": "medium"
      },
      "geometry": {
        "type": "Point",
        "coordinates": [
          34.797671,
          32.123339
        ]
      }
    },
    {
      "type": "Feature",
      "properties": {
        "type": "original_route_stop",
        "stop_code": "20104",
        "stop_name": "שד' קק''ל/שלמה בן יוסף",
        "marker-color": "#2ca02c",
        "marker-symbol": "bus",
        "marker-size": "medium"
      },
      "geometry": {
        "type": "Point",
        "coordinates": [
          34.796594,
          32.122465
        ]
      }
    },
    {
      "type": "Feature",
      "properties": {
        "type": "original_route_stop",
        "stop_code": "21617",
        "stop_name": "צבי פרופס/שד' לוי אשכול",
        "marker-color": "#2ca02c",
        "marker-symbol": "bus",
        "marker-size": "medium"
      },
      "geometry": {
        "type": "Point",
        "coordinates": [
          34.790712,
          32.123423
        ]
      }
    },
    {
      "type": "Feature",
      "properties": {
        "type": "original_route_stop",
        "stop_code": "20806",
        "stop_name": "שושנה פרסיץ/אבן גבירול",
        "marker-color": "#2ca02c",
        "marker-symbol": "bus",
        "marker-size": "medium"
      },
      "geometry": {
        "type": "Point",
        "coordinates": [
          34.792452,
          32.131882
        ]
      }
    },
    {
      "type": "Feature",
      "properties": {
        "type": "original_route_stop",
        "stop_code": "20611",
        "stop_name": "תיכון עמוס עוז/שושנה פרסיץ",
        "marker-color": "#2ca02c",
        "marker-symbol": "bus",
        "marker-size": "medium"
      },
      "geometry": {
        "type": "Point",
        "coordinates": [
          34.793848,
          32.131422
        ]
      }
    },
    {
      "type": "Feature",
      "properties": {
        "type": "original_route_stop",
        "stop_code": "26656",
        "stop_name": "קריית חינוך/שושנה פרסיץ",
        "marker-color": "#2ca02c",
        "marker-symbol": "bus",
        "marker-size": "medium"
      },
      "geometry": {
        "type": "Point",
        "coordinates": [
          34.796066,
          32.132841
        ]
      }
    },
    {
      "type": "Feature",
      "properties": {
        "type": "original_route_stop",
        "stop_code": "26659",
        "stop_name": "קריית חינוך",
        "marker-color": "#2ca02c",
        "marker-symbol": "bus",
        "marker-size": "medium"
      },
      "geometry": {
        "type": "Point",
        "coordinates": [
          34.797798,
          32.137236
        ]
      }
    },
    {
      "type": "Feature",
      "properties": {
        "type": "cancelled_stop",
        "stop_code": "26627",
        "stop_name": "ביה''ס יחדיו/יהודה הנשיא",
        "marker-color": "#ff0000",
        "marker-symbol": "bus",
        "marker-size": "medium"
      },
      "geometry": {
        "type": "Point",
        "coordinates": [
          34.794792,
          32.115696
        ]
      }
    },
    {
      "type": "Feature",
      "properties": {
        "type": "cancelled_stop",
        "stop_code": "26629",
        "stop_name": "קאנטרי נווה אביבים/יהודה הנשיא",
        "marker-color": "#ff0000",
        "marker-symbol": "bus",
        "marker-size": "medium"
      },
      "geometry": {
        "type": "Point",
        "coordinates": [
          34.795501,
          32.119435
        ]
      }
    },
    {
      "type": "Feature",
      "properties": {
        "type": "cancelled_stop",
        "stop_code": "26638",
        "stop_name": "רב אשי/ד''ר שמשון צ'רטוק",
        "marker-color": "#ff0000",
        "marker-symbol": "bus",
        "marker-size": "medium"
      },
      "geometry": {
        "type": "Point",
        "coordinates": [
          34.798898,
          32.120749
        ]
      }
    },
    {
      "type": "Feature",
      "properties": {
        "type": "cancelled_stop",
        "stop_code": "26675",
        "stop_name": "גן יוסף פוליטי/אופנהיימר",
        "marker-color": "#ff0000",
        "marker-symbol": "bus",
        "marker-size": "medium"
      },
      "geometry": {
        "type": "Point",
        "coordinates": [
          34.800117,
          32.119946
        ]
      }
    },
    {
      "type": "Feature",
      "properties": {
        "type": "new_stop",
        "stop_code": "20670",
        "stop_name": "טאגור/אנדרסן",
        "marker-color": "#1f9ed6",
        "marker-symbol": "bus",
        "marker-size": "medium"
      },
      "geometry": {
        "type": "Point",
        "coordinates": [
          34.796223,
          32.114559
        ]
      }
    },
    {
      "type": "Feature",
      "properties": {
        "type": "new_stop",
        "stop_code": "20671",
        "stop_name": "מרכז מסחרי/טאגור",
        "marker-color": "#1f9ed6",
        "marker-symbol": "bus",
        "marker-size": "medium"
      },
      "geometry": {
        "type": "Point",
        "coordinates": [
          34.798088,
          32.117679
        ]
      }
    },
    {
      "type": "Feature",
      "properties": {
        "type": "reported_block_stop",
        "stop_code": "26627",
        "stop_name": "ביה''ס יחדיו/יהודה הנשיא",
        "marker-color": "#ff8800",
        "marker-symbol": "bus",
        "marker-size": "medium"
      },
      "geometry": {
        "type": "Point",
        "coordinates": [
          34.794792,
          32.115696
        ]
      }
    },
    {
      "type": "Feature",
      "properties": {
        "type": "reported_block_stop",
        "stop_code": "26629",
        "stop_name": "קאנטרי נווה אביבים/יהודה הנשיא",
        "marker-color": "#ff8800",
        "marker-symbol": "bus",
        "marker-size": "medium"
      },
      "geometry": {
        "type": "Point",
        "coordinates": [
          34.795501,
          32.119435
        ]
      }
    },
    {
      "type": "Feature",
      "properties": {
        "type": "deviate_from_stop",
        "stop_code": "26632",
        "stop_name": "קניון רמת אביב/אינשטיין",
        "marker-color": "#8000ff",
        "marker-symbol": "bus",
        "marker-size": "medium"
      },
      "geometry": {
        "type": "Point",
        "coordinates": [
          34.79716,
          32.113103
        ]
      }
    },
    {
      "type": "Feature",
      "properties": {
        "type": "deviate_to_stop",
        "stop_code": "21394",
        "stop_name": "חיים לבנון/קלצ'קין",
        "marker-color": "#8000ff",
        "marker-symbol": "bus",
        "marker-size": "medium"
      },
      "geometry": {
        "type": "Point",
        "coordinates": [
          34.801869,
          32.119043
        ]
      }
    }
  ]
}