{
  "type": "FeatureCollection",
  "features": [
    {
      "type": "Feature",
      "properties": {
        "type": "deviation_path",
        "trip_id": "1056277_020826",
        "shape_id": "162135",
        "stroke": "#00bcd4",
        "stroke-width": 3,
        "stroke-opacity": 0.95
      },
      "geometry": {
        "type": "LineString",
        "coordinates": [
          [
            34.80927364200959,
            32.075481919969704
          ],
          [
            34.808996,
            32.075394
          ],
          [
            34.808843,
            32.075344
          ],
          [
            34.808739,
            32.075327
          ],
          [
            34.808602,
            32.075319
          ],
          [
            34.808582,
            32.075238
          ],
          [
            34.808573,
            32.075117
          ],
          [
            34.808567,
            32.07474
          ],
          [
            34.808587,
            32.074582
          ],
          [
            34.80856,
            32.074527
          ],
          [
            34.808552,
            32.074501
          ],
          [
            34.808546,
            32.074472
          ],
          [
            34.808545,
            32.074292
          ],
          [
            34.808567,
            32.074041
          ],
          [
            34.808586,
            32.073884
          ],
          [
            34.808591,
            32.073681
          ],
          [
            34.808587,
            32.073554
          ],
          [
            34.808635,
            32.07293
          ],
          [
            34.808627,
            32.072131
          ],
          [
            34.808614,
            32.071871
          ],
          [
            34.8086,
            32.071636
          ],
          [
            34.808573,
            32.07126
          ],
          [
            34.80857,
            32.071199
          ],
          [
            34.808545,
            32.071145
          ],
          [
            34.808524,
            32.070947
          ],
          [
            34.808508,
            32.070651
          ],
          [
            34.807451,
            32.070557
          ],
          [
            34.80683,
            32.070483
          ],
          [
            34.806618,
            32.070458
          ],
          [
            34.806615,
            32.070474
          ],
          [
            34.806608,
            32.07049
          ],
          [
            34.806597,
            32.070505
          ],
          [
            34.806584,
            32.070518
          ],
          [
            34.806567,
            32.070529
          ],
          [
            34.806549,
            32.070537
          ],
          [
            34.806529,
            32.070542
          ],
          [
            34.806511,
            32.070544
          ],
          [
            34.806502,
            32.070544
          ],
          [
            34.806488,
            32.070542
          ],
          [
            34.806475,
            32.07054
          ],
          [
            34.806462,
            32.070536
          ],
          [
            34.806444,
            32.070527
          ],
          [
            34.806433,
            32.07052
          ],
          [
            34.806424,
            32.070512
          ],
          [
            34.806412,
            32.070497
          ],
          [
            34.806406,
            32.070487
          ],
          [
            34.806401,
            32.070476
          ],
          [
            34.806397,
            32.070459
          ],
          [
            34.806397,
            32.070448
          ],
          [
            34.806398,
            32.070438
          ],
          [
            34.806181,
            32.070436
          ],
          [
            34.805232,
            32.070368
          ],
          [
            34.804266,
            32.070297
          ],
          [
            34.803848,
            32.070267
          ],
          [
            34.803601,
            32.070273
          ],
          [
            34.803364,
            32.070297
          ],
          [
            34.803186,
            32.070339
          ],
          [
            34.802664,
            32.070492
          ],
          [
            34.802313,
            32.07072
          ],
          [
            34.802273,
            32.070776
          ],
          [
            34.802056,
            32.071034
          ],
          [
            34.801937,
            32.071217
          ],
          [
            34.801878,
            32.071296
          ],
          [
            34.801474,
            32.071822
          ],
          [
            34.801387,
            32.071929
          ],
          [
            34.80109,
            32.072322
          ],
          [
            34.800841,
            32.0727
          ],
          [
            34.80072,
            32.07287
          ],
          [
            34.800855,
            32.073244
          ],
          [
            34.800943,
            32.07345
          ],
          [
            34.801056,
            32.073737
          ],
          [
            34.801083,
            32.073802
          ],
          [
            34.801426,
            32.074718
          ],
          [
            34.801702,
            32.075295
          ],
          [
            34.801718,
            32.075335
          ],
          [
            34.801735,
            32.075378
          ],
          [
            34.801691,
            32.07538
          ],
          [
            34.801598,
            32.075394
          ],
          [
            34.801553,
            32.075401
          ],
          [
            34.801361,
            32.075451
          ],
          [
            34.801064,
            32.075532
          ],
          [
            34.800698,
            32.075631
          ],
          [
            34.80057,
            32.075668
          ],
          [
            34.800268,
            32.075753
          ],
          [
            34.800142,
            32.075788
          ],
          [
            34.800005,
            32.075829
          ],
          [
            34.799819,
            32.075884
          ],
          [
            34.799607,
            32.075947
          ],
          [
            34.799564,
            32.07596
          ],
          [
            34.799392,
            32.076016
          ],
          [
            34.79909,
            32.076115
          ],
          [
            34.798904,
            32.076168
          ],
          [
            34.79889000842434,
            32.076172144839816
          ]
        ]
      }
    },
    {
      "type": "Feature",
      "properties": {
        "type": "original_route_shape",
        "shape_id": "152402",
        "stroke": "#1f2a7a",
        "stroke-width": 3,
        "stroke-opacity": 0.85
      },
      "geometry": {
        "type": "LineString",
        "coordinates": [
          [
            34.82769541665365,
            32.10361866770817
          ],
          [
            34.827697,
            32.103492
          ],
          [
            34.827703,
            32.103338
          ],
          [
            34.82771,
            32.103209
          ],
          [
            34.827735,
            32.102779
          ],
          [
            34.827754,
            32.102473
          ],
          [
            34.827759,
            32.102395
          ],
          [
            34.827777,
            32.102182
          ],
          [
            34.827809,
            32.10183
          ],
          [
            34.827819,
            32.10174
          ],
          [
            34.827857,
            32.1015
          ],
          [
            34.827894,
            32.10127
          ],
          [
            34.827975,
            32.100796
          ],
          [
            34.828029,
            32.100474
          ],
          [
            34.828049,
            32.100355
          ],
          [
            34.8281,
            32.100112
          ],
          [
            34.828337,
            32.099407
          ],
          [
            34.828324,
            32.09918
          ],
          [
            34.828304,
            32.099108
          ],
          [
            34.828257,
            32.099024
          ],
          [
            34.828233,
            32.099019
          ],
          [
            34.828042,
            32.098911
          ],
          [
            34.827055,
            32.098654
          ],
          [
            34.826576,
            32.09853
          ],
          [
            34.826249,
            32.098435
          ],
          [
            34.826112,
            32.098392
          ],
          [
            34.825824,
            32.098311
          ],
          [
            34.825488,
            32.098205
          ],
          [
            34.824714,
            32.097974
          ],
          [
            34.823564,
            32.097601
          ],
          [
            34.823116,
            32.097472
          ],
          [
            34.822185,
            32.097225
          ],
          [
            34.822045,
            32.097187
          ],
          [
            34.821851,
            32.097105
          ],
          [
            34.821705,
            32.097028
          ],
          [
            34.821588,
            32.096957
          ],
          [
            34.821386,
            32.096807
          ],
          [
            34.821463,
            32.096636
          ],
          [
            34.821631,
            32.096267
          ],
          [
            34.821734,
            32.095946
          ],
          [
            34.821751,
            32.09547
          ],
          [
            34.821796,
            32.095221
          ],
          [
            34.821807,
            32.095156
          ],
          [
            34.821964,
            32.094393
          ],
          [
            34.822025,
            32.094073
          ],
          [
            34.822077,
            32.093771
          ],
          [
            34.822089,
            32.093652
          ],
          [
            34.822277,
            32.092651
          ],
          [
            34.822331,
            32.092346
          ],
          [
            34.822358,
            32.092224
          ],
          [
            34.822419,
            32.091922
          ],
          [
            34.822581,
            32.091064
          ],
          [
            34.822581,
            32.09083
          ],
          [
            34.822581,
            32.090719
          ],
          [
            34.822585,
            32.090634
          ],
          [
            34.82259,
            32.090407
          ],
          [
            34.822582,
            32.090095
          ],
          [
            34.822593,
            32.089762
          ],
          [
            34.822593,
            32.089491
          ],
          [
            34.822574,
            32.089119
          ],
          [
            34.822591,
            32.088631
          ],
          [
            34.822579,
            32.088078
          ],
          [
            34.822584,
            32.087816
          ],
          [
            34.822583,
            32.087808
          ],
          [
            34.822427,
            32.086705
          ],
          [
            34.82219,
            32.085534
          ],
          [
            34.822151,
            32.085314
          ],
          [
            34.82208,
            32.084889
          ],
          [
            34.821738,
            32.084269
          ],
          [
            34.821427,
            32.083744
          ],
          [
            34.821364,
            32.083633
          ],
          [
            34.821131,
            32.083199
          ],
          [
            34.820596,
            32.082251
          ],
          [
            34.82037,
            32.08175
          ],
          [
            34.819694,
            32.081855
          ],
          [
            34.818977,
            32.081981
          ],
          [
            34.818917,
            32.081713
          ],
          [
            34.818839,
            32.08147
          ],
          [
            34.818728,
            32.081269
          ],
          [
            34.81859,
            32.081002
          ],
          [
            34.818455,
            32.08086
          ],
          [
            34.818252,
            32.080648
          ],
          [
            34.817862,
            32.080397
          ],
          [
            34.817335,
            32.080087
          ],
          [
            34.817002,
            32.07989
          ],
          [
            34.816663,
            32.079703
          ],
          [
            34.816007,
            32.079463
          ],
          [
            34.815888,
            32.079408
          ],
          [
            34.815701,
            32.079324
          ],
          [
            34.814856,
            32.079217
          ],
          [
            34.814838,
            32.079118
          ],
          [
            34.814835,
            32.079102
          ],
          [
            34.814838,
            32.079048
          ],
          [
            34.814934,
            32.078748
          ],
          [
            34.815068,
            32.078386
          ],
          [
            34.815076,
            32.078344
          ],
          [
            34.815067,
            32.078281
          ],
          [
            34.815013,
            32.078195
          ],
          [
            34.814826,
            32.077995
          ],
          [
            34.814698,
            32.07786
          ],
          [
            34.81459,
            32.077735
          ],
          [
            34.814495,
            32.077619
          ],
          [
            34.814406,
            32.07751
          ],
          [
            34.814384,
            32.077419
          ],
          [
            34.814368,
            32.077299
          ],
          [
            34.814371,
            32.077218
          ],
          [
            34.814113,
            32.077212
          ],
          [
            34.814013,
            32.077199
          ],
          [
            34.813852,
            32.077067
          ],
          [
            34.813783,
            32.077011
          ],
          [
            34.813687,
            32.076923
          ],
          [
            34.813058,
            32.076374
          ],
          [
            34.812747,
            32.076102
          ],
          [
            34.812593,
            32.075981
          ],
          [
            34.812448,
            32.075878
          ],
          [
            34.812205,
            32.075758
          ],
          [
            34.812073,
            32.075713
          ],
          [
            34.811986,
            32.075696
          ],
          [
            34.811875,
            32.075687
          ],
          [
            34.811547,
            32.07568
          ],
          [
            34.810608,
            32.075668
          ],
          [
            34.810577,
            32.075665
          ],
          [
            34.810224,
            32.075681
          ],
          [
            34.810021,
            32.075678
          ],
          [
            34.809872,
            32.075667
          ],
          [
            34.809746,
            32.075637
          ],
          [
            34.809581,
            32.075582
          ],
          [
            34.809416,
            32.075527
          ],
          [
            34.808996,
            32.075394
          ],
          [
            34.808843,
            32.075344
          ],
          [
            34.808739,
            32.075327
          ],
          [
            34.808602,
            32.075319
          ],
          [
            34.808464,
            32.07531
          ],
          [
            34.808105,
            32.075306
          ],
          [
            34.807664,
            32.075288
          ],
          [
            34.807522,
            32.075279
          ],
          [
            34.806839,
            32.075235
          ],
          [
            34.806456,
            32.075209
          ],
          [
            34.806435,
            32.075209
          ],
          [
            34.806142,
            32.075211
          ],
          [
            34.805518,
            32.075226
          ],
          [
            34.804781,
            32.075235
          ],
          [
            34.804716,
            32.075239
          ],
          [
            34.804521,
            32.075249
          ],
          [
            34.804458,
            32.075253
          ],
          [
            34.803519,
            32.075294
          ],
          [
            34.802976,
            32.075324
          ],
          [
            34.80251,
            32.07535
          ],
          [
            34.802319,
            32.075359
          ],
          [
            34.802255,
            32.075362
          ],
          [
            34.801937,
            32.075367
          ],
          [
            34.801735,
            32.075378
          ],
          [
            34.801691,
            32.07538
          ],
          [
            34.801598,
            32.075394
          ],
          [
            34.801553,
            32.075401
          ],
          [
            34.801361,
            32.075451
          ],
          [
            34.801064,
            32.075532
          ],
          [
            34.800698,
            32.075631
          ],
          [
            34.80057,
            32.075668
          ],
          [
            34.800268,
            32.075753
          ],
          [
            34.800142,
            32.075788
          ],
          [
            34.800005,
            32.075829
          ],
          [
            34.799819,
            32.075884
          ],
          [
            34.799607,
            32.075947
          ],
          [
            34.799564,
            32.07596
          ],
          [
            34.799392,
            32.076016
          ],
          [
            34.79909,
            32.076115
          ],
          [
            34.798904,
            32.076168
          ],
          [
            34.798266,
            32.076357
          ],
          [
            34.798264,
            32.076372
          ],
          [
            34.798259,
            32.076382
          ],
          [
            34.798255,
            32.076389
          ],
          [
            34.79825,
            32.076395
          ],
          [
            34.798241,
            32.076403
          ],
          [
            34.79823,
            32.076409
          ],
          [
            34.798215,
            32.076414
          ],
          [
            34.7982,
            32.076417
          ],
          [
            34.798187,
            32.076416
          ],
          [
            34.798174,
            32.076414
          ],
          [
            34.798162,
            32.07641
          ],
          [
            34.798151,
            32.076404
          ],
          [
            34.79814,
            32.076394
          ],
          [
            34.797648,
            32.076525
          ],
          [
            34.797296,
            32.076635
          ],
          [
            34.797232,
            32.076655
          ],
          [
            34.796676,
            32.076814
          ],
          [
            34.796519,
            32.076858
          ],
          [
            34.796451,
            32.076874
          ],
          [
            34.796354,
            32.076872
          ],
          [
            34.796247,
            32.07653
          ],
          [
            34.796233,
            32.076418
          ],
          [
            34.796084,
            32.075983
          ],
          [
            34.795799,
            32.075351
          ],
          [
            34.795774,
            32.075289
          ],
          [
            34.795533,
            32.074664
          ],
          [
            34.795414,
            32.074366
          ],
          [
            34.795141,
            32.073672
          ],
          [
            34.795048,
            32.073475
          ],
          [
            34.794744,
            32.072835
          ],
          [
            34.7946,
            32.072515
          ],
          [
            34.794526,
            32.072369
          ],
          [
            34.794338,
            32.071951
          ],
          [
            34.794197,
            32.071618
          ],
          [
            34.794119,
            32.071393
          ],
          [
            34.793811,
            32.070448
          ],
          [
            34.793773,
            32.070322
          ],
          [
            34.793626,
            32.069845
          ],
          [
            34.793584,
            32.069703
          ],
          [
            34.793453,
            32.069259
          ],
          [
            34.79344,
            32.069215
          ],
          [
            34.793343,
            32.068887
          ],
          [
            34.793125,
            32.068124
          ],
          [
            34.792815,
            32.067044
          ],
          [
            34.792429,
            32.065275
          ],
          [
            34.792376,
            32.065079
          ],
          [
            34.792263,
            32.064602
          ],
          [
            34.792208,
            32.064346
          ],
          [
            34.792197,
            32.064232
          ],
          [
            34.792175,
            32.063998
          ],
          [
            34.79211,
            32.063472
          ],
          [
            34.792042,
            32.062486
          ],
          [
            34.791992,
            32.061975
          ],
          [
            34.791989,
            32.061905
          ],
          [
            34.791979,
            32.061658
          ],
          [
            34.79196,
            32.061064
          ],
          [
            34.791954,
            32.060886
          ],
          [
            34.791926,
            32.060218
          ],
          [
            34.791933,
            32.060014
          ],
          [
            34.791939,
            32.059905
          ],
          [
            34.79193,
            32.059763
          ],
          [
            34.791919,
            32.059497
          ],
          [
            34.791911,
            32.059237
          ],
          [
            34.79191,
            32.058958
          ],
          [
            34.791933,
            32.058533
          ],
          [
            34.791919,
            32.058201
          ],
          [
            34.791909,
            32.057901
          ],
          [
            34.7919,
            32.057609
          ],
          [
            34.791885,
            32.057304
          ],
          [
            34.791876,
            32.057013
          ],
          [
            34.791854,
            32.056672
          ],
          [
            34.791851,
            32.056584
          ],
          [
            34.791848,
            32.056502
          ],
          [
            34.791831,
            32.056265
          ],
          [
            34.791815,
            32.056056
          ],
          [
            34.791799,
            32.055912
          ],
          [
            34.791782,
            32.055753
          ],
          [
            34.791761,
            32.055558
          ],
          [
            34.791634,
            32.054436
          ],
          [
            34.791621,
            32.054333
          ],
          [
            34.79158,
            32.05401
          ],
          [
            34.791281,
            32.054023
          ],
          [
            34.790897,
            32.054047
          ],
          [
            34.790373,
            32.05408
          ],
          [
            34.789651,
            32.054144
          ],
          [
            34.789278,
            32.054176
          ],
          [
            34.788857,
            32.054204
          ],
          [
            34.788618,
            32.054228
          ],
          [
            34.788348,
            32.054256
          ],
          [
            34.787976,
            32.054269
          ],
          [
            34.787256,
            32.054267
          ],
          [
            34.78686,
            32.054247
          ],
          [
            34.786842,
            32.054245
          ],
          [
            34.786431,
            32.054215
          ],
          [
            34.78616,
            32.054181
          ],
          [
            34.786073,
            32.054176
          ],
          [
            34.785876,
            32.054184
          ],
          [
            34.785716,
            32.05421
          ],
          [
            34.785677,
            32.054225
          ],
          [
            34.785587,
            32.054258
          ],
          [
            34.78538,
            32.054336
          ],
          [
            34.785251,
            32.054389
          ],
          [
            34.784817,
            32.054567
          ],
          [
            34.784553,
            32.054672
          ],
          [
            34.784443,
            32.054718
          ],
          [
            34.784224,
            32.054819
          ],
          [
            34.784075,
            32.054887
          ],
          [
            34.78400850445918,
            32.05491750971873
          ]
        ]
      }
    },
    {
      "type": "Feature",
      "properties": {
        "type": "original_route_stop",
        "stop_code": "21390",
        "stop_name": "ת. רכבת בני ברק/מבצע קדש",
        "marker-color": "#2ca02c",
        "marker-symbol": "bus",
        "marker-size": "medium"
      },
      "geometry": {
        "type": "Point",
        "coordinates": [
          34.827642,
          32.103618
        ]
      }
    },
    {
      "type": "Feature",
      "properties": {
        "type": "original_route_stop",
        "stop_code": "21666",
        "stop_name": "קניון איילון/דרך אבא הלל",
        "marker-color": "#2ca02c",
        "marker-symbol": "bus",
        "marker-size": "medium"
      },
      "geometry": {
        "type": "Point",
        "coordinates": [
          34.827472,
          32.098809
        ]
      }
    },
    {
      "type": "Feature",
      "properties": {
        "type": "original_route_stop",
        "stop_code": "21817",
        "stop_name": "דרך בן גוריון /דרך ששת הימים",
        "marker-color": "#2ca02c",
        "marker-symbol": "bus",
        "marker-size": "medium"
      },
      "geometry": {
        "type": "Point",
        "coordinates": [
          34.821682,
          32.095915
        ]
      }
    },
    {
      "type": "Feature",
      "properties": {
        "type": "original_route_stop",
        "stop_code": "22273",
        "stop_name": "מגדל קונקורד/דרך בן גוריון",
        "marker-color": "#2ca02c",
        "marker-symbol": "bus",
        "marker-size": "medium"
      },
      "geometry": {
        "type": "Point",
        "coordinates": [
          34.822094,
          32.093343
        ]
      }
    },
    {
      "type": "Feature",
      "properties": {
        "type": "original_route_stop",
        "stop_code": "21231",
        "stop_name": "דרך בן גוריון/דרך ז'בוטינסקי",
        "marker-color": "#2ca02c",
        "marker-symbol": "bus",
        "marker-size": "medium"
      },
      "geometry": {
        "type": "Point",
        "coordinates": [
          34.822531,
          32.090189
        ]
      }
    },
    {
      "type": "Feature",
      "properties": {
        "type": "original_route_stop",
        "stop_code": "26342",
        "stop_name": "דרך בן גוריון/מגדים",
        "marker-color": "#2ca02c",
        "marker-symbol": "bus",
        "marker-size": "medium"
      },
      "geometry": {
        "type": "Point",
        "coordinates": [
          34.822517,
          32.087723
        ]
      }
    },
    {
      "type": "Feature",
      "properties": {
        "type": "original_route_stop",
        "stop_code": "20168",
        "stop_name": "דרך בן גוריון/שלישות",
        "marker-color": "#2ca02c",
        "marker-symbol": "bus",
        "marker-size": "medium"
      },
      "geometry": {
        "type": "Point",
        "coordinates": [
          34.822243,
          32.086062
        ]
      }
    },
    {
      "type": "Feature",
      "properties": {
        "type": "original_route_stop",
        "stop_code": "21229",
        "stop_name": "בן גוריון/ הרא''ה",
        "marker-color": "#2ca02c",
        "marker-symbol": "bus",
        "marker-size": "medium"
      },
      "geometry": {
        "type": "Point",
        "coordinates": [
          34.821066,
          32.083188
        ]
      }
    },
    {
      "type": "Feature",
      "properties": {
        "type": "original_route_stop",
        "stop_code": "26333",
        "stop_name": "קריניצי/הרצל",
        "marker-color": "#2ca02c",
        "marker-symbol": "bus",
        "marker-size": "medium"
      },
      "geometry": {
        "type": "Point",
        "coordinates": [
          34.818367,
          32.080839
        ]
      }
    },
    {
      "type": "Feature",
      "properties": {
        "type": "original_route_stop",
        "stop_code": "26137",
        "stop_name": "סירקין/ביאליק",
        "marker-color": "#2ca02c",
        "marker-symbol": "bus",
        "marker-size": "medium"
      },
      "geometry": {
        "type": "Point",
        "coordinates": [
          34.814765,
          32.078002
        ]
      }
    },
    {
      "type": "Feature",
      "properties": {
        "type": "original_route_stop",
        "stop_code": "26133",
        "stop_name": "כיכר נח/כצנלסון",
        "marker-color": "#2ca02c",
        "marker-symbol": "bus",
        "marker-size": "medium"
      },
      "geometry": {
        "type": "Point",
        "coordinates": [
          34.81372,
          32.07702
        ]
      }
    },
    {
      "type": "Feature",
      "properties": {
        "type": "original_route_stop",
        "stop_code": "21399",
        "stop_name": "יגאל אלון/עמק ברכה",
        "marker-color": "#2ca02c",
        "marker-symbol": "bus",
        "marker-size": "medium"
      },
      "geometry": {
        "type": "Point",
        "coordinates": [
          34.796208,
          32.07658
        ]
      }
    },
    {
      "type": "Feature",
      "properties": {
        "type": "original_route_stop",
        "stop_code": "21487",
        "stop_name": "יגאל אלון/דרך השלום",
        "marker-color": "#2ca02c",
        "marker-symbol": "bus",
        "marker-size": "medium"
      },
      "geometry": {
        "type": "Point",
        "coordinates": [
          34.794118,
          32.071549
        ]
      }
    },
    {
      "type": "Feature",
      "properties": {
        "type": "original_route_stop",
        "stop_code": "21518",
        "stop_name": "יגאל אלון/קרמנצקי",
        "marker-color": "#2ca02c",
        "marker-symbol": "bus",
        "marker-size": "medium"
      },
      "geometry": {
        "type": "Point",
        "coordinates": [
          34.792921,
          32.067602
        ]
      }
    },
    {
      "type": "Feature",
      "properties": {
        "type": "original_route_stop",
        "stop_code": "21406",
        "stop_name": "יגאל אלון/יצחק שדה",
        "marker-color": "#2ca02c",
        "marker-symbol": "bus",
        "marker-size": "medium"
      },
      "geometry": {
        "type": "Point",
        "coordinates": [
          34.792274,
          32.064876
        ]
      }
    },
    {
      "type": "Feature",
      "properties": {
        "type": "original_route_stop",
        "stop_code": "21454",
        "stop_name": "יגאל אלון/הפלמ''ח",
        "marker-color": "#2ca02c",
        "marker-symbol": "bus",
        "marker-size": "medium"
      },
      "geometry": {
        "type": "Point",
        "coordinates": [
          34.792016,
          32.062878
        ]
      }
    },
    {
      "type": "Feature",
      "properties": {
        "type": "original_route_stop",
        "stop_code": "21318",
        "stop_name": "היכל הספורט/יגאל אלון",
        "marker-color": "#2ca02c",
        "marker-symbol": "bus",
        "marker-size": "medium"
      },
      "geometry": {
        "type": "Point",
        "coordinates": [
          34.791891,
          32.060644
        ]
      }
    },
    {
      "type": "Feature",
      "properties": {
        "type": "original_route_stop",
        "stop_code": "25683",
        "stop_name": "יגאל אלון/לה גווארדייה",
        "marker-color": "#2ca02c",
        "marker-symbol": "bus",
        "marker-size": "medium"
      },
      "geometry": {
        "type": "Point",
        "coordinates": [
          34.791868,
          32.058255
        ]
      }
    },
    {
      "type": "Feature",
      "properties": {
        "type": "original_route_stop",
        "stop_code": "22939",
        "stop_name": "יגאל אלון/שד' החי''ל",
        "marker-color": "#2ca02c",
        "marker-symbol": "bus",
        "marker-size": "medium"
      },
      "geometry": {
        "type": "Point",
        "coordinates": [
          34.791749,
          32.055943
        ]
      }
    },
    {
      "type": "Feature",
      "properties": {
        "type": "original_route_stop",
        "stop_code": "21728",
        "stop_name": "יגאל אלון/ההגנה",
        "marker-color": "#2ca02c",
        "marker-symbol": "bus",
        "marker-size": "medium"
      },
      "geometry": {
        "type": "Point",
        "coordinates": [
          34.791618,
          32.054767
        ]
      }
    },
    {
      "type": "Feature",
      "properties": {
        "type": "original_route_stop",
        "stop_code": "25642",
        "stop_name": "דרך ההגנה/המעפילים",
        "marker-color": "#2ca02c",
        "marker-symbol": "bus",
        "marker-size": "medium"
      },
      "geometry": {
        "type": "Point",
        "coordinates": [
          34.787996,
          32.054313
        ]
      }
    },
    {
      "type": "Feature",
      "properties": {
        "type": "original_route_stop",
        "stop_code": "25638",
        "stop_name": "ת.רכבת ההגנה",
        "marker-color": "#2ca02c",
        "marker-symbol": "bus",
        "marker-size": "medium"
      },
      "geometry": {
        "type": "Point",
        "coordinates": [
          34.784028,
          32.05496
        ]
      }
    },
    {
      "type": "Feature",
      "properties": {
        "type": "cancelled_stop",
        "stop_code": "21096",
        "stop_name": "כצנלסון/קק''ל",
        "marker-color": "#ff0000",
        "marker-symbol": "bus",
        "marker-size": "medium"
      },
      "geometry": {
        "type": "Point",
        "coordinates": [
          34.806944,
          32.075287
        ]
      }
    },
    {
      "type": "Feature",
      "properties": {
        "type": "cancelled_stop",
        "stop_code": "21093",
        "stop_name": "כצנלסון/לכיש",
        "marker-color": "#ff0000",
        "marker-symbol": "bus",
        "marker-size": "medium"
      },
      "geometry": {
        "type": "Point",
        "coordinates": [
          34.803222,
          32.075356
        ]
      }
    },
    {
      "type": "Feature",
      "properties": {
        "type": "new_stop",
        "stop_code": "21025",
        "stop_name": "ויצמן/ז'בוטינסקי",
        "marker-color": "#1f9ed6",
        "marker-symbol": "bus",
        "marker-size": "medium"
      },
      "geometry": {
        "type": "Point",
        "coordinates": [
          34.808561,
          32.073194
        ]
      }
    },
    {
      "type": "Feature",
      "properties": {
        "type": "new_stop",
        "stop_code": "26119",
        "stop_name": "ויצמן/רמב''ם",
        "marker-color": "#1f9ed6",
        "marker-symbol": "bus",
        "marker-size": "medium"
      },
      "geometry": {
        "type": "Point",
        "coordinates": [
          34.808535,
          32.07147
        ]
      }
    },
    {
      "type": "Feature",
      "properties": {
        "type": "new_stop",
        "stop_code": "26097",
        "stop_name": "רמב''ם/אילת",
        "marker-color": "#1f9ed6",
        "marker-symbol": "bus",
        "marker-size": "medium"
      },
      "geometry": {
        "type": "Point",
        "coordinates": [
          34.805756,
          32.070451
        ]
      }
    },
    {
      "type": "Feature",
      "properties": {
        "type": "new_stop",
        "stop_code": "26092",
        "stop_name": "בית העלמין/רמב''ם",
        "marker-color": "#1f9ed6",
        "marker-symbol": "bus",
        "marker-size": "medium"
      },
      "geometry": {
        "type": "Point",
        "coordinates": [
          34.802154,
          32.070995
        ]
      }
    },
    {
      "type": "Feature",
      "properties": {
        "type": "new_stop",
        "stop_code": "26100",
        "stop_name": "עליית הנוער/נחלת יצחק",
        "marker-color": "#1f9ed6",
        "marker-symbol": "bus",
        "marker-size": "medium"
      },
      "geometry": {
        "type": "Point",
        "coordinates": [
          34.801249,
          32.074097
        ]
      }
    },
    {
      "type": "Feature",
      "properties": {
        "type": "reported_block_stop",
        "stop_code": "21096",
        "stop_name": "כצנלסון/קק''ל",
        "marker-color": "#ff8800",
        "marker-symbol": "bus",
        "marker-size": "medium"
      },
      "geometry": {
        "type": "Point",
        "coordinates": [
          34.806944,
          32.075287
        ]
      }
    },
    {
      "type": "Feature",
      "properties": {
        "type": "reported_block_stop",
        "stop_code": "21093",
        "stop_name": "כצנלסון/לכיש",
        "marker-color": "#ff8800",
        "marker-symbol": "bus",
        "marker-size": "medium"
      },
      "geometry": {
        "type": "Point",
        "coordinates": [
          34.803222,
          32.075356
        ]
      }
    },
    {
      "type": "Feature",
      "properties": {
        "type": "deviate_from_stop",
        "stop_code": "26129",
        "stop_name": "כצנלסון/ויצמן",
        "marker-color": "#8000ff",
        "marker-symbol": "bus",
        "marker-size": "medium"
      },
      "geometry": {
        "type": "Point",
        "coordinates": [
          34.80926,
          32.075525
        ]
      }
    },
    {
      "type": "Feature",
      "properties": {
        "type": "deviate_to_stop",
        "stop_code": "25764",
        "stop_name": "עמק ברכה/בנימיני",
        "marker-color": "#8000ff",
        "marker-symbol": "bus",
        "marker-size": "medium"
      },
      "geometry": {
        "type": "Point",
        "coordinates": [
          34.798903,
          32.076216
        ]
      }
    }
  ]
}