{
  "type": "FeatureCollection",
  "features": [
    {
      "type": "Feature",
      "properties": {
        "type": "deviation_path_edge",
        "from_stop_code": "25787",
        "to_stop_code": "25786",
        "stroke": "#00bcd4",
        "stroke-width": 3,
        "stroke-opacity": 0.95
      },
      "geometry": {
        "type": "LineString",
        "coordinates": [
          [
            34.77455874870466,
            32.08540164507772
          ],
          [
            34.774422,
            32.084882
          ],
          [
            34.774313,
            32.084466
          ],
          [
            34.774292,
            32.084386
          ],
          [
            34.774269,
            32.084302
          ],
          [
            34.774619,
            32.084206
          ],
          [
            34.774937,
            32.08408
          ],
          [
            34.77503034924468,
            32.08403738764497
          ]
        ]
      }
    },
    {
      "type": "Feature",
      "properties": {
        "type": "deviation_path_edge",
        "from_stop_code": "25786",
        "to_stop_code": "20551",
        "stroke": "#00bcd4",
        "stroke-width": 3,
        "stroke-opacity": 0.95
      },
      "geometry": {
        "type": "LineString",
        "coordinates": [
          [
            34.77503034924468,
            32.08403738764497
          ],
          [
            34.7755,
            32.083823
          ],
          [
            34.775796,
            32.083678
          ],
          [
            34.776223,
            32.083444
          ],
          [
            34.776809,
            32.08311
          ],
          [
            34.77706068674338,
            32.08297111188856
          ]
        ]
      }
    },
    {
      "type": "Feature",
      "properties": {
        "type": "deviation_path_edge",
        "from_stop_code": "20551",
        "to_stop_code": "25823",
        "stroke": "#00bcd4",
        "stroke-width": 3,
        "stroke-opacity": 0.95
      },
      "geometry": {
        "type": "LineString",
        "coordinates": [
          [
            34.77706068674338,
            32.08297111188856
          ],
          [
            34.777137,
            32.082929
          ],
          [
            34.777332,
            32.082822
          ],
          [
            34.777852,
            32.082528
          ],
          [
            34.777988,
            32.082549
          ],
          [
            34.77812,
            32.082569
          ],
          [
            34.778497,
            32.082651
          ],
          [
            34.778851,
            32.08272
          ],
          [
            34.779156,
            32.082787
          ],
          [
            34.779447,
            32.082839
          ],
          [
            34.779716,
            32.082885
          ],
          [
            34.779911,
            32.082923
          ],
          [
            34.780271,
            32.082993
          ],
          [
            34.780458,
            32.083031
          ],
          [
            34.78076,
            32.083096
          ],
          [
            34.780988,
            32.083102
          ],
          [
            34.781085,
            32.083091
          ],
          [
            34.781143,
            32.083063
          ],
          [
            34.781173,
            32.083034
          ],
          [
            34.781232,
            32.082934
          ],
          [
            34.7812291951914,
            32.08290821385638
          ]
        ]
      }
    },
    {
      "type": "Feature",
      "properties": {
        "type": "deviation_path_edge",
        "from_stop_code": "25823",
        "to_stop_code": "21520",
        "stroke": "#00bcd4",
        "stroke-width": 3,
        "stroke-opacity": 0.95
      },
      "geometry": {
        "type": "LineString",
        "coordinates": [
          [
            34.7812291951914,
            32.08290821385638
          ],
          [
            34.781201,
            32.082649
          ],
          [
            34.781195,
            32.082269
          ],
          [
            34.7812,
            32.082153
          ],
          [
            34.781209,
            32.081571
          ],
          [
            34.781211,
            32.081472
          ],
          [
            34.781206,
            32.081398
          ],
          [
            34.781192,
            32.080911
          ],
          [
            34.781177,
            32.080352
          ],
          [
            34.781176,
            32.079803
          ],
          [
            34.781124,
            32.079676
          ],
          [
            34.781093,
            32.079622
          ],
          [
            34.781045,
            32.079581
          ],
          [
            34.780964,
            32.079554
          ],
          [
            34.78065678985426,
            32.07955544910446
          ]
        ]
      }
    },
    {
      "type": "Feature",
      "properties": {
        "type": "deviation_path_edge",
        "from_stop_code": "21520",
        "to_stop_code": "25617",
        "stroke": "#00bcd4",
        "stroke-width": 3,
        "stroke-opacity": 0.95
      },
      "geometry": {
        "type": "LineString",
        "coordinates": [
          [
            34.78065678985426,
            32.07955544910446
          ],
          [
            34.78054,
            32.079556
          ],
          [
            34.780053,
            32.079558
          ],
          [
            34.77997,
            32.079558
          ],
          [
            34.779902,
            32.079559
          ],
          [
            34.779756,
            32.079559
          ],
          [
            34.779538,
            32.079565
          ],
          [
            34.779489,
            32.079567
          ],
          [
            34.779124,
            32.079584
          ],
          [
            34.779125,
            32.079505
          ],
          [
            34.77913,
            32.079411
          ],
          [
            34.779119,
            32.079308
          ],
          [
            34.779078,
            32.079243
          ],
          [
            34.778885,
            32.07906
          ],
          [
            34.77876,
            32.078941
          ],
          [
            34.77869,
            32.078878
          ],
          [
            34.778606,
            32.078808
          ],
          [
            34.778077,
            32.078275
          ],
          [
            34.778044,
            32.078241
          ],
          [
            34.778024,
            32.07819
          ],
          [
            34.778011,
            32.078146
          ],
          [
            34.778034,
            32.07809
          ],
          [
            34.778063,
            32.078049
          ],
          [
            34.778207,
            32.07793
          ],
          [
            34.777729,
            32.077346
          ],
          [
            34.777625,
            32.077213
          ],
          [
            34.777354597714364,
            32.07686613149424
          ]
        ]
      }
    },
    {
      "type": "Feature",
      "properties": {
        "type": "deviation_path_edge",
        "from_stop_code": "25617",
        "to_stop_code": "20784",
        "stroke": "#00bcd4",
        "stroke-width": 3,
        "stroke-opacity": 0.95
      },
      "geometry": {
        "type": "LineString",
        "coordinates": [
          [
            34.777354597714364,
            32.07686613149424
          ],
          [
            34.776893,
            32.076274
          ],
          [
            34.776681,
            32.076021
          ],
          [
            34.776379,
            32.075589
          ],
          [
            34.776308,
            32.075478
          ],
          [
            34.776237666678824,
            32.07536937409285
          ]
        ]
      }
    },
    {
      "type": "Feature",
      "properties": {
        "type": "deviation_path_edge",
        "from_stop_code": "20784",
        "to_stop_code": "25608",
        "stroke": "#00bcd4",
        "stroke-width": 3,
        "stroke-opacity": 0.95
      },
      "geometry": {
        "type": "LineString",
        "coordinates": [
          [
            34.776237666678824,
            32.07536937409285
          ],
          [
            34.776128,
            32.0752
          ],
          [
            34.775863,
            32.074795
          ],
          [
            34.775729,
            32.074548
          ],
          [
            34.775656,
            32.074413
          ],
          [
            34.775576,
            32.074337
          ],
          [
            34.775575,
            32.074336
          ],
          [
            34.775381,
            32.074059
          ],
          [
            34.775327,
            32.073972
          ],
          [
            34.775397,
            32.073929
          ],
          [
            34.77561103863956,
            32.07379642382774
          ]
        ]
      }
    },
    {
      "type": "Feature",
      "properties": {
        "type": "original_route_shape",
        "shape_id": "164696",
        "stroke": "#1f2a7a",
        "stroke-width": 3,
        "stroke-opacity": 0.85
      },
      "geometry": {
        "type": "LineString",
        "coordinates": [
          [
            34.77708002404526,
            32.09776574964639
          ],
          [
            34.776943,
            32.097715
          ],
          [
            34.776868,
            32.097688
          ],
          [
            34.776376,
            32.097509
          ],
          [
            34.776158,
            32.097425
          ],
          [
            34.775903,
            32.097328
          ],
          [
            34.775909,
            32.09724
          ],
          [
            34.775915,
            32.097092
          ],
          [
            34.775929,
            32.096966
          ],
          [
            34.77597,
            32.096653
          ],
          [
            34.775987,
            32.096523
          ],
          [
            34.776057,
            32.09601
          ],
          [
            34.776182,
            32.095659
          ],
          [
            34.776262,
            32.095416
          ],
          [
            34.776459,
            32.094818
          ],
          [
            34.776722,
            32.094243
          ],
          [
            34.776735,
            32.094185
          ],
          [
            34.776734,
            32.094117
          ],
          [
            34.776461,
            32.09307
          ],
          [
            34.776309,
            32.092478
          ],
          [
            34.776292,
            32.092407
          ],
          [
            34.77627,
            32.092314
          ],
          [
            34.776144,
            32.091786
          ],
          [
            34.776109,
            32.091608
          ],
          [
            34.775919,
            32.090834
          ],
          [
            34.775798,
            32.090342
          ],
          [
            34.775715,
            32.090074
          ],
          [
            34.775667,
            32.089878
          ],
          [
            34.775517,
            32.089277
          ],
          [
            34.77531,
            32.088396
          ],
          [
            34.775247,
            32.088128
          ],
          [
            34.775158,
            32.087794
          ],
          [
            34.774929,
            32.086899
          ],
          [
            34.774798,
            32.086379
          ],
          [
            34.774727,
            32.086098
          ],
          [
            34.774667,
            32.085814
          ],
          [
            34.774422,
            32.084882
          ],
          [
            34.774313,
            32.084466
          ],
          [
            34.774292,
            32.084386
          ],
          [
            34.774269,
            32.084302
          ],
          [
            34.774148,
            32.083713
          ],
          [
            34.774001,
            32.083027
          ],
          [
            34.773809,
            32.081783
          ],
          [
            34.773827,
            32.079743
          ],
          [
            34.773898,
            32.079303
          ],
          [
            34.77394,
            32.079048
          ],
          [
            34.773991,
            32.078759
          ],
          [
            34.774051,
            32.078496
          ],
          [
            34.774071,
            32.078403
          ],
          [
            34.77406,
            32.078307
          ],
          [
            34.774032,
            32.078262
          ],
          [
            34.773993,
            32.078228
          ],
          [
            34.773945,
            32.078189
          ],
          [
            34.773901,
            32.078154
          ],
          [
            34.773865,
            32.07811
          ],
          [
            34.773846,
            32.078073
          ],
          [
            34.773836,
            32.078025
          ],
          [
            34.773836,
            32.077971
          ],
          [
            34.773849,
            32.077923
          ],
          [
            34.773862,
            32.077895
          ],
          [
            34.773894,
            32.077843
          ],
          [
            34.773941,
            32.077782
          ],
          [
            34.773993,
            32.077746
          ],
          [
            34.774064,
            32.077707
          ],
          [
            34.774177,
            32.077662
          ],
          [
            34.774219,
            32.077622
          ],
          [
            34.774239,
            32.077594
          ],
          [
            34.774299,
            32.077475
          ],
          [
            34.774336,
            32.077371
          ],
          [
            34.774478,
            32.076884
          ],
          [
            34.774509,
            32.076796
          ],
          [
            34.77479,
            32.076005
          ],
          [
            34.774814,
            32.075952
          ],
          [
            34.774897,
            32.075787
          ],
          [
            34.774991,
            32.075654
          ],
          [
            34.775015,
            32.075627
          ],
          [
            34.775036,
            32.075603
          ],
          [
            34.775118,
            32.075476
          ],
          [
            34.775271,
            32.075297
          ],
          [
            34.775405,
            32.075163
          ],
          [
            34.775494,
            32.075085
          ],
          [
            34.775498,
            32.075079
          ],
          [
            34.77552,
            32.075055
          ],
          [
            34.775547,
            32.075026
          ],
          [
            34.775612,
            32.074982
          ],
          [
            34.775863,
            32.074795
          ],
          [
            34.775729,
            32.074548
          ],
          [
            34.775656,
            32.074413
          ],
          [
            34.77558,
            32.074341
          ],
          [
            34.775575,
            32.074336
          ],
          [
            34.775381,
            32.074059
          ],
          [
            34.775327,
            32.073972
          ],
          [
            34.775397,
            32.073929
          ],
          [
            34.775933,
            32.073597
          ],
          [
            34.776182,
            32.073476
          ],
          [
            34.776822,
            32.073147
          ],
          [
            34.776947,
            32.073082
          ],
          [
            34.777016,
            32.073046
          ],
          [
            34.77773,
            32.072672
          ],
          [
            34.778492,
            32.072316
          ],
          [
            34.778582,
            32.072287
          ],
          [
            34.778838,
            32.072215
          ],
          [
            34.77893,
            32.072186
          ],
          [
            34.779027,
            32.072147
          ],
          [
            34.779061,
            32.072128
          ],
          [
            34.779089,
            32.0721
          ],
          [
            34.779108,
            32.072065
          ],
          [
            34.779121,
            32.072019
          ],
          [
            34.77912,
            32.071991
          ],
          [
            34.779108,
            32.071936
          ],
          [
            34.779045,
            32.071739
          ],
          [
            34.778751,
            32.07089
          ],
          [
            34.778692,
            32.070689
          ],
          [
            34.778641,
            32.070517
          ],
          [
            34.778597,
            32.07036
          ],
          [
            34.778351,
            32.069649
          ],
          [
            34.778014,
            32.06848
          ],
          [
            34.77795,
            32.068265
          ],
          [
            34.777939,
            32.068229
          ],
          [
            34.777765,
            32.067562
          ],
          [
            34.777471,
            32.066658
          ],
          [
            34.777197,
            32.065952
          ],
          [
            34.777157,
            32.065885
          ],
          [
            34.777072,
            32.065784
          ],
          [
            34.776686,
            32.065421
          ],
          [
            34.775572,
            32.064377
          ],
          [
            34.775568,
            32.064373
          ],
          [
            34.775602,
            32.064295
          ],
          [
            34.775613,
            32.064252
          ],
          [
            34.77563,
            32.06419
          ],
          [
            34.775762,
            32.063927
          ],
          [
            34.775964,
            32.063611
          ],
          [
            34.775476,
            32.063267
          ],
          [
            34.77516,
            32.063012
          ],
          [
            34.774946,
            32.062863
          ],
          [
            34.774859,
            32.062787
          ],
          [
            34.774443,
            32.062533
          ],
          [
            34.774007,
            32.062315
          ],
          [
            34.77362,
            32.062093
          ],
          [
            34.773462,
            32.062006
          ],
          [
            34.773497,
            32.061895
          ],
          [
            34.773559,
            32.0617
          ],
          [
            34.773672,
            32.061332
          ],
          [
            34.773819,
            32.060881
          ],
          [
            34.773931,
            32.060582
          ],
          [
            34.773825,
            32.060085
          ],
          [
            34.773638,
            32.059392
          ],
          [
            34.773485,
            32.058799
          ],
          [
            34.773473,
            32.058754
          ],
          [
            34.773285,
            32.058032
          ],
          [
            34.773107,
            32.057405
          ],
          [
            34.772974,
            32.056885
          ],
          [
            34.772819,
            32.056329
          ],
          [
            34.772699,
            32.05602
          ],
          [
            34.772267,
            32.055075
          ],
          [
            34.772111,
            32.054804
          ],
          [
            34.772105,
            32.054704
          ],
          [
            34.772141,
            32.054007
          ],
          [
            34.772173,
            32.053487
          ],
          [
            34.772184,
            32.053295
          ],
          [
            34.772186,
            32.053259
          ],
          [
            34.772223,
            32.05273
          ],
          [
            34.772237,
            32.052533
          ],
          [
            34.772244,
            32.052431
          ],
          [
            34.772251,
            32.052315
          ],
          [
            34.772255,
            32.052063
          ],
          [
            34.772226,
            32.05186
          ],
          [
            34.772192,
            32.051729
          ],
          [
            34.772162,
            32.051668
          ],
          [
            34.772069,
            32.051472
          ],
          [
            34.772052,
            32.051447
          ],
          [
            34.772001,
            32.051372
          ],
          [
            34.771975,
            32.051331
          ],
          [
            34.771885,
            32.051219
          ],
          [
            34.771519,
            32.050754
          ],
          [
            34.771484,
            32.050711
          ],
          [
            34.771217,
            32.050863
          ],
          [
            34.770573,
            32.051175
          ],
          [
            34.770145,
            32.051358
          ],
          [
            34.770125,
            32.051247
          ],
          [
            34.770045,
            32.051034
          ],
          [
            34.77002971340552,
            32.05100215292817
          ]
        ]
      }
    },
    {
      "type": "Feature",
      "properties": {
        "type": "original_route_stop",
        "stop_code": "22998",
        "stop_name": "דיזנגוף/בן יהודה",
        "marker-color": "#2ca02c",
        "marker-symbol": "bus",
        "marker-size": "medium"
      },
      "geometry": {
        "type": "Point",
        "coordinates": [
          34.775963,
          32.096302
        ]
      }
    },
    {
      "type": "Feature",
      "properties": {
        "type": "original_route_stop",
        "stop_code": "25841",
        "stop_name": "דיזנגוף/שד' נורדאו",
        "marker-color": "#2ca02c",
        "marker-symbol": "bus",
        "marker-size": "medium"
      },
      "geometry": {
        "type": "Point",
        "coordinates": [
          34.776506,
          32.093454
        ]
      }
    },
    {
      "type": "Feature",
      "properties": {
        "type": "original_route_stop",
        "stop_code": "25830",
        "stop_name": "דיזנגוף/ז'בוטינסקי",
        "marker-color": "#2ca02c",
        "marker-symbol": "bus",
        "marker-size": "medium"
      },
      "geometry": {
        "type": "Point",
        "coordinates": [
          34.775357,
          32.088826
        ]
      }
    },
    {
      "type": "Feature",
      "properties": {
        "type": "original_route_stop",
        "stop_code": "25592",
        "stop_name": "הבימה/שד' רוטשילד",
        "marker-color": "#2ca02c",
        "marker-symbol": "bus",
        "marker-size": "medium"
      },
      "geometry": {
        "type": "Point",
        "coordinates": [
          34.778882,
          32.071428
        ]
      }
    },
    {
      "type": "Feature",
      "properties": {
        "type": "original_route_stop",
        "stop_code": "25587",
        "stop_name": "שד' רוטשילד/שיינקין",
        "marker-color": "#2ca02c",
        "marker-symbol": "bus",
        "marker-size": "medium"
      },
      "geometry": {
        "type": "Point",
        "coordinates": [
          34.777966,
          32.0685
        ]
      }
    },
    {
      "type": "Feature",
      "properties": {
        "type": "original_route_stop",
        "stop_code": "25578",
        "stop_name": "שד' רוטשילד/נחמני",
        "marker-color": "#2ca02c",
        "marker-symbol": "bus",
        "marker-size": "medium"
      },
      "geometry": {
        "type": "Point",
        "coordinates": [
          34.776104,
          32.064942
        ]
      }
    },
    {
      "type": "Feature",
      "properties": {
        "type": "original_route_stop",
        "stop_code": "20005",
        "stop_name": "ת.רק''ל אלנבי/יהודה הלוי",
        "marker-color": "#2ca02c",
        "marker-symbol": "bus",
        "marker-size": "medium"
      },
      "geometry": {
        "type": "Point",
        "coordinates": [
          34.77418,
          32.062454
        ]
      }
    },
    {
      "type": "Feature",
      "properties": {
        "type": "original_route_stop",
        "stop_code": "25394",
        "stop_name": "שוק לוינסקי/העלייה",
        "marker-color": "#2ca02c",
        "marker-symbol": "bus",
        "marker-size": "medium"
      },
      "geometry": {
        "type": "Point",
        "coordinates": [
          34.773499,
          32.059065
        ]
      }
    },
    {
      "type": "Feature",
      "properties": {
        "type": "original_route_stop",
        "stop_code": "21584",
        "stop_name": "העלייה/פלורנטין",
        "marker-color": "#2ca02c",
        "marker-symbol": "bus",
        "marker-size": "medium"
      },
      "geometry": {
        "type": "Point",
        "coordinates": [
          34.772525,
          32.055762
        ]
      }
    },
    {
      "type": "Feature",
      "properties": {
        "type": "original_route_stop",
        "stop_code": "20388",
        "stop_name": "שוקן/דרך שלמה",
        "marker-color": "#2ca02c",
        "marker-symbol": "bus",
        "marker-size": "medium"
      },
      "geometry": {
        "type": "Point",
        "coordinates": [
          34.772082,
          32.054131
        ]
      }
    },
    {
      "type": "Feature",
      "properties": {
        "type": "original_route_stop",
        "stop_code": "25380",
        "stop_name": "בית המשפט/שוקן",
        "marker-color": "#2ca02c",
        "marker-symbol": "bus",
        "marker-size": "medium"
      },
      "geometry": {
        "type": "Point",
        "coordinates": [
          34.772093,
          32.051643
        ]
      }
    },
    {
      "type": "Feature",
      "properties": {
        "type": "cancelled_stop",
        "stop_code": "25778",
        "stop_name": "דיזנגוף/ש''ץ",
        "marker-color": "#ff0000",
        "marker-symbol": "bus",
        "marker-size": "medium"
      },
      "geometry": {
        "type": "Point",
        "coordinates": [
          34.774083,
          32.08366
        ]
      }
    },
    {
      "type": "Feature",
      "properties": {
        "type": "cancelled_stop",
        "stop_code": "21366",
        "stop_name": "כיכר דיזנגוף/דיזנגוף",
        "marker-color": "#ff0000",
        "marker-symbol": "bus",
        "marker-size": "medium"
      },
      "geometry": {
        "type": "Point",
        "coordinates": [
          34.773907,
          32.078936
        ]
      }
    },
    {
      "type": "Feature",
      "properties": {
        "type": "cancelled_stop",
        "stop_code": "25565",
        "stop_name": "דיזנגוף סנטר/דיזנגוף",
        "marker-color": "#ff0000",
        "marker-symbol": "bus",
        "marker-size": "medium"
      },
      "geometry": {
        "type": "Point",
        "coordinates": [
          34.77537,
          32.075129
        ]
      }
    },
    {
      "type": "Feature",
      "properties": {
        "type": "new_stop",
        "stop_code": "25786",
        "stop_name": "שד' בן גוריון/דיזנגוף",
        "marker-color": "#1f9ed6",
        "marker-symbol": "bus",
        "marker-size": "medium"
      },
      "geometry": {
        "type": "Point",
        "coordinates": [
          34.775011,
          32.083995
        ]
      }
    },
    {
      "type": "Feature",
      "properties": {
        "type": "new_stop",
        "stop_code": "20551",
        "stop_name": "מנהלי הנדסה ובת''ש/שד' בן גוריון",
        "marker-color": "#1f9ed6",
        "marker-symbol": "bus",
        "marker-size": "medium"
      },
      "geometry": {
        "type": "Point",
        "coordinates": [
          34.777038,
          32.08293
        ]
      }
    },
    {
      "type": "Feature",
      "properties": {
        "type": "new_stop",
        "stop_code": "25823",
        "stop_name": "עיריית תל אביב - יפו/אבן גבירול",
        "marker-color": "#1f9ed6",
        "marker-symbol": "bus",
        "marker-size": "medium"
      },
      "geometry": {
        "type": "Point",
        "coordinates": [
          34.781176,
          32.082914
        ]
      }
    },
    {
      "type": "Feature",
      "properties": {
        "type": "new_stop",
        "stop_code": "21520",
        "stop_name": "כיכר רבין/מלכי ישראל",
        "marker-color": "#1f9ed6",
        "marker-symbol": "bus",
        "marker-size": "medium"
      },
      "geometry": {
        "type": "Point",
        "coordinates": [
          34.780657,
          32.0796
        ]
      }
    },
    {
      "type": "Feature",
      "properties": {
        "type": "new_stop",
        "stop_code": "25617",
        "stop_name": "המלך ג'ורג'/זמנהוף",
        "marker-color": "#1f9ed6",
        "marker-symbol": "bus",
        "marker-size": "medium"
      },
      "geometry": {
        "type": "Point",
        "coordinates": [
          34.777315,
          32.076897
        ]
      }
    },
    {
      "type": "Feature",
      "properties": {
        "type": "new_stop",
        "stop_code": "20784",
        "stop_name": "דיזנגוף סנטר/המלך ג'ורג'",
        "marker-color": "#1f9ed6",
        "marker-symbol": "bus",
        "marker-size": "medium"
      },
      "geometry": {
        "type": "Point",
        "coordinates": [
          34.776195,
          32.075397
        ]
      }
    },
    {
      "type": "Feature",
      "properties": {
        "type": "reported_block_stop",
        "stop_code": "25778",
        "stop_name": "דיזנגוף/ש''ץ",
        "marker-color": "#ff8800",
        "marker-symbol": "bus",
        "marker-size": "medium"
      },
      "geometry": {
        "type": "Point",
        "coordinates": [
          34.774083,
          32.08366
        ]
      }
    },
    {
      "type": "Feature",
      "properties": {
        "type": "reported_block_stop",
        "stop_code": "21366",
        "stop_name": "כיכר דיזנגוף/דיזנגוף",
        "marker-color": "#ff8800",
        "marker-symbol": "bus",
        "marker-size": "medium"
      },
      "geometry": {
        "type": "Point",
        "coordinates": [
          34.773907,
          32.078936
        ]
      }
    },
    {
      "type": "Feature",
      "properties": {
        "type": "deviate_from_stop",
        "stop_code": "25787",
        "stop_name": "דיזנגוף/יודפת",
        "marker-color": "#8000ff",
        "marker-symbol": "bus",
        "marker-size": "medium"
      },
      "geometry": {
        "type": "Point",
        "coordinates": [
          34.774508,
          32.085415
        ]
      }
    },
    {
      "type": "Feature",
      "properties": {
        "type": "deviate_to_stop",
        "stop_code": "25608",
        "stop_name": "דיזנגוף סנטר/שדרות בן ציון",
        "marker-color": "#8000ff",
        "marker-symbol": "bus",
        "marker-size": "medium"
      },
      "geometry": {
        "type": "Point",
        "coordinates": [
          34.775586,
          32.073756
        ]
      }
    }
  ]
}