{
  "type": "FeatureCollection",
  "features": [
    {
      "type": "Feature",
      "properties": {
        "type": "deviation_path_edge",
        "from_stop_code": "20727",
        "to_stop_code": "23014",
        "stroke": "#00bcd4",
        "stroke-width": 3,
        "stroke-opacity": 0.95
      },
      "geometry": {
        "type": "LineString",
        "coordinates": [
          [
            34.78808749643201,
            32.06989496277724
          ],
          [
            34.788193,
            32.070015
          ],
          [
            34.788334,
            32.07017
          ],
          [
            34.788391,
            32.070233
          ],
          [
            34.78851,
            32.070365
          ],
          [
            34.788596,
            32.070462
          ],
          [
            34.788831,
            32.07071
          ],
          [
            34.788901,
            32.070768
          ],
          [
            34.788935,
            32.070786
          ],
          [
            34.78908,
            32.070831
          ],
          [
            34.789151,
            32.070857
          ],
          [
            34.789175,
            32.070868
          ],
          [
            34.789246,
            32.070933
          ],
          [
            34.789329,
            32.071039
          ],
          [
            34.789463,
            32.071143
          ],
          [
            34.789705,
            32.071431
          ],
          [
            34.78971,
            32.071437
          ],
          [
            34.789819,
            32.0716
          ],
          [
            34.789909,
            32.071743
          ],
          [
            34.789948,
            32.07181
          ],
          [
            34.790192,
            32.07234
          ],
          [
            34.790247,
            32.072472
          ],
          [
            34.790348,
            32.072739
          ],
          [
            34.790355,
            32.072758
          ],
          [
            34.790441,
            32.073007
          ],
          [
            34.790441,
            32.073004
          ],
          [
            34.790544,
            32.073278
          ],
          [
            34.790614,
            32.073458
          ],
          [
            34.790902,
            32.074138
          ],
          [
            34.79107010282839,
            32.07447583772307
          ]
        ]
      }
    },
    {
      "type": "Feature",
      "properties": {
        "type": "deviation_path_edge",
        "from_stop_code": "23014",
        "to_stop_code": "20770",
        "stroke": "#00bcd4",
        "stroke-width": 3,
        "stroke-opacity": 0.95
      },
      "geometry": {
        "type": "LineString",
        "coordinates": [
          [
            34.79107010282839,
            32.07447583772307
          ],
          [
            34.791108,
            32.074552
          ],
          [
            34.791338,
            32.075062
          ],
          [
            34.791407,
            32.075239
          ],
          [
            34.791454,
            32.075393
          ],
          [
            34.791558,
            32.075721
          ],
          [
            34.791798,
            32.076072
          ],
          [
            34.791906,
            32.076236
          ],
          [
            34.792019,
            32.076305
          ],
          [
            34.792054,
            32.076319
          ],
          [
            34.792099,
            32.076328
          ],
          [
            34.792137,
            32.076331
          ],
          [
            34.79214,
            32.076331
          ],
          [
            34.792249,
            32.076303
          ],
          [
            34.793023,
            32.076083
          ],
          [
            34.79338,
            32.075975
          ],
          [
            34.793546,
            32.075926
          ],
          [
            34.793673,
            32.075883
          ],
          [
            34.793725,
            32.075865
          ],
          [
            34.793898,
            32.075817
          ],
          [
            34.794045,
            32.075779
          ],
          [
            34.794197,
            32.075748
          ],
          [
            34.794305,
            32.075721
          ],
          [
            34.794548,
            32.075664
          ],
          [
            34.794743,
            32.075623
          ],
          [
            34.795188,
            32.075497
          ],
          [
            34.79537,
            32.075422
          ],
          [
            34.795774,
            32.075289
          ],
          [
            34.795815,
            32.075278
          ],
          [
            34.79615,
            32.075181
          ],
          [
            34.79618095634329,
            32.075171232604156
          ]
        ]
      }
    },
    {
      "type": "Feature",
      "properties": {
        "type": "deviation_path_edge",
        "from_stop_code": "20770",
        "to_stop_code": "25761",
        "stroke": "#00bcd4",
        "stroke-width": 3,
        "stroke-opacity": 0.95
      },
      "geometry": {
        "type": "LineString",
        "coordinates": [
          [
            34.79618095634329,
            32.075171232604156
          ],
          [
            34.796543,
            32.075057
          ],
          [
            34.796676,
            32.075015
          ],
          [
            34.797207,
            32.074866
          ],
          [
            34.797598,
            32.074756
          ],
          [
            34.797763,
            32.07471
          ],
          [
            34.798069497199535,
            32.07462305487605
          ]
        ]
      }
    },
    {
      "type": "Feature",
      "properties": {
        "type": "deviation_path_edge",
        "from_stop_code": "25761",
        "to_stop_code": "26099",
        "stroke": "#00bcd4",
        "stroke-width": 3,
        "stroke-opacity": 0.95
      },
      "geometry": {
        "type": "LineString",
        "coordinates": [
          [
            34.798069497199535,
            32.07462305487605
          ],
          [
            34.798253,
            32.074571
          ],
          [
            34.798474,
            32.074504
          ],
          [
            34.799012,
            32.074344
          ],
          [
            34.799565,
            32.074182
          ],
          [
            34.799688,
            32.074153
          ],
          [
            34.800036,
            32.07405
          ],
          [
            34.800255,
            32.073981
          ],
          [
            34.800423,
            32.073928
          ],
          [
            34.80066440087847,
            32.07385331509749
          ]
        ]
      }
    },
    {
      "type": "Feature",
      "properties": {
        "type": "deviation_path_edge",
        "from_stop_code": "26099",
        "to_stop_code": "26089",
        "stroke": "#00bcd4",
        "stroke-width": 3,
        "stroke-opacity": 0.95
      },
      "geometry": {
        "type": "LineString",
        "coordinates": [
          [
            34.80066440087847,
            32.07385331509749
          ],
          [
            34.800924,
            32.073773
          ],
          [
            34.800707,
            32.073209
          ],
          [
            34.80058,
            32.072889
          ],
          [
            34.799923,
            32.071273
          ],
          [
            34.79982,
            32.07097
          ],
          [
            34.799796,
            32.070901
          ],
          [
            34.799781,
            32.070739
          ],
          [
            34.799861,
            32.07072
          ],
          [
            34.800199,
            32.070629
          ],
          [
            34.800639,
            32.070477
          ],
          [
            34.801157,
            32.070321
          ],
          [
            34.801586,
            32.0702
          ],
          [
            34.801834,
            32.070107
          ],
          [
            34.801972,
            32.070048
          ],
          [
            34.802045,
            32.070001
          ],
          [
            34.802072,
            32.069983
          ],
          [
            34.80210781040892,
            32.0699554535316
          ]
        ]
      }
    },
    {
      "type": "Feature",
      "properties": {
        "type": "original_route_shape",
        "shape_id": "163274",
        "stroke": "#1f2a7a",
        "stroke-width": 3,
        "stroke-opacity": 0.85
      },
      "geometry": {
        "type": "LineString",
        "coordinates": [
          [
            34.78808749643201,
            32.06989496277724
          ],
          [
            34.788193,
            32.070015
          ],
          [
            34.788391,
            32.070233
          ],
          [
            34.78851,
            32.070365
          ],
          [
            34.788596,
            32.070462
          ],
          [
            34.788831,
            32.07071
          ],
          [
            34.788901,
            32.070768
          ],
          [
            34.788935,
            32.070786
          ],
          [
            34.78908,
            32.070831
          ],
          [
            34.789151,
            32.070857
          ],
          [
            34.789175,
            32.070868
          ],
          [
            34.789246,
            32.070933
          ],
          [
            34.789329,
            32.071039
          ],
          [
            34.789463,
            32.071143
          ],
          [
            34.789705,
            32.071431
          ],
          [
            34.78971,
            32.071437
          ],
          [
            34.789819,
            32.0716
          ],
          [
            34.789909,
            32.071743
          ],
          [
            34.789948,
            32.07181
          ],
          [
            34.790192,
            32.07234
          ],
          [
            34.790246,
            32.07247
          ],
          [
            34.790348,
            32.072739
          ],
          [
            34.790495,
            32.072952
          ],
          [
            34.790562,
            32.073057
          ],
          [
            34.790618,
            32.073147
          ],
          [
            34.790647,
            32.073188
          ],
          [
            34.790684,
            32.073227
          ],
          [
            34.790721,
            32.073252
          ],
          [
            34.790779,
            32.073272
          ],
          [
            34.790873,
            32.073289
          ],
          [
            34.790961,
            32.073285
          ],
          [
            34.790997,
            32.073284
          ],
          [
            34.79114,
            32.073285
          ],
          [
            34.791331,
            32.073279
          ],
          [
            34.791484,
            32.073268
          ],
          [
            34.791614,
            32.073255
          ],
          [
            34.791726,
            32.073237
          ],
          [
            34.791853,
            32.073206
          ],
          [
            34.79194,
            32.073181
          ],
          [
            34.792164,
            32.073121
          ],
          [
            34.792592,
            32.072978
          ],
          [
            34.792656,
            32.072957
          ],
          [
            34.79288,
            32.072883
          ],
          [
            34.793557,
            32.072659
          ],
          [
            34.793958,
            32.072541
          ],
          [
            34.79416,
            32.072478
          ],
          [
            34.794526,
            32.072369
          ],
          [
            34.794635,
            32.072341
          ],
          [
            34.795401,
            32.072124
          ],
          [
            34.796244,
            32.071851
          ],
          [
            34.796997,
            32.071631
          ],
          [
            34.797318,
            32.071521
          ],
          [
            34.797755,
            32.071384
          ],
          [
            34.798901,
            32.071037
          ],
          [
            34.7994,
            32.070872
          ],
          [
            34.799709,
            32.070763
          ],
          [
            34.799781,
            32.070739
          ],
          [
            34.799861,
            32.07072
          ],
          [
            34.800199,
            32.070629
          ],
          [
            34.800639,
            32.070477
          ],
          [
            34.801157,
            32.070321
          ],
          [
            34.801586,
            32.0702
          ],
          [
            34.801834,
            32.070107
          ],
          [
            34.801972,
            32.070048
          ],
          [
            34.802045,
            32.070001
          ],
          [
            34.802072,
            32.069983
          ],
          [
            34.802163,
            32.069913
          ],
          [
            34.802214,
            32.069848
          ],
          [
            34.802291,
            32.069753
          ],
          [
            34.802346,
            32.069663
          ],
          [
            34.802375,
            32.069607
          ],
          [
            34.802392,
            32.069562
          ],
          [
            34.802412,
            32.069494
          ],
          [
            34.802434,
            32.069388
          ],
          [
            34.802445,
            32.069269
          ],
          [
            34.802487,
            32.068856
          ],
          [
            34.802531,
            32.06842
          ],
          [
            34.802571,
            32.068009
          ],
          [
            34.802611,
            32.067579
          ],
          [
            34.802647,
            32.067163
          ],
          [
            34.802692,
            32.0667
          ],
          [
            34.802718,
            32.066396
          ],
          [
            34.802743,
            32.066077
          ],
          [
            34.802743,
            32.066044
          ],
          [
            34.802744,
            32.065998
          ],
          [
            34.802753,
            32.065839
          ],
          [
            34.802835,
            32.065196
          ],
          [
            34.802926,
            32.064813
          ],
          [
            34.803209,
            32.063963
          ],
          [
            34.803377,
            32.06361
          ],
          [
            34.803537,
            32.063319
          ],
          [
            34.803585,
            32.063245
          ],
          [
            34.804093,
            32.062458
          ],
          [
            34.804824,
            32.061518
          ],
          [
            34.805008,
            32.061327
          ],
          [
            34.805107,
            32.061234
          ],
          [
            34.805323,
            32.06103
          ],
          [
            34.805691,
            32.060712
          ],
          [
            34.806017,
            32.06049
          ],
          [
            34.806715,
            32.060038
          ],
          [
            34.807503,
            32.059655
          ],
          [
            34.807707,
            32.059556
          ],
          [
            34.807929,
            32.059476
          ],
          [
            34.808345,
            32.059327
          ],
          [
            34.809038,
            32.059133
          ],
          [
            34.81011,
            32.058871
          ],
          [
            34.810567,
            32.058791
          ],
          [
            34.810942,
            32.058723
          ],
          [
            34.811422,
            32.058648
          ],
          [
            34.811797,
            32.058568
          ],
          [
            34.812349,
            32.058477
          ],
          [
            34.813005,
            32.058395
          ],
          [
            34.813982,
            32.058351
          ],
          [
            34.814479,
            32.058341
          ],
          [
            34.815947,
            32.058461
          ],
          [
            34.816381,
            32.058532
          ],
          [
            34.816751,
            32.058625
          ],
          [
            34.817407,
            32.05877
          ],
          [
            34.818675,
            32.059074
          ],
          [
            34.820074,
            32.059287
          ],
          [
            34.821187,
            32.059403
          ],
          [
            34.821192,
            32.059404
          ],
          [
            34.821298,
            32.059428
          ],
          [
            34.821374,
            32.059445
          ],
          [
            34.822052,
            32.059577
          ],
          [
            34.822376,
            32.059628
          ],
          [
            34.822637,
            32.059656
          ],
          [
            34.822831,
            32.059675
          ],
          [
            34.823032,
            32.059682
          ],
          [
            34.823372,
            32.059676
          ],
          [
            34.823777,
            32.059656
          ],
          [
            34.824247,
            32.059598
          ],
          [
            34.82453,
            32.059568
          ],
          [
            34.824804,
            32.059517
          ],
          [
            34.825139,
            32.05944
          ],
          [
            34.82549,
            32.059343
          ],
          [
            34.825534,
            32.059331
          ],
          [
            34.827534,
            32.058711
          ],
          [
            34.827942,
            32.058601
          ],
          [
            34.828029,
            32.058573
          ],
          [
            34.828331,
            32.058476
          ],
          [
            34.830202,
            32.057971
          ],
          [
            34.830754,
            32.057809
          ],
          [
            34.831891,
            32.057485
          ],
          [
            34.8325,
            32.057303
          ],
          [
            34.832721,
            32.057225
          ],
          [
            34.832895,
            32.057142
          ],
          [
            34.832993,
            32.057089
          ],
          [
            34.833067,
            32.05705
          ],
          [
            34.833207,
            32.056956
          ],
          [
            34.833356,
            32.056836
          ],
          [
            34.833528,
            32.056663
          ],
          [
            34.83362,
            32.056541
          ],
          [
            34.83362,
            32.05654
          ],
          [
            34.83398,
            32.056081
          ],
          [
            34.833901,
            32.056027
          ],
          [
            34.833833,
            32.055938
          ],
          [
            34.833777,
            32.055825
          ],
          [
            34.83355,
            32.055324
          ],
          [
            34.833316,
            32.054769
          ],
          [
            34.833329,
            32.05463
          ],
          [
            34.833373,
            32.054576
          ],
          [
            34.83343,
            32.054539
          ],
          [
            34.833465,
            32.054533
          ],
          [
            34.833571,
            32.054504
          ],
          [
            34.833634,
            32.054493
          ],
          [
            34.833753,
            32.05459
          ],
          [
            34.833834,
            32.054719
          ],
          [
            34.833897,
            32.054842
          ],
          [
            34.83395124369327,
            32.054950810265666
          ]
        ]
      }
    },
    {
      "type": "Feature",
      "properties": {
        "type": "original_route_stop",
        "stop_code": "21031",
        "stop_name": "דרך השלום/דרך יצחק רבין",
        "marker-color": "#2ca02c",
        "marker-symbol": "bus",
        "marker-size": "medium"
      },
      "geometry": {
        "type": "Point",
        "coordinates": [
          34.802729,
          32.065604
        ]
      }
    },
    {
      "type": "Feature",
      "properties": {
        "type": "original_route_stop",
        "stop_code": "21134",
        "stop_name": "דרך השלום/דרך הטייסים",
        "marker-color": "#2ca02c",
        "marker-symbol": "bus",
        "marker-size": "medium"
      },
      "geometry": {
        "type": "Point",
        "coordinates": [
          34.804298,
          32.062113
        ]
      }
    },
    {
      "type": "Feature",
      "properties": {
        "type": "original_route_stop",
        "stop_code": "21033",
        "stop_name": "דרך השלום/המאבק",
        "marker-color": "#2ca02c",
        "marker-symbol": "bus",
        "marker-size": "medium"
      },
      "geometry": {
        "type": "Point",
        "coordinates": [
          34.809636,
          32.05894
        ]
      }
    },
    {
      "type": "Feature",
      "properties": {
        "type": "original_route_stop",
        "stop_code": "21004",
        "stop_name": "אלוף שדה/כורזין",
        "marker-color": "#2ca02c",
        "marker-symbol": "bus",
        "marker-size": "medium"
      },
      "geometry": {
        "type": "Point",
        "coordinates": [
          34.817616,
          32.058774
        ]
      }
    },
    {
      "type": "Feature",
      "properties": {
        "type": "original_route_stop",
        "stop_code": "21002",
        "stop_name": "אלוף שדה/דרך יצחק רבין",
        "marker-color": "#2ca02c",
        "marker-symbol": "bus",
        "marker-size": "medium"
      },
      "geometry": {
        "type": "Point",
        "coordinates": [
          34.822176,
          32.059551
        ]
      }
    },
    {
      "type": "Feature",
      "properties": {
        "type": "original_route_stop",
        "stop_code": "21041",
        "stop_name": "אלוף שדה/הירדן",
        "marker-color": "#2ca02c",
        "marker-symbol": "bus",
        "marker-size": "medium"
      },
      "geometry": {
        "type": "Point",
        "coordinates": [
          34.828604,
          32.058355
        ]
      }
    },
    {
      "type": "Feature",
      "properties": {
        "type": "original_route_stop",
        "stop_code": "21109",
        "stop_name": "מסוף אלוף שדה",
        "marker-color": "#2ca02c",
        "marker-symbol": "bus",
        "marker-size": "medium"
      },
      "geometry": {
        "type": "Point",
        "coordinates": [
          34.833997,
          32.054928
        ]
      }
    },
    {
      "type": "Feature",
      "properties": {
        "type": "cancelled_stop",
        "stop_code": "21023",
        "stop_name": "ת. רכבת השלום",
        "marker-color": "#ff0000",
        "marker-symbol": "bus",
        "marker-size": "medium"
      },
      "geometry": {
        "type": "Point",
        "coordinates": [
          34.79339,
          32.072666
        ]
      }
    },
    {
      "type": "Feature",
      "properties": {
        "type": "cancelled_stop",
        "stop_code": "21028",
        "stop_name": "דרך השלום/יגאל אלון",
        "marker-color": "#ff0000",
        "marker-symbol": "bus",
        "marker-size": "medium"
      },
      "geometry": {
        "type": "Point",
        "coordinates": [
          34.795651,
          32.071995
        ]
      }
    },
    {
      "type": "Feature",
      "properties": {
        "type": "cancelled_stop",
        "stop_code": "21119",
        "stop_name": "דרך השלום/שדרות ההשכלה",
        "marker-color": "#ff0000",
        "marker-symbol": "bus",
        "marker-size": "medium"
      },
      "geometry": {
        "type": "Point",
        "coordinates": [
          34.797494,
          32.071418
        ]
      }
    },
    {
      "type": "Feature",
      "properties": {
        "type": "new_stop",
        "stop_code": "23014",
        "stop_name": "קניון עזריאלי/דרך מנחם בגין",
        "marker-color": "#1f9ed6",
        "marker-symbol": "bus",
        "marker-size": "medium"
      },
      "geometry": {
        "type": "Point",
        "coordinates": [
          34.791116,
          32.074453
        ]
      }
    },
    {
      "type": "Feature",
      "properties": {
        "type": "new_stop",
        "stop_code": "20770",
        "stop_name": "נחלת יצחק/יגאל אלון",
        "marker-color": "#1f9ed6",
        "marker-symbol": "bus",
        "marker-size": "medium"
      },
      "geometry": {
        "type": "Point",
        "coordinates": [
          34.796167,
          32.075127
        ]
      }
    },
    {
      "type": "Feature",
      "properties": {
        "type": "new_stop",
        "stop_code": "25761",
        "stop_name": "מגדלי תל אביב/נחלת יצחק",
        "marker-color": "#1f9ed6",
        "marker-symbol": "bus",
        "marker-size": "medium"
      },
      "geometry": {
        "type": "Point",
        "coordinates": [
          34.798057,
          32.074579
        ]
      }
    },
    {
      "type": "Feature",
      "properties": {
        "type": "new_stop",
        "stop_code": "26099",
        "stop_name": "נחלת יצחק/עליית הנוער",
        "marker-color": "#1f9ed6",
        "marker-symbol": "bus",
        "marker-size": "medium"
      },
      "geometry": {
        "type": "Point",
        "coordinates": [
          34.800651,
          32.07381
        ]
      }
    },
    {
      "type": "Feature",
      "properties": {
        "type": "reported_block_stop",
        "stop_code": "21023",
        "stop_name": "ת. רכבת השלום",
        "marker-color": "#ff8800",
        "marker-symbol": "bus",
        "marker-size": "medium"
      },
      "geometry": {
        "type": "Point",
        "coordinates": [
          34.79339,
          32.072666
        ]
      }
    },
    {
      "type": "Feature",
      "properties": {
        "type": "reported_block_stop",
        "stop_code": "21028",
        "stop_name": "דרך השלום/יגאל אלון",
        "marker-color": "#ff8800",
        "marker-symbol": "bus",
        "marker-size": "medium"
      },
      "geometry": {
        "type": "Point",
        "coordinates": [
          34.795651,
          32.071995
        ]
      }
    },
    {
      "type": "Feature",
      "properties": {
        "type": "deviate_from_stop",
        "stop_code": "20727",
        "stop_name": "ת.רק''ל יהודית/דרך מנחם בגין",
        "marker-color": "#8000ff",
        "marker-symbol": "bus",
        "marker-size": "medium"
      },
      "geometry": {
        "type": "Point",
        "coordinates": [
          34.788125,
          32.069862
        ]
      }
    },
    {
      "type": "Feature",
      "properties": {
        "type": "deviate_to_stop",
        "stop_code": "26089",
        "stop_name": "דרך השלום/חביבה רייק",
        "marker-color": "#8000ff",
        "marker-symbol": "bus",
        "marker-size": "medium"
      },
      "geometry": {
        "type": "Point",
        "coordinates": [
          34.802079,
          32.069918
        ]
      }
    }
  ]
}