{
  "type": "FeatureCollection",
  "features": [
    {
      "type": "Feature",
      "properties": {
        "type": "deviation_path_edge",
        "from_stop_code": "36215",
        "to_stop_code": "36222",
        "stroke": "#00bcd4",
        "stroke-width": 3,
        "stroke-opacity": 0.95
      },
      "geometry": {
        "type": "LineString",
        "coordinates": [
          [
            34.74523220164915,
            32.02441713918401
          ],
          [
            34.74519,
            32.025196
          ],
          [
            34.745178,
            32.025429
          ],
          [
            34.745154,
            32.025733
          ],
          [
            34.745144,
            32.026418
          ],
          [
            34.745219,
            32.026555
          ],
          [
            34.745296,
            32.026633
          ],
          [
            34.745355,
            32.026675
          ],
          [
            34.745558,
            32.02673
          ],
          [
            34.745804,
            32.026776
          ],
          [
            34.745826435903226,
            32.02677932270849
          ]
        ]
      }
    },
    {
      "type": "Feature",
      "properties": {
        "type": "deviation_path_edge",
        "from_stop_code": "36222",
        "to_stop_code": "36227",
        "stroke": "#00bcd4",
        "stroke-width": 3,
        "stroke-opacity": 0.95
      },
      "geometry": {
        "type": "LineString",
        "coordinates": [
          [
            34.745826435903226,
            32.02677932270849
          ],
          [
            34.74654,
            32.026885
          ],
          [
            34.746677,
            32.026908
          ],
          [
            34.747674,
            32.027074
          ],
          [
            34.747951,
            32.027136
          ],
          [
            34.748274,
            32.027173
          ],
          [
            34.748348,
            32.027162
          ],
          [
            34.748429,
            32.027155
          ],
          [
            34.748447,
            32.027157
          ],
          [
            34.748498,
            32.027164
          ],
          [
            34.74855,
            32.027182
          ],
          [
            34.748599,
            32.02722
          ],
          [
            34.748681,
            32.0274
          ],
          [
            34.748759,
            32.027677
          ],
          [
            34.74894064579033,
            32.02794112780736
          ]
        ]
      }
    },
    {
      "type": "Feature",
      "properties": {
        "type": "deviation_path_edge",
        "from_stop_code": "36227",
        "to_stop_code": "36230",
        "stroke": "#00bcd4",
        "stroke-width": 3,
        "stroke-opacity": 0.95
      },
      "geometry": {
        "type": "LineString",
        "coordinates": [
          [
            34.74894064579033,
            32.02794112780736
          ],
          [
            34.749347,
            32.028532
          ],
          [
            34.749427,
            32.028651
          ],
          [
            34.749922,
            32.029274
          ],
          [
            34.749943,
            32.029307
          ],
          [
            34.750071,
            32.029461
          ],
          [
            34.750283,
            32.029707
          ],
          [
            34.750313,
            32.029741
          ],
          [
            34.75045961595812,
            32.02992703837586
          ]
        ]
      }
    },
    {
      "type": "Feature",
      "properties": {
        "type": "deviation_path_edge",
        "from_stop_code": "36230",
        "to_stop_code": "25206",
        "stroke": "#00bcd4",
        "stroke-width": 3,
        "stroke-opacity": 0.95
      },
      "geometry": {
        "type": "LineString",
        "coordinates": [
          [
            34.75045961595812,
            32.02992703837586
          ],
          [
            34.750644,
            32.030161
          ],
          [
            34.75088,
            32.030496
          ],
          [
            34.750926,
            32.030576
          ],
          [
            34.750972,
            32.030655
          ],
          [
            34.751025,
            32.030762
          ],
          [
            34.751151,
            32.031053
          ],
          [
            34.751243,
            32.0313
          ],
          [
            34.751346,
            32.031634
          ],
          [
            34.751384,
            32.031852
          ],
          [
            34.751415,
            32.032034
          ],
          [
            34.751536383256294,
            32.032597126119384
          ]
        ]
      }
    },
    {
      "type": "Feature",
      "properties": {
        "type": "deviation_path_edge",
        "from_stop_code": "25206",
        "to_stop_code": "20464",
        "stroke": "#00bcd4",
        "stroke-width": 3,
        "stroke-opacity": 0.95
      },
      "geometry": {
        "type": "LineString",
        "coordinates": [
          [
            34.751536383256294,
            32.032597126119384
          ],
          [
            34.751573,
            32.032767
          ],
          [
            34.751733,
            32.033594
          ],
          [
            34.751839,
            32.033981
          ],
          [
            34.751634,
            32.034065
          ],
          [
            34.75113152989291,
            32.03419600705762
          ]
        ]
      }
    },
    {
      "type": "Feature",
      "properties": {
        "type": "deviation_path_edge",
        "from_stop_code": "20464",
        "to_stop_code": "25203",
        "stroke": "#00bcd4",
        "stroke-width": 3,
        "stroke-opacity": 0.95
      },
      "geometry": {
        "type": "LineString",
        "coordinates": [
          [
            34.75113152989291,
            32.03419600705762
          ],
          [
            34.751028,
            32.034223
          ],
          [
            34.750188,
            32.034472
          ],
          [
            34.749945,
            32.034465
          ],
          [
            34.749835,
            32.034455
          ],
          [
            34.749731,
            32.034438
          ],
          [
            34.74939,
            32.034369
          ],
          [
            34.749384,
            32.034378
          ],
          [
            34.749378,
            32.034386
          ],
          [
            34.749366,
            32.034396
          ],
          [
            34.749357,
            32.034402
          ],
          [
            34.749347,
            32.034406
          ],
          [
            34.749336,
            32.03441
          ],
          [
            34.74932,
            32.034413
          ],
          [
            34.749309,
            32.034414
          ],
          [
            34.749297,
            32.034414
          ],
          [
            34.749286,
            32.034412
          ],
          [
            34.74927,
            32.034407
          ],
          [
            34.74926,
            32.034403
          ],
          [
            34.749251,
            32.034397
          ],
          [
            34.749243,
            32.034391
          ],
          [
            34.749236,
            32.034384
          ],
          [
            34.749227,
            32.034372
          ],
          [
            34.749169,
            32.034389
          ],
          [
            34.748775,
            32.034372
          ],
          [
            34.748695,
            32.03445
          ],
          [
            34.748644,
            32.034565
          ],
          [
            34.748579,
            32.034771
          ],
          [
            34.748437,
            32.035035
          ],
          [
            34.748326,
            32.035166
          ],
          [
            34.748059,
            32.035421
          ],
          [
            34.748328,
            32.035679
          ],
          [
            34.748331,
            32.035682
          ],
          [
            34.74845225467166,
            32.03580285906099
          ]
        ]
      }
    },
    {
      "type": "Feature",
      "properties": {
        "type": "original_route_shape",
        "shape_id": "165046",
        "stroke": "#1f2a7a",
        "stroke-width": 3,
        "stroke-opacity": 0.85
      },
      "geometry": {
        "type": "LineString",
        "coordinates": [
          [
            34.75208653142037,
            32.00248334748924
          ],
          [
            34.752004,
            32.002499
          ],
          [
            34.752043,
            32.002676
          ],
          [
            34.753112,
            32.002469
          ],
          [
            34.753214,
            32.002452
          ],
          [
            34.75323,
            32.002448
          ],
          [
            34.753259,
            32.002559
          ],
          [
            34.753326,
            32.002875
          ],
          [
            34.753358,
            32.002974
          ],
          [
            34.753688,
            32.004201
          ],
          [
            34.753704,
            32.004205
          ],
          [
            34.753722,
            32.004214
          ],
          [
            34.753738,
            32.004224
          ],
          [
            34.753752,
            32.004238
          ],
          [
            34.753762,
            32.004253
          ],
          [
            34.753767,
            32.004264
          ],
          [
            34.75377,
            32.004274
          ],
          [
            34.753771,
            32.004281
          ],
          [
            34.753772,
            32.004292
          ],
          [
            34.75377,
            32.00431
          ],
          [
            34.753764,
            32.004326
          ],
          [
            34.75376,
            32.004334
          ],
          [
            34.7541,
            32.005618
          ],
          [
            34.754173,
            32.005926
          ],
          [
            34.754568,
            32.007286
          ],
          [
            34.75496,
            32.008709
          ],
          [
            34.755105,
            32.009243
          ],
          [
            34.755117,
            32.009281
          ],
          [
            34.755194,
            32.0094
          ],
          [
            34.7552,
            32.009402
          ],
          [
            34.75521,
            32.009409
          ],
          [
            34.755219,
            32.009416
          ],
          [
            34.755231,
            32.009428
          ],
          [
            34.755239,
            32.009443
          ],
          [
            34.755243,
            32.009453
          ],
          [
            34.755245,
            32.009462
          ],
          [
            34.755246,
            32.009474
          ],
          [
            34.755244,
            32.009489
          ],
          [
            34.755239,
            32.009504
          ],
          [
            34.755231,
            32.009518
          ],
          [
            34.755227,
            32.009523
          ],
          [
            34.755214,
            32.009535
          ],
          [
            34.755199,
            32.009545
          ],
          [
            34.755182,
            32.009552
          ],
          [
            34.755164,
            32.009556
          ],
          [
            34.755151,
            32.009558
          ],
          [
            34.755138,
            32.009558
          ],
          [
            34.75512,
            32.009556
          ],
          [
            34.755104,
            32.009551
          ],
          [
            34.754508,
            32.009946
          ],
          [
            34.752886,
            32.010899
          ],
          [
            34.752991,
            32.011084
          ],
          [
            34.753,
            32.011099
          ],
          [
            34.753455,
            32.01201
          ],
          [
            34.754015,
            32.013108
          ],
          [
            34.754304,
            32.013604
          ],
          [
            34.754453,
            32.013978
          ],
          [
            34.754576,
            32.014257
          ],
          [
            34.754584,
            32.014256
          ],
          [
            34.754596,
            32.014255
          ],
          [
            34.754614,
            32.014256
          ],
          [
            34.754632,
            32.014259
          ],
          [
            34.754643,
            32.014263
          ],
          [
            34.754653,
            32.014268
          ],
          [
            34.754667,
            32.014278
          ],
          [
            34.754676,
            32.014285
          ],
          [
            34.754683,
            32.014294
          ],
          [
            34.754691,
            32.014308
          ],
          [
            34.754694,
            32.014317
          ],
          [
            34.754696,
            32.014324
          ],
          [
            34.754697,
            32.014338
          ],
          [
            34.754695,
            32.014353
          ],
          [
            34.75469,
            32.014368
          ],
          [
            34.754682,
            32.014382
          ],
          [
            34.754671,
            32.014394
          ],
          [
            34.754658,
            32.014404
          ],
          [
            34.754642,
            32.014412
          ],
          [
            34.754623,
            32.014418
          ],
          [
            34.754616,
            32.014552
          ],
          [
            34.754611,
            32.014588
          ],
          [
            34.754633,
            32.015142
          ],
          [
            34.754611,
            32.015487
          ],
          [
            34.75456,
            32.015601
          ],
          [
            34.75451,
            32.015593
          ],
          [
            34.754195,
            32.01553
          ],
          [
            34.753643,
            32.015449
          ],
          [
            34.753111,
            32.015332
          ],
          [
            34.752998,
            32.015292
          ],
          [
            34.752866,
            32.015235
          ],
          [
            34.752707,
            32.015268
          ],
          [
            34.752231,
            32.015439
          ],
          [
            34.751784,
            32.015659
          ],
          [
            34.751547,
            32.015737
          ],
          [
            34.75049,
            32.01607
          ],
          [
            34.7501,
            32.01617
          ],
          [
            34.749963,
            32.016198
          ],
          [
            34.749506,
            32.016319
          ],
          [
            34.749245,
            32.01636
          ],
          [
            34.749095,
            32.016384
          ],
          [
            34.748736,
            32.016424
          ],
          [
            34.748109,
            32.016474
          ],
          [
            34.747603,
            32.016521
          ],
          [
            34.747123,
            32.016605
          ],
          [
            34.747092,
            32.016611
          ],
          [
            34.746627,
            32.016732
          ],
          [
            34.746071,
            32.016915
          ],
          [
            34.745372,
            32.017164
          ],
          [
            34.745502,
            32.017382
          ],
          [
            34.745593,
            32.017599
          ],
          [
            34.745693,
            32.017903
          ],
          [
            34.745676,
            32.018019
          ],
          [
            34.74569,
            32.018157
          ],
          [
            34.745691,
            32.018165
          ],
          [
            34.745692,
            32.018579
          ],
          [
            34.745675,
            32.018744
          ],
          [
            34.745648,
            32.018827
          ],
          [
            34.74561,
            32.018979
          ],
          [
            34.745565,
            32.019285
          ],
          [
            34.745438,
            32.021187
          ],
          [
            34.74543,
            32.021333
          ],
          [
            34.745356,
            32.022448
          ],
          [
            34.745348,
            32.022574
          ],
          [
            34.74534,
            32.022685
          ],
          [
            34.745269,
            32.023738
          ],
          [
            34.74519,
            32.025196
          ],
          [
            34.745178,
            32.025429
          ],
          [
            34.745154,
            32.025733
          ],
          [
            34.745144,
            32.026412
          ],
          [
            34.745144,
            32.026418
          ],
          [
            34.745157,
            32.026612
          ],
          [
            34.745169,
            32.026708
          ],
          [
            34.745213,
            32.0268
          ],
          [
            34.745267,
            32.026858
          ],
          [
            34.745279,
            32.026915
          ],
          [
            34.745295,
            32.027072
          ],
          [
            34.745286,
            32.02734
          ],
          [
            34.74528,
            32.027609
          ],
          [
            34.745259,
            32.028047
          ],
          [
            34.745243,
            32.028106
          ],
          [
            34.745075,
            32.028714
          ],
          [
            34.744777,
            32.029899
          ],
          [
            34.744638,
            32.030245
          ],
          [
            34.744336,
            32.030967
          ],
          [
            34.744252,
            32.031209
          ],
          [
            34.744194,
            32.031379
          ],
          [
            34.744063,
            32.031769
          ],
          [
            34.743993,
            32.031992
          ],
          [
            34.743871,
            32.032354
          ],
          [
            34.74386,
            32.032452
          ],
          [
            34.743903,
            32.032456
          ],
          [
            34.743934,
            32.032468
          ],
          [
            34.743967,
            32.032493
          ],
          [
            34.743987,
            32.032519
          ],
          [
            34.743999,
            32.032548
          ],
          [
            34.744004,
            32.032579
          ],
          [
            34.743999,
            32.032611
          ],
          [
            34.743982,
            32.032648
          ],
          [
            34.74396,
            32.032672
          ],
          [
            34.743925,
            32.032695
          ],
          [
            34.743986,
            32.032793
          ],
          [
            34.744126,
            32.032945
          ],
          [
            34.744135,
            32.032952
          ],
          [
            34.744253,
            32.033041
          ],
          [
            34.744739,
            32.033348
          ],
          [
            34.7449,
            32.033462
          ],
          [
            34.744952,
            32.033489
          ],
          [
            34.745368,
            32.033706
          ],
          [
            34.74569,
            32.033826
          ],
          [
            34.746142,
            32.034047
          ],
          [
            34.746315,
            32.034124
          ],
          [
            34.746334,
            32.034122
          ],
          [
            34.746351,
            32.034124
          ],
          [
            34.746362,
            32.034127
          ],
          [
            34.746373,
            32.034131
          ],
          [
            34.746388,
            32.034138
          ],
          [
            34.746401,
            32.034148
          ],
          [
            34.746412,
            32.03416
          ],
          [
            34.74642,
            32.034174
          ],
          [
            34.746423,
            32.034183
          ],
          [
            34.746425,
            32.03419
          ],
          [
            34.74717,
            32.034699
          ],
          [
            34.747412,
            32.034861
          ],
          [
            34.74768,
            32.035085
          ],
          [
            34.747964,
            32.035337
          ],
          [
            34.748059,
            32.035421
          ],
          [
            34.748331,
            32.035682
          ],
          [
            34.748942,
            32.036291
          ],
          [
            34.749108,
            32.036456
          ],
          [
            34.749254,
            32.0366
          ],
          [
            34.749706,
            32.037046
          ],
          [
            34.749936,
            32.037334
          ],
          [
            34.749975,
            32.037384
          ],
          [
            34.750038,
            32.037479
          ],
          [
            34.750218,
            32.037746
          ],
          [
            34.750366,
            32.03798
          ],
          [
            34.750434,
            32.038099
          ],
          [
            34.750444836565705,
            32.038117897913374
          ]
        ]
      }
    },
    {
      "type": "Feature",
      "properties": {
        "type": "original_route_stop",
        "stop_code": "37113",
        "stop_name": "מסוף בית העלמין/איסוף",
        "marker-color": "#2ca02c",
        "marker-symbol": "bus",
        "marker-size": "medium"
      },
      "geometry": {
        "type": "Point",
        "coordinates": [
          34.752095,
          32.002528
        ]
      }
    },
    {
      "type": "Feature",
      "properties": {
        "type": "original_route_stop",
        "stop_code": "37571",
        "stop_name": "אנה פרנק/הקוממיות",
        "marker-color": "#2ca02c",
        "marker-symbol": "bus",
        "marker-size": "medium"
      },
      "geometry": {
        "type": "Point",
        "coordinates": [
          34.75357,
          32.00356
        ]
      }
    },
    {
      "type": "Feature",
      "properties": {
        "type": "original_route_stop",
        "stop_code": "31457",
        "stop_name": "אנה פרנק/הרב מיימון",
        "marker-color": "#2ca02c",
        "marker-symbol": "bus",
        "marker-size": "medium"
      },
      "geometry": {
        "type": "Point",
        "coordinates": [
          34.754491,
          32.006834
        ]
      }
    },
    {
      "type": "Feature",
      "properties": {
        "type": "original_route_stop",
        "stop_code": "36168",
        "stop_name": "אנה פרנק/כ''ט בנובמבר",
        "marker-color": "#2ca02c",
        "marker-symbol": "bus",
        "marker-size": "medium"
      },
      "geometry": {
        "type": "Point",
        "coordinates": [
          34.754931,
          32.008405
        ]
      }
    },
    {
      "type": "Feature",
      "properties": {
        "type": "original_route_stop",
        "stop_code": "36164",
        "stop_name": "כ''ט בנובמבר/אנה פרנק",
        "marker-color": "#2ca02c",
        "marker-symbol": "bus",
        "marker-size": "medium"
      },
      "geometry": {
        "type": "Point",
        "coordinates": [
          34.75385,
          32.010387
        ]
      }
    },
    {
      "type": "Feature",
      "properties": {
        "type": "original_route_stop",
        "stop_code": "36165",
        "stop_name": "הרב לוי/הדקל",
        "marker-color": "#2ca02c",
        "marker-symbol": "bus",
        "marker-size": "medium"
      },
      "geometry": {
        "type": "Point",
        "coordinates": [
          34.753631,
          32.012241
        ]
      }
    },
    {
      "type": "Feature",
      "properties": {
        "type": "original_route_stop",
        "stop_code": "36167",
        "stop_name": "תיכון שז''ר/הרב לוי",
        "marker-color": "#2ca02c",
        "marker-symbol": "bus",
        "marker-size": "medium"
      },
      "geometry": {
        "type": "Point",
        "coordinates": [
          34.754463,
          32.013863
        ]
      }
    },
    {
      "type": "Feature",
      "properties": {
        "type": "original_route_stop",
        "stop_code": "36238",
        "stop_name": "יוספטל/כצנלסון",
        "marker-color": "#2ca02c",
        "marker-symbol": "bus",
        "marker-size": "medium"
      },
      "geometry": {
        "type": "Point",
        "coordinates": [
          34.754091,
          32.01556
        ]
      }
    },
    {
      "type": "Feature",
      "properties": {
        "type": "original_route_stop",
        "stop_code": "36234",
        "stop_name": "ת.רק''ל יוספטל",
        "marker-color": "#2ca02c",
        "marker-symbol": "bus",
        "marker-size": "medium"
      },
      "geometry": {
        "type": "Point",
        "coordinates": [
          34.751271,
          32.015871
        ]
      }
    },
    {
      "type": "Feature",
      "properties": {
        "type": "original_route_stop",
        "stop_code": "36208",
        "stop_name": "ת.רק''ל בנימין/יוספטל",
        "marker-color": "#2ca02c",
        "marker-symbol": "bus",
        "marker-size": "medium"
      },
      "geometry": {
        "type": "Point",
        "coordinates": [
          34.74747,
          32.01659
        ]
      }
    },
    {
      "type": "Feature",
      "properties": {
        "type": "original_route_stop",
        "stop_code": "33719",
        "stop_name": "בלפור/פרלשטיין",
        "marker-color": "#2ca02c",
        "marker-symbol": "bus",
        "marker-size": "medium"
      },
      "geometry": {
        "type": "Point",
        "coordinates": [
          34.74552,
          32.020751
        ]
      }
    },
    {
      "type": "Feature",
      "properties": {
        "type": "original_route_stop",
        "stop_code": "25205",
        "stop_name": "יפת/הבעש''ט",
        "marker-color": "#2ca02c",
        "marker-symbol": "bus",
        "marker-size": "medium"
      },
      "geometry": {
        "type": "Point",
        "coordinates": [
          34.75049,
          32.038092
        ]
      }
    },
    {
      "type": "Feature",
      "properties": {
        "type": "cancelled_stop",
        "stop_code": "36221",
        "stop_name": "בלפור/רוטשילד",
        "marker-color": "#ff0000",
        "marker-symbol": "bus",
        "marker-size": "medium"
      },
      "geometry": {
        "type": "Point",
        "coordinates": [
          34.745339,
          32.027348
        ]
      }
    },
    {
      "type": "Feature",
      "properties": {
        "type": "cancelled_stop",
        "stop_code": "36233",
        "stop_name": "בלפור/שמחה הולצברג",
        "marker-color": "#ff0000",
        "marker-symbol": "bus",
        "marker-size": "medium"
      },
      "geometry": {
        "type": "Point",
        "coordinates": [
          34.744034,
          32.032033
        ]
      }
    },
    {
      "type": "Feature",
      "properties": {
        "type": "cancelled_stop",
        "stop_code": "25201",
        "stop_name": "יפת/יוטבת",
        "marker-color": "#ff0000",
        "marker-symbol": "bus",
        "marker-size": "medium"
      },
      "geometry": {
        "type": "Point",
        "coordinates": [
          34.745942,
          32.033897
        ]
      }
    },
    {
      "type": "Feature",
      "properties": {
        "type": "new_stop",
        "stop_code": "36222",
        "stop_name": "רוטשילד/בלפור",
        "marker-color": "#1f9ed6",
        "marker-symbol": "bus",
        "marker-size": "medium"
      },
      "geometry": {
        "type": "Point",
        "coordinates": [
          34.745833,
          32.026735
        ]
      }
    },
    {
      "type": "Feature",
      "properties": {
        "type": "new_stop",
        "stop_code": "36227",
        "stop_name": "ת.רק''ל העצמאות",
        "marker-color": "#1f9ed6",
        "marker-symbol": "bus",
        "marker-size": "medium"
      },
      "geometry": {
        "type": "Point",
        "coordinates": [
          34.748983,
          32.027912
        ]
      }
    },
    {
      "type": "Feature",
      "properties": {
        "type": "new_stop",
        "stop_code": "36230",
        "stop_name": "שד' ירושלים/שמחה הולצברג",
        "marker-color": "#1f9ed6",
        "marker-symbol": "bus",
        "marker-size": "medium"
      },
      "geometry": {
        "type": "Point",
        "coordinates": [
          34.750499,
          32.029896
        ]
      }
    },
    {
      "type": "Feature",
      "properties": {
        "type": "new_stop",
        "stop_code": "25206",
        "stop_name": "ת.רק''ל מחרוזת/שד' ירושלים",
        "marker-color": "#1f9ed6",
        "marker-symbol": "bus",
        "marker-size": "medium"
      },
      "geometry": {
        "type": "Point",
        "coordinates": [
          34.751588,
          32.032586
        ]
      }
    },
    {
      "type": "Feature",
      "properties": {
        "type": "new_stop",
        "stop_code": "20464",
        "stop_name": "ת.רק''ל מחרוזת/סהרון",
        "marker-color": "#1f9ed6",
        "marker-symbol": "bus",
        "marker-size": "medium"
      },
      "geometry": {
        "type": "Point",
        "coordinates": [
          34.751143,
          32.03424
        ]
      }
    },
    {
      "type": "Feature",
      "properties": {
        "type": "reported_block_stop",
        "stop_code": "36221",
        "stop_name": "בלפור/רוטשילד",
        "marker-color": "#ff8800",
        "marker-symbol": "bus",
        "marker-size": "medium"
      },
      "geometry": {
        "type": "Point",
        "coordinates": [
          34.745339,
          32.027348
        ]
      }
    },
    {
      "type": "Feature",
      "properties": {
        "type": "reported_block_stop",
        "stop_code": "36233",
        "stop_name": "בלפור/שמחה הולצברג",
        "marker-color": "#ff8800",
        "marker-symbol": "bus",
        "marker-size": "medium"
      },
      "geometry": {
        "type": "Point",
        "coordinates": [
          34.744034,
          32.032033
        ]
      }
    },
    {
      "type": "Feature",
      "properties": {
        "type": "deviate_from_stop",
        "stop_code": "36215",
        "stop_name": "בלפור/הרב קוק",
        "marker-color": "#8000ff",
        "marker-symbol": "bus",
        "marker-size": "medium"
      },
      "geometry": {
        "type": "Point",
        "coordinates": [
          34.745285,
          32.02442
        ]
      }
    },
    {
      "type": "Feature",
      "properties": {
        "type": "deviate_to_stop",
        "stop_code": "25203",
        "stop_name": "יפת/אייזיק חריף",
        "marker-color": "#8000ff",
        "marker-symbol": "bus",
        "marker-size": "medium"
      },
      "geometry": {
        "type": "Point",
        "coordinates": [
          34.748487,
          32.035768
        ]
      }
    }
  ]
}