{
  "type": "FeatureCollection",
  "features": [
    {
      "type": "Feature",
      "properties": {
        "type": "deviation_path_edge",
        "from_stop_code": "26230",
        "to_stop_code": "26373",
        "stroke": "#00bcd4",
        "stroke-width": 3,
        "stroke-opacity": 0.95
      },
      "geometry": {
        "type": "LineString",
        "coordinates": [
          [
            34.82520831302533,
            32.07727184524558
          ],
          [
            34.825213,
            32.077564
          ],
          [
            34.825216,
            32.077597
          ],
          [
            34.825264,
            32.077947
          ],
          [
            34.825348,
            32.078274
          ],
          [
            34.825377,
            32.078443
          ],
          [
            34.825474,
            32.07899
          ],
          [
            34.825496,
            32.079162
          ],
          [
            34.825506,
            32.079335
          ],
          [
            34.825514,
            32.079473
          ],
          [
            34.825506,
            32.07973
          ],
          [
            34.8255180369116,
            32.0799095505981
          ]
        ]
      }
    },
    {
      "type": "Feature",
      "properties": {
        "type": "deviation_path_edge",
        "from_stop_code": "26373",
        "to_stop_code": "26339",
        "stroke": "#00bcd4",
        "stroke-width": 3,
        "stroke-opacity": 0.95
      },
      "geometry": {
        "type": "LineString",
        "coordinates": [
          [
            34.8255180369116,
            32.0799095505981
          ],
          [
            34.825566,
            32.080625
          ],
          [
            34.825579,
            32.081016
          ],
          [
            34.825585,
            32.081396
          ],
          [
            34.825622,
            32.081576
          ],
          [
            34.825622,
            32.081742
          ],
          [
            34.825545,
            32.082047
          ],
          [
            34.825497,
            32.0822
          ],
          [
            34.825476,
            32.082274
          ],
          [
            34.82534,
            32.08253
          ],
          [
            34.825048,
            32.082869
          ],
          [
            34.824939,
            32.082961
          ],
          [
            34.824735,
            32.083102
          ],
          [
            34.824419,
            32.083284
          ],
          [
            34.824168,
            32.083374
          ],
          [
            34.82396704229186,
            32.08342363895579
          ]
        ]
      }
    },
    {
      "type": "Feature",
      "properties": {
        "type": "deviation_path_edge",
        "from_stop_code": "26339",
        "to_stop_code": "21229",
        "stroke": "#00bcd4",
        "stroke-width": 3,
        "stroke-opacity": 0.95
      },
      "geometry": {
        "type": "LineString",
        "coordinates": [
          [
            34.82396704229186,
            32.08342363895579
          ],
          [
            34.823917,
            32.083436
          ],
          [
            34.823639,
            32.083484
          ],
          [
            34.823202,
            32.083532
          ],
          [
            34.822545,
            32.083596
          ],
          [
            34.822475,
            32.083605
          ],
          [
            34.821536,
            32.08373
          ],
          [
            34.821427,
            32.083744
          ],
          [
            34.821364,
            32.083633
          ],
          [
            34.821131,
            32.083199
          ],
          [
            34.82111059067168,
            32.08316283543318
          ]
        ]
      }
    },
    {
      "type": "Feature",
      "properties": {
        "type": "deviation_path_edge",
        "from_stop_code": "21229",
        "to_stop_code": "26333",
        "stroke": "#00bcd4",
        "stroke-width": 3,
        "stroke-opacity": 0.95
      },
      "geometry": {
        "type": "LineString",
        "coordinates": [
          [
            34.82111059067168,
            32.08316283543318
          ],
          [
            34.820596,
            32.082251
          ],
          [
            34.82037,
            32.08175
          ],
          [
            34.819694,
            32.081855
          ],
          [
            34.818977,
            32.081981
          ],
          [
            34.818917,
            32.081713
          ],
          [
            34.818839,
            32.08147
          ],
          [
            34.818728,
            32.081269
          ],
          [
            34.81859,
            32.081002
          ],
          [
            34.818455,
            32.08086
          ],
          [
            34.818402417408564,
            32.080805086160666
          ]
        ]
      }
    },
    {
      "type": "Feature",
      "properties": {
        "type": "original_route_shape",
        "shape_id": "151012",
        "stroke": "#1f2a7a",
        "stroke-width": 3,
        "stroke-opacity": 0.85
      },
      "geometry": {
        "type": "LineString",
        "coordinates": [
          [
            34.839012532560766,
            32.06918916941775
          ],
          [
            34.838905,
            32.06897
          ],
          [
            34.838865,
            32.068889
          ],
          [
            34.838857,
            32.068874
          ],
          [
            34.838696,
            32.068527
          ],
          [
            34.8386,
            32.068367
          ],
          [
            34.83856,
            32.06829
          ],
          [
            34.838443,
            32.068064
          ],
          [
            34.838404,
            32.067991
          ],
          [
            34.838292,
            32.067779
          ],
          [
            34.838263,
            32.067722
          ],
          [
            34.83811,
            32.067422
          ],
          [
            34.838028,
            32.067262
          ],
          [
            34.837868,
            32.0673
          ],
          [
            34.837627,
            32.067384
          ],
          [
            34.837495,
            32.067433
          ],
          [
            34.837387,
            32.067472
          ],
          [
            34.836985,
            32.067624
          ],
          [
            34.836662,
            32.067759
          ],
          [
            34.836543,
            32.067527
          ],
          [
            34.836493,
            32.067441
          ],
          [
            34.836327,
            32.067173
          ],
          [
            34.836299,
            32.067129
          ],
          [
            34.836055,
            32.066905
          ],
          [
            34.835786,
            32.06671
          ],
          [
            34.835512,
            32.066573
          ],
          [
            34.835434,
            32.066534
          ],
          [
            34.835171,
            32.066456
          ],
          [
            34.834795,
            32.066366
          ],
          [
            34.834483,
            32.066311
          ],
          [
            34.834098,
            32.066273
          ],
          [
            34.833742,
            32.066238
          ],
          [
            34.833297,
            32.066191
          ],
          [
            34.833025,
            32.066192
          ],
          [
            34.832946,
            32.066197
          ],
          [
            34.832976,
            32.065983
          ],
          [
            34.833012,
            32.065556
          ],
          [
            34.833017,
            32.065252
          ],
          [
            34.833023,
            32.064953
          ],
          [
            34.833001,
            32.064675
          ],
          [
            34.832994,
            32.064643
          ],
          [
            34.832953,
            32.064439
          ],
          [
            34.832911,
            32.064185
          ],
          [
            34.832838,
            32.063889
          ],
          [
            34.832776,
            32.063571
          ],
          [
            34.832434,
            32.063503
          ],
          [
            34.832394,
            32.063501
          ],
          [
            34.832325,
            32.063493
          ],
          [
            34.831919,
            32.063447
          ],
          [
            34.831788,
            32.063432
          ],
          [
            34.831749,
            32.063431
          ],
          [
            34.831565,
            32.063425
          ],
          [
            34.8314,
            32.063419
          ],
          [
            34.830317,
            32.06344
          ],
          [
            34.829803,
            32.063469
          ],
          [
            34.829672,
            32.063462
          ],
          [
            34.829282,
            32.063461
          ],
          [
            34.829053,
            32.06346
          ],
          [
            34.82848,
            32.063449
          ],
          [
            34.82848,
            32.063518
          ],
          [
            34.828468,
            32.063667
          ],
          [
            34.82843,
            32.063923
          ],
          [
            34.828402,
            32.064296
          ],
          [
            34.82841,
            32.064545
          ],
          [
            34.82843,
            32.064986
          ],
          [
            34.828434,
            32.065062
          ],
          [
            34.828446,
            32.065501
          ],
          [
            34.82848,
            32.06638
          ],
          [
            34.828484,
            32.066819
          ],
          [
            34.82848,
            32.067047
          ],
          [
            34.828486,
            32.06712
          ],
          [
            34.828518,
            32.067535
          ],
          [
            34.828525,
            32.067608
          ],
          [
            34.828567,
            32.068077
          ],
          [
            34.828595,
            32.068306
          ],
          [
            34.828598,
            32.068333
          ],
          [
            34.828609,
            32.068464
          ],
          [
            34.828668,
            32.06915
          ],
          [
            34.828685,
            32.069536
          ],
          [
            34.82873,
            32.070105
          ],
          [
            34.828614,
            32.070106
          ],
          [
            34.827448,
            32.070199
          ],
          [
            34.82686,
            32.070254
          ],
          [
            34.826712,
            32.070257
          ],
          [
            34.82606,
            32.070297
          ],
          [
            34.825442,
            32.070343
          ],
          [
            34.824735,
            32.070365
          ],
          [
            34.824834,
            32.070953
          ],
          [
            34.824878,
            32.071551
          ],
          [
            34.824938,
            32.072062
          ],
          [
            34.824939,
            32.072372
          ],
          [
            34.824918,
            32.0729
          ],
          [
            34.824958,
            32.073426
          ],
          [
            34.82502,
            32.074531
          ],
          [
            34.825023,
            32.074595
          ],
          [
            34.825077,
            32.075113
          ],
          [
            34.825141,
            32.076366
          ],
          [
            34.825174,
            32.07664
          ],
          [
            34.825204,
            32.077003
          ],
          [
            34.825213,
            32.077564
          ],
          [
            34.825216,
            32.077597
          ],
          [
            34.825264,
            32.077947
          ],
          [
            34.825348,
            32.078274
          ],
          [
            34.825377,
            32.078443
          ],
          [
            34.825474,
            32.07899
          ],
          [
            34.825496,
            32.079162
          ],
          [
            34.825404,
            32.07917
          ],
          [
            34.825167,
            32.079181
          ],
          [
            34.824774,
            32.079204
          ],
          [
            34.823629,
            32.079243
          ],
          [
            34.823325,
            32.079255
          ],
          [
            34.821811,
            32.0793
          ],
          [
            34.821768,
            32.079301
          ],
          [
            34.821356,
            32.079316
          ],
          [
            34.820033,
            32.079369
          ],
          [
            34.819772,
            32.079406
          ],
          [
            34.819997,
            32.080148
          ],
          [
            34.82006,
            32.080354
          ],
          [
            34.819946,
            32.080381
          ],
          [
            34.81859,
            32.081002
          ],
          [
            34.818455,
            32.08086
          ],
          [
            34.818252,
            32.080648
          ],
          [
            34.817862,
            32.080397
          ],
          [
            34.817335,
            32.080087
          ],
          [
            34.817002,
            32.07989
          ],
          [
            34.816663,
            32.079703
          ],
          [
            34.816007,
            32.079463
          ],
          [
            34.815888,
            32.079408
          ],
          [
            34.815701,
            32.079324
          ],
          [
            34.814856,
            32.079217
          ],
          [
            34.814636,
            32.079224
          ],
          [
            34.8144,
            32.079248
          ],
          [
            34.814112,
            32.079287
          ],
          [
            34.813778,
            32.079337
          ],
          [
            34.813559,
            32.079427
          ],
          [
            34.813447,
            32.079509
          ],
          [
            34.813171,
            32.079726
          ],
          [
            34.813035,
            32.079849
          ],
          [
            34.812995,
            32.079892
          ],
          [
            34.812458,
            32.080453
          ],
          [
            34.812222,
            32.08068
          ],
          [
            34.811952,
            32.080898
          ],
          [
            34.811883,
            32.080953
          ],
          [
            34.811842,
            32.080976
          ],
          [
            34.811808,
            32.080991
          ],
          [
            34.811764,
            32.081004
          ],
          [
            34.811684,
            32.081013
          ],
          [
            34.811621,
            32.081017
          ],
          [
            34.811547,
            32.081016
          ],
          [
            34.811486,
            32.081015
          ],
          [
            34.811376,
            32.081004
          ],
          [
            34.811011,
            32.080956
          ],
          [
            34.810752,
            32.080932
          ],
          [
            34.810608,
            32.080941
          ],
          [
            34.81052,
            32.080945
          ],
          [
            34.810399,
            32.080968
          ],
          [
            34.810305,
            32.080998
          ],
          [
            34.810197,
            32.08104
          ],
          [
            34.81014,
            32.081071
          ],
          [
            34.810068,
            32.081125
          ],
          [
            34.809992,
            32.081194
          ],
          [
            34.809939,
            32.081258
          ],
          [
            34.809856,
            32.081365
          ],
          [
            34.80979,
            32.081452
          ],
          [
            34.809747,
            32.081497
          ],
          [
            34.809707,
            32.081516
          ],
          [
            34.809711,
            32.081533
          ],
          [
            34.80971,
            32.08155
          ],
          [
            34.809708,
            32.08156
          ],
          [
            34.809704,
            32.081571
          ],
          [
            34.809695,
            32.081585
          ],
          [
            34.809683,
            32.081598
          ],
          [
            34.809674,
            32.081605
          ],
          [
            34.809664,
            32.081612
          ],
          [
            34.809647,
            32.081619
          ],
          [
            34.809635,
            32.081623
          ],
          [
            34.809623,
            32.081625
          ],
          [
            34.809603,
            32.081626
          ],
          [
            34.809584,
            32.081623
          ],
          [
            34.809572,
            32.08162
          ],
          [
            34.80956,
            32.081616
          ],
          [
            34.809544,
            32.081607
          ],
          [
            34.809531,
            32.081595
          ],
          [
            34.809519,
            32.081582
          ],
          [
            34.809511,
            32.081567
          ],
          [
            34.809508,
            32.081557
          ],
          [
            34.809506,
            32.081547
          ],
          [
            34.809483,
            32.081546
          ],
          [
            34.809356,
            32.081522
          ],
          [
            34.809296,
            32.081501
          ],
          [
            34.80923,
            32.08146
          ],
          [
            34.809054,
            32.081285
          ],
          [
            34.809012,
            32.081225
          ],
          [
            34.808805,
            32.081006
          ],
          [
            34.808719,
            32.080952
          ],
          [
            34.808636,
            32.080918
          ],
          [
            34.808558,
            32.080907
          ],
          [
            34.808459,
            32.08091
          ],
          [
            34.808327,
            32.080951
          ],
          [
            34.808228,
            32.081004
          ],
          [
            34.80814,
            32.081076
          ],
          [
            34.808044,
            32.081175
          ],
          [
            34.807988,
            32.081251
          ],
          [
            34.807792,
            32.081347
          ],
          [
            34.807646,
            32.081398
          ],
          [
            34.807441,
            32.081454
          ],
          [
            34.806316,
            32.081689
          ],
          [
            34.806021,
            32.081755
          ],
          [
            34.805684,
            32.081814
          ],
          [
            34.805071,
            32.081979
          ],
          [
            34.804785,
            32.082075
          ],
          [
            34.804324,
            32.082292
          ],
          [
            34.804154,
            32.082367
          ],
          [
            34.804004,
            32.082429
          ],
          [
            34.803688,
            32.082602
          ],
          [
            34.803554,
            32.082673
          ],
          [
            34.803523,
            32.082701
          ],
          [
            34.803513,
            32.082712
          ],
          [
            34.803435,
            32.082907
          ],
          [
            34.803442,
            32.082966
          ],
          [
            34.80326,
            32.082964
          ],
          [
            34.803134,
            32.082961
          ],
          [
            34.80301,
            32.08296
          ],
          [
            34.802863,
            32.082955
          ],
          [
            34.80256,
            32.082957
          ],
          [
            34.801709,
            32.082967
          ],
          [
            34.801401,
            32.082944
          ],
          [
            34.801136,
            32.082903
          ],
          [
            34.801082,
            32.082888
          ],
          [
            34.800902,
            32.082836
          ],
          [
            34.800855,
            32.082817
          ],
          [
            34.800783,
            32.082788
          ],
          [
            34.800385,
            32.082629
          ],
          [
            34.800143,
            32.08253
          ],
          [
            34.799929,
            32.082433
          ],
          [
            34.799743,
            32.08235
          ],
          [
            34.799165,
            32.082118
          ],
          [
            34.798855,
            32.081989
          ],
          [
            34.798277,
            32.081713
          ],
          [
            34.797551,
            32.081324
          ],
          [
            34.797357,
            32.081221
          ],
          [
            34.797289,
            32.081178
          ],
          [
            34.797119,
            32.081126
          ],
          [
            34.797059,
            32.081115
          ],
          [
            34.79701,
            32.081118
          ],
          [
            34.796704,
            32.081251
          ],
          [
            34.796463,
            32.081484
          ],
          [
            34.796393,
            32.081552
          ],
          [
            34.796335,
            32.081608
          ],
          [
            34.796093,
            32.081901
          ],
          [
            34.796041,
            32.081964
          ],
          [
            34.795997,
            32.082001
          ],
          [
            34.795867,
            32.08212
          ],
          [
            34.795692,
            32.082254
          ],
          [
            34.79554,
            32.082377
          ],
          [
            34.795391,
            32.082454
          ],
          [
            34.795206,
            32.082533
          ],
          [
            34.795064,
            32.082577
          ],
          [
            34.794942,
            32.082608
          ],
          [
            34.794686,
            32.082658
          ],
          [
            34.794544,
            32.082683
          ],
          [
            34.794211,
            32.082737
          ],
          [
            34.792915078597886,
            32.08293976321258
          ]
        ]
      }
    },
    {
      "type": "Feature",
      "properties": {
        "type": "original_route_stop",
        "stop_code": "26472",
        "stop_name": "מסוף עמידר",
        "marker-color": "#2ca02c",
        "marker-symbol": "bus",
        "marker-size": "medium"
      },
      "geometry": {
        "type": "Point",
        "coordinates": [
          34.838966,
          32.069212
        ]
      }
    },
    {
      "type": "Feature",
      "properties": {
        "type": "original_route_stop",
        "stop_code": "26466",
        "stop_name": "התפוצות/קוממיות",
        "marker-color": "#2ca02c",
        "marker-symbol": "bus",
        "marker-size": "medium"
      },
      "geometry": {
        "type": "Point",
        "coordinates": [
          34.838128,
          32.067572
        ]
      }
    },
    {
      "type": "Feature",
      "properties": {
        "type": "original_route_stop",
        "stop_code": "26465",
        "stop_name": "אצ''ל/המחתרת",
        "marker-color": "#2ca02c",
        "marker-symbol": "bus",
        "marker-size": "medium"
      },
      "geometry": {
        "type": "Point",
        "coordinates": [
          34.836374,
          32.067346
        ]
      }
    },
    {
      "type": "Feature",
      "properties": {
        "type": "original_route_stop",
        "stop_code": "26464",
        "stop_name": "אצ''ל/בן אליעזר",
        "marker-color": "#2ca02c",
        "marker-symbol": "bus",
        "marker-size": "medium"
      },
      "geometry": {
        "type": "Point",
        "coordinates": [
          34.83368,
          32.066277
        ]
      }
    },
    {
      "type": "Feature",
      "properties": {
        "type": "original_route_stop",
        "stop_code": "26462",
        "stop_name": "בן אליעזר/אצ''ל",
        "marker-color": "#2ca02c",
        "marker-symbol": "bus",
        "marker-size": "medium"
      },
      "geometry": {
        "type": "Point",
        "coordinates": [
          34.832938,
          32.065799
        ]
      }
    },
    {
      "type": "Feature",
      "properties": {
        "type": "original_route_stop",
        "stop_code": "26182",
        "stop_name": "פנחס רוטנברג/בן אליעזר",
        "marker-color": "#2ca02c",
        "marker-symbol": "bus",
        "marker-size": "medium"
      },
      "geometry": {
        "type": "Point",
        "coordinates": [
          34.832247,
          32.06353
        ]
      }
    },
    {
      "type": "Feature",
      "properties": {
        "type": "original_route_stop",
        "stop_code": "21321",
        "stop_name": "הירדן/ פנחס",
        "marker-color": "#2ca02c",
        "marker-symbol": "bus",
        "marker-size": "medium"
      },
      "geometry": {
        "type": "Point",
        "coordinates": [
          34.828494,
          32.063857
        ]
      }
    },
    {
      "type": "Feature",
      "properties": {
        "type": "original_route_stop",
        "stop_code": "21242",
        "stop_name": "הירדן/אצ''ל",
        "marker-color": "#2ca02c",
        "marker-symbol": "bus",
        "marker-size": "medium"
      },
      "geometry": {
        "type": "Point",
        "coordinates": [
          34.828521,
          32.066062
        ]
      }
    },
    {
      "type": "Feature",
      "properties": {
        "type": "original_route_stop",
        "stop_code": "21568",
        "stop_name": "נגבה/ הירדן",
        "marker-color": "#2ca02c",
        "marker-symbol": "bus",
        "marker-size": "medium"
      },
      "geometry": {
        "type": "Point",
        "coordinates": [
          34.827992,
          32.070201
        ]
      }
    },
    {
      "type": "Feature",
      "properties": {
        "type": "original_route_stop",
        "stop_code": "21566",
        "stop_name": "נגבה/ הרא''ה",
        "marker-color": "#2ca02c",
        "marker-symbol": "bus",
        "marker-size": "medium"
      },
      "geometry": {
        "type": "Point",
        "coordinates": [
          34.825556,
          32.07038
        ]
      }
    },
    {
      "type": "Feature",
      "properties": {
        "type": "original_route_stop",
        "stop_code": "21715",
        "stop_name": "הרא''ה/ שד. ירושלים",
        "marker-color": "#2ca02c",
        "marker-symbol": "bus",
        "marker-size": "medium"
      },
      "geometry": {
        "type": "Point",
        "coordinates": [
          34.825028,
          32.073724
        ]
      }
    },
    {
      "type": "Feature",
      "properties": {
        "type": "original_route_stop",
        "stop_code": "26138",
        "stop_name": "ארלוזורוב/ביאליק",
        "marker-color": "#2ca02c",
        "marker-symbol": "bus",
        "marker-size": "medium"
      },
      "geometry": {
        "type": "Point",
        "coordinates": [
          34.814189,
          32.079323
        ]
      }
    },
    {
      "type": "Feature",
      "properties": {
        "type": "original_route_stop",
        "stop_code": "26272",
        "stop_name": "גן הקופים/ארלוזורוב",
        "marker-color": "#2ca02c",
        "marker-symbol": "bus",
        "marker-size": "medium"
      },
      "geometry": {
        "type": "Point",
        "coordinates": [
          34.812015,
          32.080909
        ]
      }
    },
    {
      "type": "Feature",
      "properties": {
        "type": "original_route_stop",
        "stop_code": "26260",
        "stop_name": "ארלוזורוב/החשמונאים",
        "marker-color": "#2ca02c",
        "marker-symbol": "bus",
        "marker-size": "medium"
      },
      "geometry": {
        "type": "Point",
        "coordinates": [
          34.809175,
          32.081474
        ]
      }
    },
    {
      "type": "Feature",
      "properties": {
        "type": "original_route_stop",
        "stop_code": "26250",
        "stop_name": "צומת עלית/ארלוזורוב",
        "marker-color": "#2ca02c",
        "marker-symbol": "bus",
        "marker-size": "medium"
      },
      "geometry": {
        "type": "Point",
        "coordinates": [
          34.805378,
          32.081944
        ]
      }
    },
    {
      "type": "Feature",
      "properties": {
        "type": "original_route_stop",
        "stop_code": "20801",
        "stop_name": "ת.רק''ל אבא הלל/דרך ז'בוטינסקי",
        "marker-color": "#2ca02c",
        "marker-symbol": "bus",
        "marker-size": "medium"
      },
      "geometry": {
        "type": "Point",
        "coordinates": [
          34.802159,
          32.083007
        ]
      }
    },
    {
      "type": "Feature",
      "properties": {
        "type": "original_route_stop",
        "stop_code": "21139",
        "stop_name": "ת. רכבת תל אביב סבידור/על פרשת דרכים",
        "marker-color": "#2ca02c",
        "marker-symbol": "bus",
        "marker-size": "medium"
      },
      "geometry": {
        "type": "Point",
        "coordinates": [
          34.795453,
          32.082475
        ]
      }
    },
    {
      "type": "Feature",
      "properties": {
        "type": "original_route_stop",
        "stop_code": "25903",
        "stop_name": "ארלוזורוב/דרך נמיר",
        "marker-color": "#2ca02c",
        "marker-symbol": "bus",
        "marker-size": "medium"
      },
      "geometry": {
        "type": "Point",
        "coordinates": [
          34.792922,
          32.082984
        ]
      }
    },
    {
      "type": "Feature",
      "properties": {
        "type": "cancelled_stop",
        "stop_code": "21384",
        "stop_name": "חיבת ציון/הרא''ה",
        "marker-color": "#ff0000",
        "marker-symbol": "bus",
        "marker-size": "medium"
      },
      "geometry": {
        "type": "Point",
        "coordinates": [
          34.825057,
          32.079233
        ]
      }
    },
    {
      "type": "Feature",
      "properties": {
        "type": "cancelled_stop",
        "stop_code": "21220",
        "stop_name": "חיבת ציון/דרך בן גוריון",
        "marker-color": "#ff0000",
        "marker-symbol": "bus",
        "marker-size": "medium"
      },
      "geometry": {
        "type": "Point",
        "coordinates": [
          34.821279,
          32.079364
        ]
      }
    },
    {
      "type": "Feature",
      "properties": {
        "type": "new_stop",
        "stop_code": "26373",
        "stop_name": "הרא''ה/חיבת ציון",
        "marker-color": "#1f9ed6",
        "marker-symbol": "bus",
        "marker-size": "medium"
      },
      "geometry": {
        "type": "Point",
        "coordinates": [
          34.825571,
          32.079906
        ]
      }
    },
    {
      "type": "Feature",
      "properties": {
        "type": "new_stop",
        "stop_code": "26339",
        "stop_name": "הרא''ה/הבנים",
        "marker-color": "#1f9ed6",
        "marker-symbol": "bus",
        "marker-size": "medium"
      },
      "geometry": {
        "type": "Point",
        "coordinates": [
          34.823978,
          32.083468
        ]
      }
    },
    {
      "type": "Feature",
      "properties": {
        "type": "new_stop",
        "stop_code": "21229",
        "stop_name": "בן גוריון/ הרא''ה",
        "marker-color": "#1f9ed6",
        "marker-symbol": "bus",
        "marker-size": "medium"
      },
      "geometry": {
        "type": "Point",
        "coordinates": [
          34.821066,
          32.083188
        ]
      }
    },
    {
      "type": "Feature",
      "properties": {
        "type": "reported_block_stop",
        "stop_code": "21384",
        "stop_name": "חיבת ציון/הרא''ה",
        "marker-color": "#ff8800",
        "marker-symbol": "bus",
        "marker-size": "medium"
      },
      "geometry": {
        "type": "Point",
        "coordinates": [
          34.825057,
          32.079233
        ]
      }
    },
    {
      "type": "Feature",
      "properties": {
        "type": "reported_block_stop",
        "stop_code": "21220",
        "stop_name": "חיבת ציון/דרך בן גוריון",
        "marker-color": "#ff8800",
        "marker-symbol": "bus",
        "marker-size": "medium"
      },
      "geometry": {
        "type": "Point",
        "coordinates": [
          34.821279,
          32.079364
        ]
      }
    },
    {
      "type": "Feature",
      "properties": {
        "type": "deviate_from_stop",
        "stop_code": "26230",
        "stop_name": "הרא''ה/ברקאי",
        "marker-color": "#8000ff",
        "marker-symbol": "bus",
        "marker-size": "medium"
      },
      "geometry": {
        "type": "Point",
        "coordinates": [
          34.825261,
          32.077271
        ]
      }
    },
    {
      "type": "Feature",
      "properties": {
        "type": "deviate_to_stop",
        "stop_code": "26333",
        "stop_name": "קריניצי/הרצל",
        "marker-color": "#8000ff",
        "marker-symbol": "bus",
        "marker-size": "medium"
      },
      "geometry": {
        "type": "Point",
        "coordinates": [
          34.818367,
          32.080839
        ]
      }
    }
  ]
}