{
  "type": "FeatureCollection",
  "features": [
    {
      "type": "Feature",
      "properties": {
        "type": "deviation_path_edge",
        "from_stop_code": "43019",
        "to_stop_code": "41210",
        "stroke": "#00bcd4",
        "stroke-width": 3,
        "stroke-opacity": 0.95
      },
      "geometry": {
        "type": "LineString",
        "coordinates": [
          [
            35.01979710441581,
            32.78653163209938
          ],
          [
            35.019497,
            32.786345
          ],
          [
            35.019477,
            32.78635
          ],
          [
            35.019462,
            32.786352
          ],
          [
            35.019447,
            32.786351
          ],
          [
            35.019431,
            32.786349
          ],
          [
            35.019415,
            32.786346
          ],
          [
            35.019391,
            32.786338
          ],
          [
            35.019369,
            32.786326
          ],
          [
            35.019346,
            32.786311
          ],
          [
            35.019328,
            32.786296
          ],
          [
            35.019313,
            32.786278
          ],
          [
            35.019304,
            32.786265
          ],
          [
            35.019295,
            32.786245
          ],
          [
            35.019289,
            32.786226
          ],
          [
            35.019288,
            32.786207
          ],
          [
            35.01929,
            32.786198
          ],
          [
            35.018107,
            32.785461
          ],
          [
            35.017956,
            32.785417
          ],
          [
            35.017893,
            32.785407
          ],
          [
            35.017802,
            32.785412
          ],
          [
            35.017581,
            32.785884
          ],
          [
            35.017533,
            32.785986
          ],
          [
            35.017529356310554,
            32.785993830537564
          ]
        ]
      }
    },
    {
      "type": "Feature",
      "properties": {
        "type": "deviation_path_edge",
        "from_stop_code": "41210",
        "to_stop_code": "42642",
        "stroke": "#00bcd4",
        "stroke-width": 3,
        "stroke-opacity": 0.95
      },
      "geometry": {
        "type": "LineString",
        "coordinates": [
          [
            35.017529356310554,
            32.785993830537564
          ],
          [
            35.017372,
            32.786332
          ],
          [
            35.01729,
            32.786513
          ],
          [
            35.017139,
            32.786786
          ],
          [
            35.017103,
            32.786846
          ],
          [
            35.017024,
            32.786816
          ],
          [
            35.016989,
            32.786802
          ],
          [
            35.016899,
            32.786795
          ],
          [
            35.016829,
            32.786797
          ],
          [
            35.01676,
            32.78681
          ],
          [
            35.016637,
            32.786841
          ],
          [
            35.016429,
            32.786931
          ],
          [
            35.016253,
            32.787012
          ],
          [
            35.016223,
            32.787027
          ],
          [
            35.016027,
            32.787122
          ],
          [
            35.015525,
            32.787347
          ],
          [
            35.015115,
            32.787528
          ],
          [
            35.014669,
            32.787736
          ],
          [
            35.014354,
            32.787855
          ],
          [
            35.01430727962396,
            32.787869858611394
          ]
        ]
      }
    },
    {
      "type": "Feature",
      "properties": {
        "type": "deviation_path_edge",
        "from_stop_code": "42642",
        "to_stop_code": "47392",
        "stroke": "#00bcd4",
        "stroke-width": 3,
        "stroke-opacity": 0.95
      },
      "geometry": {
        "type": "LineString",
        "coordinates": [
          [
            35.01430727962396,
            32.787869858611394
          ],
          [
            35.014049,
            32.787952
          ],
          [
            35.013555,
            32.788082
          ],
          [
            35.013448,
            32.788109
          ],
          [
            35.013319,
            32.788137
          ],
          [
            35.013165,
            32.788174
          ],
          [
            35.012821,
            32.78824
          ],
          [
            35.012805,
            32.788243
          ],
          [
            35.012568,
            32.788296
          ],
          [
            35.012322,
            32.788326
          ],
          [
            35.012278,
            32.788331
          ],
          [
            35.01199,
            32.788357
          ],
          [
            35.011722,
            32.788371
          ],
          [
            35.011655,
            32.788374
          ],
          [
            35.011555,
            32.788376
          ],
          [
            35.011355,
            32.788387
          ],
          [
            35.01121,
            32.788408
          ],
          [
            35.011065,
            32.788436
          ],
          [
            35.010954,
            32.788464
          ],
          [
            35.010821,
            32.788513
          ],
          [
            35.010675,
            32.788589
          ],
          [
            35.010517,
            32.788679
          ],
          [
            35.010124,
            32.78892
          ],
          [
            35.01001,
            32.788992
          ],
          [
            35.009734,
            32.789121
          ],
          [
            35.009616,
            32.789171
          ],
          [
            35.009529,
            32.789197
          ],
          [
            35.009444,
            32.789218
          ],
          [
            35.009317,
            32.789246
          ],
          [
            35.009177,
            32.789271
          ],
          [
            35.009,
            32.789293
          ],
          [
            35.008801,
            32.789288
          ],
          [
            35.008667,
            32.789273
          ],
          [
            35.008493,
            32.789239
          ],
          [
            35.008173,
            32.789173
          ],
          [
            35.00807108018758,
            32.7891522975381
          ]
        ]
      }
    },
    {
      "type": "Feature",
      "properties": {
        "type": "deviation_path_edge",
        "from_stop_code": "47392",
        "to_stop_code": "41969",
        "stroke": "#00bcd4",
        "stroke-width": 3,
        "stroke-opacity": 0.95
      },
      "geometry": {
        "type": "LineString",
        "coordinates": [
          [
            35.00807108018758,
            32.7891522975381
          ],
          [
            35.007981,
            32.789134
          ],
          [
            35.007926,
            32.789121
          ],
          [
            35.007843,
            32.789104
          ],
          [
            35.00766,
            32.789088
          ],
          [
            35.007497,
            32.789086
          ],
          [
            35.00728,
            32.789103
          ],
          [
            35.00709,
            32.789137
          ],
          [
            35.006897,
            32.789176
          ],
          [
            35.006434,
            32.789283
          ],
          [
            35.006126,
            32.789349
          ],
          [
            35.005843,
            32.789418
          ],
          [
            35.005488,
            32.789507
          ],
          [
            35.005068,
            32.789622
          ],
          [
            35.004993,
            32.789645
          ],
          [
            35.004807,
            32.789721
          ],
          [
            35.004709,
            32.789775
          ],
          [
            35.004528,
            32.789901
          ],
          [
            35.004466,
            32.789941
          ],
          [
            35.004408,
            32.789983
          ],
          [
            35.004007,
            32.790271
          ],
          [
            35.003872,
            32.790187
          ],
          [
            35.00367,
            32.790004
          ],
          [
            35.003565,
            32.789903
          ],
          [
            35.003398,
            32.789742
          ],
          [
            35.003289712824895,
            32.78964689251397
          ]
        ]
      }
    },
    {
      "type": "Feature",
      "properties": {
        "type": "deviation_path_edge",
        "from_stop_code": "41969",
        "to_stop_code": "42210",
        "stroke": "#00bcd4",
        "stroke-width": 3,
        "stroke-opacity": 0.95
      },
      "geometry": {
        "type": "LineString",
        "coordinates": [
          [
            35.003289712824895,
            32.78964689251397
          ],
          [
            35.00279,
            32.789208
          ],
          [
            35.002659,
            32.789093
          ],
          [
            35.002481,
            32.788951
          ],
          [
            35.002305,
            32.788793
          ],
          [
            35.002088,
            32.788608
          ],
          [
            35.001898,
            32.788485
          ],
          [
            35.001761,
            32.788416
          ],
          [
            35.001634,
            32.788356
          ],
          [
            35.001541,
            32.788324
          ],
          [
            35.001344,
            32.788258
          ],
          [
            35.001081,
            32.788186
          ],
          [
            35.000793,
            32.788124
          ],
          [
            35.000462,
            32.788075
          ],
          [
            35.000027,
            32.788029
          ],
          [
            34.999833,
            32.787994
          ],
          [
            34.999576,
            32.787898
          ],
          [
            34.99944,
            32.78782
          ],
          [
            34.999212,
            32.787661
          ],
          [
            34.999139,
            32.787602
          ],
          [
            34.999078,
            32.787553
          ],
          [
            34.99891,
            32.787411
          ],
          [
            34.998805,
            32.787345
          ],
          [
            34.998769,
            32.787322
          ],
          [
            34.998627,
            32.787243
          ],
          [
            34.998496,
            32.78718
          ],
          [
            34.998443,
            32.787163
          ],
          [
            34.998329,
            32.787127
          ],
          [
            34.998134,
            32.787082
          ],
          [
            34.997989,
            32.787057
          ],
          [
            34.997754,
            32.787023
          ],
          [
            34.997683,
            32.78701
          ],
          [
            34.99747526516854,
            32.786990215730334
          ]
        ]
      }
    },
    {
      "type": "Feature",
      "properties": {
        "type": "original_route_shape",
        "shape_id": "143084",
        "stroke": "#1f2a7a",
        "stroke-width": 3,
        "stroke-opacity": 0.85
      },
      "geometry": {
        "type": "LineString",
        "coordinates": [
          [
            35.03482806242365,
            32.79269589335451
          ],
          [
            35.034851,
            32.792633
          ],
          [
            35.034911,
            32.7925
          ],
          [
            35.034959,
            32.792414
          ],
          [
            35.034994,
            32.792342
          ],
          [
            35.03507,
            32.792206
          ],
          [
            35.035128,
            32.792127
          ],
          [
            35.035179,
            32.792071
          ],
          [
            35.03518,
            32.792064
          ],
          [
            35.03518,
            32.792046
          ],
          [
            35.035176,
            32.792027
          ],
          [
            35.035168,
            32.792009
          ],
          [
            35.035152,
            32.791985
          ],
          [
            35.035147,
            32.791974
          ],
          [
            35.035143,
            32.791959
          ],
          [
            35.035122,
            32.79193
          ],
          [
            35.035105,
            32.791915
          ],
          [
            35.035084,
            32.791897
          ],
          [
            35.035001,
            32.791913
          ],
          [
            35.034952,
            32.791925
          ],
          [
            35.034913,
            32.791937
          ],
          [
            35.034878,
            32.79195
          ],
          [
            35.03485,
            32.791972
          ],
          [
            35.034823,
            32.791998
          ],
          [
            35.034798,
            32.792031
          ],
          [
            35.03477,
            32.792082
          ],
          [
            35.034727,
            32.792155
          ],
          [
            35.034684,
            32.792231
          ],
          [
            35.034539,
            32.792537
          ],
          [
            35.034459,
            32.792737
          ],
          [
            35.034452,
            32.792792
          ],
          [
            35.034457,
            32.792824
          ],
          [
            35.034459,
            32.792863
          ],
          [
            35.034449,
            32.792899
          ],
          [
            35.034432,
            32.792918
          ],
          [
            35.034411,
            32.792936
          ],
          [
            35.034377,
            32.792952
          ],
          [
            35.034302,
            32.792962
          ],
          [
            35.03415,
            32.792948
          ],
          [
            35.033954,
            32.792931
          ],
          [
            35.033739,
            32.792912
          ],
          [
            35.033526,
            32.792894
          ],
          [
            35.033499,
            32.792888
          ],
          [
            35.033471,
            32.792877
          ],
          [
            35.033466,
            32.792874
          ],
          [
            35.033444,
            32.792862
          ],
          [
            35.033426,
            32.792849
          ],
          [
            35.033402,
            32.792819
          ],
          [
            35.033384,
            32.792795
          ],
          [
            35.033367,
            32.792745
          ],
          [
            35.03336,
            32.792702
          ],
          [
            35.033365,
            32.792661
          ],
          [
            35.033378,
            32.792606
          ],
          [
            35.033415,
            32.79256
          ],
          [
            35.03389,
            32.792189
          ],
          [
            35.033957,
            32.792132
          ],
          [
            35.034033,
            32.792072
          ],
          [
            35.034151,
            32.791965
          ],
          [
            35.034241,
            32.791884
          ],
          [
            35.034276,
            32.791854
          ],
          [
            35.034297,
            32.791828
          ],
          [
            35.03432,
            32.79181
          ],
          [
            35.034379,
            32.791757
          ],
          [
            35.034409,
            32.791734
          ],
          [
            35.034481,
            32.791701
          ],
          [
            35.034547,
            32.79168
          ],
          [
            35.034821,
            32.79162
          ],
          [
            35.035003,
            32.791595
          ],
          [
            35.03509,
            32.791586
          ],
          [
            35.035087,
            32.791584
          ],
          [
            35.034975,
            32.791521
          ],
          [
            35.03467,
            32.791349
          ],
          [
            35.03466,
            32.791344
          ],
          [
            35.034068,
            32.791021
          ],
          [
            35.033831,
            32.790903
          ],
          [
            35.03319,
            32.790581
          ],
          [
            35.033101,
            32.790541
          ],
          [
            35.032989,
            32.790485
          ],
          [
            35.032782,
            32.790388
          ],
          [
            35.032607,
            32.790319
          ],
          [
            35.032249,
            32.790202
          ],
          [
            35.032222,
            32.790192
          ],
          [
            35.032156,
            32.790178
          ],
          [
            35.032013,
            32.790148
          ],
          [
            35.031174,
            32.789971
          ],
          [
            35.030957,
            32.78992
          ],
          [
            35.030658,
            32.789889
          ],
          [
            35.030523,
            32.789864
          ],
          [
            35.02989,
            32.78972
          ],
          [
            35.029586,
            32.789646
          ],
          [
            35.029193,
            32.78954
          ],
          [
            35.02879,
            32.789421
          ],
          [
            35.028615,
            32.789375
          ],
          [
            35.028451,
            32.789349
          ],
          [
            35.028245,
            32.789322
          ],
          [
            35.028134,
            32.789339
          ],
          [
            35.028018,
            32.789357
          ],
          [
            35.02801,
            32.789359
          ],
          [
            35.027834,
            32.789405
          ],
          [
            35.027694,
            32.789455
          ],
          [
            35.027548,
            32.789517
          ],
          [
            35.027458,
            32.789567
          ],
          [
            35.027351,
            32.789644
          ],
          [
            35.027264,
            32.789725
          ],
          [
            35.027031,
            32.790058
          ],
          [
            35.026915,
            32.790231
          ],
          [
            35.026903,
            32.79025
          ],
          [
            35.026724,
            32.790541
          ],
          [
            35.026642,
            32.790655
          ],
          [
            35.026491,
            32.790873
          ],
          [
            35.026316,
            32.791083
          ],
          [
            35.026276,
            32.791131
          ],
          [
            35.026253,
            32.791162
          ],
          [
            35.02623,
            32.791191
          ],
          [
            35.026154,
            32.791287
          ],
          [
            35.026137,
            32.791309
          ],
          [
            35.026052,
            32.791424
          ],
          [
            35.025803,
            32.791678
          ],
          [
            35.025175,
            32.792305
          ],
          [
            35.024646,
            32.792818
          ],
          [
            35.024238,
            32.793227
          ],
          [
            35.023381,
            32.794037
          ],
          [
            35.023353,
            32.794066
          ],
          [
            35.023111,
            32.794336
          ],
          [
            35.022611,
            32.794811
          ],
          [
            35.022347,
            32.795078
          ],
          [
            35.022287,
            32.795123
          ],
          [
            35.022258,
            32.795162
          ],
          [
            35.022136,
            32.795303
          ],
          [
            35.021169,
            32.796296
          ],
          [
            35.020287,
            32.797212
          ],
          [
            35.019914,
            32.797581
          ],
          [
            35.019737,
            32.797747
          ],
          [
            35.019612,
            32.797874
          ],
          [
            35.019359,
            32.7981
          ],
          [
            35.019236,
            32.798195
          ],
          [
            35.01907,
            32.798326
          ],
          [
            35.018971,
            32.798398
          ],
          [
            35.018853,
            32.798493
          ],
          [
            35.018545,
            32.798692
          ],
          [
            35.018465,
            32.798744
          ],
          [
            35.01797,
            32.799152
          ],
          [
            35.016844,
            32.800061
          ],
          [
            35.016015,
            32.800591
          ],
          [
            35.015511,
            32.80092
          ],
          [
            35.015226,
            32.801142
          ],
          [
            35.01473,
            32.801538
          ],
          [
            35.014212,
            32.801995
          ],
          [
            35.013673,
            32.802467
          ],
          [
            35.013464,
            32.802627
          ],
          [
            35.013064,
            32.802935
          ],
          [
            35.012558,
            32.803352
          ],
          [
            35.011358,
            32.804409
          ],
          [
            35.011252,
            32.804503
          ],
          [
            35.011046,
            32.804679
          ],
          [
            35.011047,
            32.804678
          ],
          [
            35.010987,
            32.804694
          ],
          [
            35.010916,
            32.804705
          ],
          [
            35.010834,
            32.804706
          ],
          [
            35.01068,
            32.804679
          ],
          [
            35.01062,
            32.804659
          ],
          [
            35.010487,
            32.804588
          ],
          [
            35.010297,
            32.804475
          ],
          [
            35.010246,
            32.804443
          ],
          [
            35.010192,
            32.804406
          ],
          [
            35.010162,
            32.804379
          ],
          [
            35.01013,
            32.804341
          ],
          [
            35.010109,
            32.80431
          ],
          [
            35.010097,
            32.804277
          ],
          [
            35.010091,
            32.804191
          ],
          [
            35.010091,
            32.804181
          ],
          [
            35.010103,
            32.804096
          ],
          [
            35.010157,
            32.804037
          ],
          [
            35.010212,
            32.803879
          ],
          [
            35.010243,
            32.803776
          ],
          [
            35.010339,
            32.803416
          ],
          [
            35.010395,
            32.803133
          ],
          [
            35.010413,
            32.803014
          ],
          [
            35.010424,
            32.802776
          ],
          [
            35.010417,
            32.802605
          ],
          [
            35.010416,
            32.802394
          ],
          [
            35.010395,
            32.802097
          ],
          [
            35.010421,
            32.801826
          ],
          [
            35.010427,
            32.801778
          ],
          [
            35.010437,
            32.801729
          ],
          [
            35.010445,
            32.801694
          ],
          [
            35.01046,
            32.80165
          ],
          [
            35.010477,
            32.801617
          ],
          [
            35.010504,
            32.80157
          ],
          [
            35.010531,
            32.801529
          ],
          [
            35.010543,
            32.801515
          ],
          [
            35.010572,
            32.801478
          ],
          [
            35.010675,
            32.801382
          ],
          [
            35.010812,
            32.801251
          ],
          [
            35.011041,
            32.801064
          ],
          [
            35.01152,
            32.800588
          ],
          [
            35.011874,
            32.800164
          ],
          [
            35.012055,
            32.799961
          ],
          [
            35.012047,
            32.799958
          ],
          [
            35.012036,
            32.799953
          ],
          [
            35.012027,
            32.799945
          ],
          [
            35.012022,
            32.79994
          ],
          [
            35.012018,
            32.799934
          ],
          [
            35.012014,
            32.799924
          ],
          [
            35.012012,
            32.799917
          ],
          [
            35.012011,
            32.799907
          ],
          [
            35.012012,
            32.7999
          ],
          [
            35.012015,
            32.79989
          ],
          [
            35.012018,
            32.799883
          ],
          [
            35.012025,
            32.799874
          ],
          [
            35.01203,
            32.799869
          ],
          [
            35.01204,
            32.799862
          ],
          [
            35.012047,
            32.799859
          ],
          [
            35.012056,
            32.799855
          ],
          [
            35.012067,
            32.799853
          ],
          [
            35.012079,
            32.799852
          ],
          [
            35.012087,
            32.799853
          ],
          [
            35.012099,
            32.799855
          ],
          [
            35.012111,
            32.79986
          ],
          [
            35.012118,
            32.799863
          ],
          [
            35.012127,
            32.79987
          ],
          [
            35.012133,
            32.799877
          ],
          [
            35.012222,
            32.79977
          ],
          [
            35.012334,
            32.799673
          ],
          [
            35.012652,
            32.799398
          ],
          [
            35.01317,
            32.798996
          ],
          [
            35.013296,
            32.798919
          ],
          [
            35.013477,
            32.798776
          ],
          [
            35.013646,
            32.79865
          ],
          [
            35.013931,
            32.798436
          ],
          [
            35.014195,
            32.798217
          ],
          [
            35.014449,
            32.798003
          ],
          [
            35.014502,
            32.797959
          ],
          [
            35.014608,
            32.79785
          ],
          [
            35.014994,
            32.797505
          ],
          [
            35.015262,
            32.797274
          ],
          [
            35.015524,
            32.797034
          ],
          [
            35.015873,
            32.796694
          ],
          [
            35.015923,
            32.796632
          ],
          [
            35.015975,
            32.796558
          ],
          [
            35.016014,
            32.796474
          ],
          [
            35.016066,
            32.796372
          ],
          [
            35.016101,
            32.796322
          ],
          [
            35.016147,
            32.796271
          ],
          [
            35.016828,
            32.795627
          ],
          [
            35.016877,
            32.795554
          ],
          [
            35.016945,
            32.795471
          ],
          [
            35.016965,
            32.795449
          ],
          [
            35.01701,
            32.795403
          ],
          [
            35.017032,
            32.795382
          ],
          [
            35.017112,
            32.795317
          ],
          [
            35.01735,
            32.795153
          ],
          [
            35.017859,
            32.794727
          ],
          [
            35.018274,
            32.794418
          ],
          [
            35.01839,
            32.794316
          ],
          [
            35.018449,
            32.794272
          ],
          [
            35.018584,
            32.794139
          ],
          [
            35.01869,
            32.79405
          ],
          [
            35.018748,
            32.794002
          ],
          [
            35.018769,
            32.793972
          ],
          [
            35.01878,
            32.793929
          ],
          [
            35.018776,
            32.79389
          ],
          [
            35.018759,
            32.793848
          ],
          [
            35.018739,
            32.79381
          ],
          [
            35.018726,
            32.793805
          ],
          [
            35.018716,
            32.7938
          ],
          [
            35.018707,
            32.793793
          ],
          [
            35.018699,
            32.793785
          ],
          [
            35.018692,
            32.793777
          ],
          [
            35.018686,
            32.793768
          ],
          [
            35.018682,
            32.793759
          ],
          [
            35.018679,
            32.793748
          ],
          [
            35.018611,
            32.793732
          ],
          [
            35.018548,
            32.793736
          ],
          [
            35.018469,
            32.793758
          ],
          [
            35.018415,
            32.793793
          ],
          [
            35.018369,
            32.793838
          ],
          [
            35.018299,
            32.793915
          ],
          [
            35.01825,
            32.793976
          ],
          [
            35.018191,
            32.794056
          ],
          [
            35.018178,
            32.794069
          ],
          [
            35.0181,
            32.794146
          ],
          [
            35.018026,
            32.794201
          ],
          [
            35.017771,
            32.794366
          ],
          [
            35.017526,
            32.794515
          ],
          [
            35.017259,
            32.794629
          ],
          [
            35.017022,
            32.794726
          ],
          [
            35.016749,
            32.794827
          ],
          [
            35.016418,
            32.79496
          ],
          [
            35.016123,
            32.795082
          ],
          [
            35.015891,
            32.795209
          ],
          [
            35.015584,
            32.795386
          ],
          [
            35.015444,
            32.795478
          ],
          [
            35.015211,
            32.795623
          ],
          [
            35.015011,
            32.795746
          ],
          [
            35.014749,
            32.795913
          ],
          [
            35.014447,
            32.796101
          ],
          [
            35.014118,
            32.796313
          ],
          [
            35.01374,
            32.796544
          ],
          [
            35.013393,
            32.796764
          ],
          [
            35.013118,
            32.796924
          ],
          [
            35.012561,
            32.797202
          ],
          [
            35.012468,
            32.797244
          ],
          [
            35.012222,
            32.797324
          ],
          [
            35.011765,
            32.797459
          ],
          [
            35.011164,
            32.797642
          ],
          [
            35.010632,
            32.7978
          ],
          [
            35.010432,
            32.797882
          ],
          [
            35.010415,
            32.797903
          ],
          [
            35.01039,
            32.79792
          ],
          [
            35.010377,
            32.797924
          ],
          [
            35.010367,
            32.797928
          ],
          [
            35.010336,
            32.797931
          ],
          [
            35.010305,
            32.797925
          ],
          [
            35.010296,
            32.79792
          ],
          [
            35.01005,
            32.797975
          ],
          [
            35.009359,
            32.798225
          ],
          [
            35.009099,
            32.798318
          ],
          [
            35.008908,
            32.798381
          ],
          [
            35.008749,
            32.798438
          ],
          [
            35.008579,
            32.798497
          ],
          [
            35.008415,
            32.798557
          ],
          [
            35.008329,
            32.798585
          ],
          [
            35.008263,
            32.798597
          ],
          [
            35.008174,
            32.798611
          ],
          [
            35.008115,
            32.798617
          ],
          [
            35.008064,
            32.798615
          ],
          [
            35.008031,
            32.798606
          ],
          [
            35.007973,
            32.798594
          ],
          [
            35.007926,
            32.798577
          ],
          [
            35.007873,
            32.798553
          ],
          [
            35.007821,
            32.79852
          ],
          [
            35.007773,
            32.798478
          ],
          [
            35.007729,
            32.798428
          ],
          [
            35.007572,
            32.798226
          ],
          [
            35.007426,
            32.79801
          ],
          [
            35.007226,
            32.797577
          ],
          [
            35.007183,
            32.797443
          ],
          [
            35.007153,
            32.797183
          ],
          [
            35.00715,
            32.797073
          ],
          [
            35.007149,
            32.796967
          ],
          [
            35.007156,
            32.796866
          ],
          [
            35.007178,
            32.796758
          ],
          [
            35.007237,
            32.796553
          ],
          [
            35.007271,
            32.796473
          ],
          [
            35.007437,
            32.796166
          ],
          [
            35.007429,
            32.796154
          ],
          [
            35.007424,
            32.796141
          ],
          [
            35.00742,
            32.796128
          ],
          [
            35.007418,
            32.796114
          ],
          [
            35.007419,
            32.796101
          ],
          [
            35.007422,
            32.796087
          ],
          [
            35.007426,
            32.796074
          ],
          [
            35.007433,
            32.796061
          ],
          [
            35.007442,
            32.796049
          ],
          [
            35.007452,
            32.796039
          ],
          [
            35.00747,
            32.796024
          ],
          [
            35.007492,
            32.796013
          ],
          [
            35.007515,
            32.796005
          ],
          [
            35.007532,
            32.796002
          ],
          [
            35.007557,
            32.796001
          ],
          [
            35.007583,
            32.796003
          ],
          [
            35.007599,
            32.796007
          ],
          [
            35.007622,
            32.796015
          ],
          [
            35.007634,
            32.796021
          ],
          [
            35.007813,
            32.795906
          ],
          [
            35.008076,
            32.795788
          ],
          [
            35.008143,
            32.795758
          ],
          [
            35.008233,
            32.795718
          ],
          [
            35.00832,
            32.79568
          ],
          [
            35.008662,
            32.79552
          ],
          [
            35.008704,
            32.7955
          ],
          [
            35.008988,
            32.795392
          ],
          [
            35.009337,
            32.795271
          ],
          [
            35.009349,
            32.795266
          ],
          [
            35.009544,
            32.795184
          ],
          [
            35.009587,
            32.795166
          ],
          [
            35.010012,
            32.794947
          ],
          [
            35.010015,
            32.794931
          ],
          [
            35.010025,
            32.794904
          ],
          [
            35.010047,
            32.794873
          ],
          [
            35.010075,
            32.794848
          ],
          [
            35.01011,
            32.79483
          ],
          [
            35.010156,
            32.794821
          ],
          [
            35.010172,
            32.794822
          ],
          [
            35.010185,
            32.794822
          ],
          [
            35.010231,
            32.794836
          ],
          [
            35.010263,
            32.794857
          ],
          [
            35.010295,
            32.794892
          ],
          [
            35.010304,
            32.794915
          ],
          [
            35.010316,
            32.794945
          ],
          [
            35.010317,
            32.794992
          ],
          [
            35.010304,
            32.795038
          ],
          [
            35.010283,
            32.79507
          ],
          [
            35.010306,
            32.795195
          ],
          [
            35.01032,
            32.79528
          ],
          [
            35.010331,
            32.795358
          ],
          [
            35.010351,
            32.795543
          ],
          [
            35.010364,
            32.795546
          ],
          [
            35.010385,
            32.795555
          ],
          [
            35.010409,
            32.795572
          ],
          [
            35.010427,
            32.795594
          ],
          [
            35.010436,
            32.795612
          ],
          [
            35.010441,
            32.795631
          ],
          [
            35.01044,
            32.795643
          ],
          [
            35.010588,
            32.795617
          ],
          [
            35.01061,
            32.795613
          ],
          [
            35.011044,
            32.795528
          ],
          [
            35.011118,
            32.795514
          ],
          [
            35.011279,
            32.795474
          ],
          [
            35.011433,
            32.795431
          ],
          [
            35.011532,
            32.795383
          ],
          [
            35.011769,
            32.795249
          ],
          [
            35.012215,
            32.795006
          ],
          [
            35.012492,
            32.794842
          ],
          [
            35.012713,
            32.794683
          ],
          [
            35.013183,
            32.794363
          ],
          [
            35.013389,
            32.794226
          ],
          [
            35.013815,
            32.79392
          ],
          [
            35.014077,
            32.793721
          ],
          [
            35.014728,
            32.793238
          ],
          [
            35.014849,
            32.793152
          ],
          [
            35.015174,
            32.792898
          ],
          [
            35.015676,
            32.792535
          ],
          [
            35.016203,
            32.792147
          ],
          [
            35.016327,
            32.792019
          ],
          [
            35.016795,
            32.791535
          ],
          [
            35.0169,
            32.791421
          ],
          [
            35.018001,
            32.790369
          ],
          [
            35.018291,
            32.790089
          ],
          [
            35.018425,
            32.78987
          ],
          [
            35.018426,
            32.789856
          ],
          [
            35.018428,
            32.789847
          ],
          [
            35.01843,
            32.789837
          ],
          [
            35.018437,
            32.789817
          ],
          [
            35.018453,
            32.789785
          ],
          [
            35.018466,
            32.789764
          ],
          [
            35.018473,
            32.789753
          ],
          [
            35.01849,
            32.789732
          ],
          [
            35.018505,
            32.789715
          ],
          [
            35.018527,
            32.789693
          ],
          [
            35.018559,
            32.789666
          ],
          [
            35.018591,
            32.789644
          ],
          [
            35.018603,
            32.789638
          ],
          [
            35.018701,
            32.789562
          ],
          [
            35.018768,
            32.789515
          ],
          [
            35.018855,
            32.789436
          ],
          [
            35.018922,
            32.789364
          ],
          [
            35.019019,
            32.789256
          ],
          [
            35.019534,
            32.7886
          ],
          [
            35.019747,
            32.788329
          ],
          [
            35.019784,
            32.788285
          ],
          [
            35.019965,
            32.788064
          ],
          [
            35.020044,
            32.787969
          ],
          [
            35.020339,
            32.787588
          ],
          [
            35.020585,
            32.787239
          ],
          [
            35.020643,
            32.787153
          ],
          [
            35.020626,
            32.787139
          ],
          [
            35.02061,
            32.787117
          ],
          [
            35.020603,
            32.787086
          ],
          [
            35.020606,
            32.78706
          ],
          [
            35.020323,
            32.786852
          ],
          [
            35.0201,
            32.78672
          ],
          [
            35.019497,
            32.786345
          ],
          [
            35.019477,
            32.78635
          ],
          [
            35.019462,
            32.786352
          ],
          [
            35.019447,
            32.786351
          ],
          [
            35.019431,
            32.786349
          ],
          [
            35.019415,
            32.786346
          ],
          [
            35.019391,
            32.786338
          ],
          [
            35.019369,
            32.786326
          ],
          [
            35.019346,
            32.786311
          ],
          [
            35.019328,
            32.786296
          ],
          [
            35.019313,
            32.786278
          ],
          [
            35.019304,
            32.786265
          ],
          [
            35.019295,
            32.786245
          ],
          [
            35.019289,
            32.786226
          ],
          [
            35.019288,
            32.786207
          ],
          [
            35.01929,
            32.786198
          ],
          [
            35.018107,
            32.785461
          ],
          [
            35.017859,
            32.785322
          ],
          [
            35.017783,
            32.785276
          ],
          [
            35.017589,
            32.785149
          ],
          [
            35.017135,
            32.784856
          ],
          [
            35.016887,
            32.784701
          ],
          [
            35.016873,
            32.784692
          ],
          [
            35.016079,
            32.784179
          ],
          [
            35.016037,
            32.784152
          ],
          [
            35.015957,
            32.784102
          ],
          [
            35.015921,
            32.784079
          ],
          [
            35.015771,
            32.783984
          ],
          [
            35.015768,
            32.783982
          ],
          [
            35.015723,
            32.783955
          ],
          [
            35.015472,
            32.783803
          ],
          [
            35.014932,
            32.783482
          ],
          [
            35.01474,
            32.783348
          ],
          [
            35.014498,
            32.783136
          ],
          [
            35.014478,
            32.783109
          ],
          [
            35.014457,
            32.78308
          ],
          [
            35.014398,
            32.783012
          ],
          [
            35.014342,
            32.782938
          ],
          [
            35.014248,
            32.782769
          ],
          [
            35.014187,
            32.782623
          ],
          [
            35.014134,
            32.782528
          ],
          [
            35.014056,
            32.782441
          ],
          [
            35.013953,
            32.782379
          ],
          [
            35.013837,
            32.782336
          ],
          [
            35.013769,
            32.782311
          ],
          [
            35.013573,
            32.78225
          ],
          [
            35.013254,
            32.782169
          ],
          [
            35.012911,
            32.782129
          ],
          [
            35.012523,
            32.782135
          ],
          [
            35.012052,
            32.782179
          ],
          [
            35.011467,
            32.782246
          ],
          [
            35.011234,
            32.782275
          ],
          [
            35.010844,
            32.782307
          ],
          [
            35.010654,
            32.782314
          ],
          [
            35.0103,
            32.78233
          ],
          [
            35.009873,
            32.782346
          ],
          [
            35.009479,
            32.782345
          ],
          [
            35.009421,
            32.782348
          ],
          [
            35.008883,
            32.782325
          ],
          [
            35.008733,
            32.782319
          ],
          [
            35.008285,
            32.782308
          ],
          [
            35.007937,
            32.78229
          ],
          [
            35.0079,
            32.78229
          ],
          [
            35.00769,
            32.782293
          ],
          [
            35.007674,
            32.782294
          ],
          [
            35.007384,
            32.782304
          ],
          [
            35.006882,
            32.782362
          ],
          [
            35.006817,
            32.782381
          ],
          [
            35.006531,
            32.782481
          ],
          [
            35.006277,
            32.782582
          ],
          [
            35.006079,
            32.782685
          ],
          [
            35.005817,
            32.782838
          ],
          [
            35.005532,
            32.783009
          ],
          [
            35.005194,
            32.783228
          ],
          [
            35.004636,
            32.783587
          ],
          [
            35.004339,
            32.78378
          ],
          [
            35.004261,
            32.783824
          ],
          [
            35.003999,
            32.783982
          ],
          [
            35.003722,
            32.78417
          ],
          [
            35.003544,
            32.78429
          ],
          [
            35.003206,
            32.784487
          ],
          [
            35.002988,
            32.784624
          ],
          [
            35.002787,
            32.784809
          ],
          [
            35.002647,
            32.784979
          ],
          [
            35.002561,
            32.785101
          ],
          [
            35.002476,
            32.785261
          ],
          [
            35.002353,
            32.785501
          ],
          [
            35.002272,
            32.785722
          ],
          [
            35.00214,
            32.786125
          ],
          [
            35.001972,
            32.786616
          ],
          [
            35.001935,
            32.786745
          ],
          [
            35.001866,
            32.786926
          ],
          [
            35.001792,
            32.787059
          ],
          [
            35.001714,
            32.787183
          ],
          [
            35.001603,
            32.787298
          ],
          [
            35.001461,
            32.787391
          ],
          [
            35.001309,
            32.787451
          ],
          [
            35.001122,
            32.787506
          ],
          [
            35.000918,
            32.787532
          ],
          [
            35.000737,
            32.787527
          ],
          [
            35.000553,
            32.787498
          ],
          [
            35.000385,
            32.787451
          ],
          [
            35.000146,
            32.787393
          ],
          [
            34.999986,
            32.787373
          ],
          [
            34.99975,
            32.787368
          ],
          [
            34.999469,
            32.787377
          ],
          [
            34.999267,
            32.78739
          ],
          [
            34.999102,
            32.787403
          ],
          [
            34.998981,
            32.787388
          ],
          [
            34.998861,
            32.787362
          ],
          [
            34.998805,
            32.787345
          ],
          [
            34.998769,
            32.787322
          ],
          [
            34.998627,
            32.787243
          ],
          [
            34.998496,
            32.78718
          ],
          [
            34.998443,
            32.787163
          ],
          [
            34.998329,
            32.787127
          ],
          [
            34.998134,
            32.787082
          ],
          [
            34.997989,
            32.787057
          ],
          [
            34.997754,
            32.787023
          ],
          [
            34.997683,
            32.78701
          ],
          [
            34.997452,
            32.786988
          ],
          [
            34.997017,
            32.786965
          ],
          [
            34.996508,
            32.786969
          ],
          [
            34.996218,
            32.786976
          ],
          [
            34.99603,
            32.786981
          ],
          [
            34.995773,
            32.786998
          ],
          [
            34.995489,
            32.787055
          ],
          [
            34.995399,
            32.787082
          ],
          [
            34.995185,
            32.787144
          ],
          [
            34.994896,
            32.787241
          ],
          [
            34.994586,
            32.787342
          ],
          [
            34.994337,
            32.787438
          ],
          [
            34.994205,
            32.787491
          ],
          [
            34.993958,
            32.787606
          ],
          [
            34.993612,
            32.787756
          ],
          [
            34.993283,
            32.787855
          ],
          [
            34.993081,
            32.787888
          ],
          [
            34.992834,
            32.787937
          ],
          [
            34.992579,
            32.787979
          ],
          [
            34.992268,
            32.788015
          ],
          [
            34.992188,
            32.788025
          ],
          [
            34.991983,
            32.787989
          ],
          [
            34.991694,
            32.78791
          ],
          [
            34.991168,
            32.787752
          ],
          [
            34.990738,
            32.787586
          ],
          [
            34.990623,
            32.787527
          ],
          [
            34.990206,
            32.78727
          ],
          [
            34.989168,
            32.786468
          ],
          [
            34.988932,
            32.786293
          ],
          [
            34.988566,
            32.786035
          ],
          [
            34.988242,
            32.785824
          ],
          [
            34.987896,
            32.785631
          ],
          [
            34.987821,
            32.785584
          ],
          [
            34.987319,
            32.785253
          ],
          [
            34.986713,
            32.784782
          ],
          [
            34.986521,
            32.78464
          ],
          [
            34.986407,
            32.784582
          ],
          [
            34.986484,
            32.784474
          ],
          [
            34.986609,
            32.784306
          ],
          [
            34.986847,
            32.783927
          ],
          [
            34.986862,
            32.783869
          ],
          [
            34.986879,
            32.783825
          ],
          [
            34.986935,
            32.783743
          ],
          [
            34.986995,
            32.783645
          ],
          [
            34.987018,
            32.783597
          ],
          [
            34.987029,
            32.783555
          ],
          [
            34.987037,
            32.783526
          ],
          [
            34.987045,
            32.783475
          ],
          [
            34.987047,
            32.783408
          ],
          [
            34.987044,
            32.78337
          ],
          [
            34.987044,
            32.783336
          ],
          [
            34.987049,
            32.783291
          ],
          [
            34.987062,
            32.783236
          ],
          [
            34.987073,
            32.783197
          ],
          [
            34.987101,
            32.783142
          ],
          [
            34.987172,
            32.783014
          ],
          [
            34.987277,
            32.782867
          ],
          [
            34.987381,
            32.782751
          ],
          [
            34.98754,
            32.782561
          ],
          [
            34.987591,
            32.782501
          ],
          [
            34.98772,
            32.782347
          ],
          [
            34.987819,
            32.782172
          ],
          [
            34.987861,
            32.78206
          ],
          [
            34.987883,
            32.781896
          ],
          [
            34.98788,
            32.781754
          ],
          [
            34.987796,
            32.781557
          ],
          [
            34.987638,
            32.78121
          ],
          [
            34.987615,
            32.781149
          ],
          [
            34.987606,
            32.781088
          ],
          [
            34.987603,
            32.781022
          ],
          [
            34.987603,
            32.780969
          ],
          [
            34.987619,
            32.780914
          ],
          [
            34.987655,
            32.780839
          ],
          [
            34.987696,
            32.780788
          ],
          [
            34.987731,
            32.780752
          ],
          [
            34.987787,
            32.780711
          ],
          [
            34.987832,
            32.780681
          ],
          [
            34.987888,
            32.780653
          ],
          [
            34.98797,
            32.780621
          ],
          [
            34.988132,
            32.780573
          ],
          [
            34.98848,
            32.780489
          ],
          [
            34.988664,
            32.780421
          ],
          [
            34.988783,
            32.780332
          ],
          [
            34.988861,
            32.780249
          ],
          [
            34.988893,
            32.780166
          ],
          [
            34.988911,
            32.78008
          ],
          [
            34.988904,
            32.780015
          ],
          [
            34.988872,
            32.779931
          ],
          [
            34.98877,
            32.77983
          ],
          [
            34.988098,
            32.779447
          ],
          [
            34.987765,
            32.779254
          ],
          [
            34.987309,
            32.778887
          ],
          [
            34.987001,
            32.77862
          ],
          [
            34.986821,
            32.778474
          ],
          [
            34.986812,
            32.778466
          ],
          [
            34.986658,
            32.778287
          ],
          [
            34.986429,
            32.77802
          ],
          [
            34.986201,
            32.777741
          ],
          [
            34.985991,
            32.777484
          ],
          [
            34.985495,
            32.776911
          ],
          [
            34.985188,
            32.776559
          ],
          [
            34.984992,
            32.776372
          ],
          [
            34.984805,
            32.776241
          ],
          [
            34.984654,
            32.776175
          ],
          [
            34.984503,
            32.776112
          ],
          [
            34.984359,
            32.776088
          ],
          [
            34.984173,
            32.776079
          ],
          [
            34.984022,
            32.776094
          ],
          [
            34.983824,
            32.776153
          ],
          [
            34.983672,
            32.776229
          ],
          [
            34.983572,
            32.776298
          ],
          [
            34.983487,
            32.776384
          ],
          [
            34.983377,
            32.776526
          ],
          [
            34.983299,
            32.776716
          ],
          [
            34.983282,
            32.776776
          ],
          [
            34.98326,
            32.776891
          ],
          [
            34.983245,
            32.777263
          ],
          [
            34.983241,
            32.777438
          ],
          [
            34.983206,
            32.777655
          ],
          [
            34.983128,
            32.777809
          ],
          [
            34.983033,
            32.777958
          ],
          [
            34.982916,
            32.778088
          ],
          [
            34.982765,
            32.778201
          ],
          [
            34.982543,
            32.778298
          ],
          [
            34.982335,
            32.778336
          ],
          [
            34.980924,
            32.77849
          ],
          [
            34.980752,
            32.778509
          ],
          [
            34.980637,
            32.778524
          ],
          [
            34.980531,
            32.778538
          ],
          [
            34.980341,
            32.778575
          ],
          [
            34.980235,
            32.778606
          ],
          [
            34.980021,
            32.778683
          ],
          [
            34.979908,
            32.778757
          ],
          [
            34.979717,
            32.778926
          ],
          [
            34.97958,
            32.779166
          ],
          [
            34.979484,
            32.779425
          ],
          [
            34.979448,
            32.779635
          ],
          [
            34.979476,
            32.779894
          ],
          [
            34.979495,
            32.779961
          ],
          [
            34.979513,
            32.780013
          ],
          [
            34.979571,
            32.780114
          ],
          [
            34.979771,
            32.780386
          ],
          [
            34.979991,
            32.78071
          ],
          [
            34.98002,
            32.780779
          ],
          [
            34.980054,
            32.780904
          ],
          [
            34.980062,
            32.78098
          ],
          [
            34.980069,
            32.781055
          ],
          [
            34.980066,
            32.78115
          ],
          [
            34.980062,
            32.781218
          ],
          [
            34.980048,
            32.781306
          ],
          [
            34.980023,
            32.781399
          ],
          [
            34.979975,
            32.781519
          ],
          [
            34.979912,
            32.781621
          ],
          [
            34.979819,
            32.781745
          ],
          [
            34.979686,
            32.781871
          ],
          [
            34.979622,
            32.781926
          ],
          [
            34.97946,
            32.782021
          ],
          [
            34.979199,
            32.782151
          ],
          [
            34.978872,
            32.782246
          ],
          [
            34.97852,
            32.782308
          ],
          [
            34.978169,
            32.782319
          ],
          [
            34.978043,
            32.782318
          ],
          [
            34.97787,
            32.782316
          ],
          [
            34.977711,
            32.7823
          ],
          [
            34.977621,
            32.782286
          ],
          [
            34.976509,
            32.78212
          ],
          [
            34.97621,
            32.782077
          ],
          [
            34.975838,
            32.782068
          ],
          [
            34.975433,
            32.782112
          ],
          [
            34.97512,
            32.782185
          ],
          [
            34.974761,
            32.782339
          ],
          [
            34.974465,
            32.782517
          ],
          [
            34.974247,
            32.782662
          ],
          [
            34.973968,
            32.782944
          ],
          [
            34.973753,
            32.783185
          ],
          [
            34.973528,
            32.783526
          ],
          [
            34.973257,
            32.784031
          ],
          [
            34.973198,
            32.784288
          ],
          [
            34.973189,
            32.7852
          ],
          [
            34.97321,
            32.786371
          ],
          [
            34.973199,
            32.786564
          ],
          [
            34.973146,
            32.78676
          ],
          [
            34.973075,
            32.786929
          ],
          [
            34.972987,
            32.787104
          ],
          [
            34.97281,
            32.787294
          ],
          [
            34.972525,
            32.787495
          ],
          [
            34.972275,
            32.787602
          ],
          [
            34.972039,
            32.787667
          ],
          [
            34.971709,
            32.787696
          ],
          [
            34.971297,
            32.787692
          ],
          [
            34.971054,
            32.787683
          ],
          [
            34.970651,
            32.787704
          ],
          [
            34.970634,
            32.787705
          ],
          [
            34.970409,
            32.787751
          ],
          [
            34.97032,
            32.787777
          ],
          [
            34.970171,
            32.787821
          ],
          [
            34.969794,
            32.787988
          ],
          [
            34.969752,
            32.788007
          ],
          [
            34.969434,
            32.788231
          ],
          [
            34.969275,
            32.788388
          ],
          [
            34.969105,
            32.788557
          ],
          [
            34.968878,
            32.788793
          ],
          [
            34.967738,
            32.789835
          ],
          [
            34.96757,
            32.789976
          ],
          [
            34.967397,
            32.790118
          ],
          [
            34.967273,
            32.790205
          ],
          [
            34.967197,
            32.790253
          ],
          [
            34.967121,
            32.790286
          ],
          [
            34.966974,
            32.790334
          ],
          [
            34.966818,
            32.790367
          ],
          [
            34.966547,
            32.790395
          ],
          [
            34.96643,
            32.790398
          ],
          [
            34.965698,
            32.790398
          ],
          [
            34.965357,
            32.790398
          ],
          [
            34.965281,
            32.790398
          ],
          [
            34.964922,
            32.790402
          ],
          [
            34.964611,
            32.790395
          ],
          [
            34.964453,
            32.790395
          ],
          [
            34.964173,
            32.790397
          ],
          [
            34.963185,
            32.790383
          ],
          [
            34.963063,
            32.790373
          ],
          [
            34.962273,
            32.790356
          ],
          [
            34.962185,
            32.790362
          ],
          [
            34.962103,
            32.790363
          ],
          [
            34.961669,
            32.790356
          ],
          [
            34.961396,
            32.790343
          ],
          [
            34.961088,
            32.790327
          ],
          [
            34.960794,
            32.790305
          ],
          [
            34.960338,
            32.790255
          ],
          [
            34.960274,
            32.790247
          ],
          [
            34.960217,
            32.790243
          ],
          [
            34.959932,
            32.790209
          ],
          [
            34.95965,
            32.790188
          ],
          [
            34.959394,
            32.790181
          ],
          [
            34.959271,
            32.790183
          ],
          [
            34.959179,
            32.790197
          ],
          [
            34.959085,
            32.790224
          ],
          [
            34.959005,
            32.790258
          ],
          [
            34.958928,
            32.790299
          ],
          [
            34.958874,
            32.790345
          ],
          [
            34.95882,
            32.790399
          ],
          [
            34.958821,
            32.790406
          ],
          [
            34.958822,
            32.79042
          ],
          [
            34.95882,
            32.790439
          ],
          [
            34.958816,
            32.790452
          ],
          [
            34.95881,
            32.790465
          ],
          [
            34.958798,
            32.790482
          ],
          [
            34.958783,
            32.790497
          ],
          [
            34.958764,
            32.790509
          ],
          [
            34.958743,
            32.790518
          ],
          [
            34.958729,
            32.790523
          ],
          [
            34.958717,
            32.790525
          ],
          [
            34.958676,
            32.790691
          ],
          [
            34.958583,
            32.791034
          ],
          [
            34.958551,
            32.791147
          ],
          [
            34.9585,
            32.791279
          ],
          [
            34.958441,
            32.791394
          ],
          [
            34.958366,
            32.791488
          ],
          [
            34.958188,
            32.791677
          ],
          [
            34.95813,
            32.791728
          ],
          [
            34.958065,
            32.79179
          ],
          [
            34.957999,
            32.791836
          ],
          [
            34.95792,
            32.791913
          ],
          [
            34.957881,
            32.791961
          ],
          [
            34.957831,
            32.792024
          ],
          [
            34.957783,
            32.792098
          ],
          [
            34.957737,
            32.792185
          ],
          [
            34.957721,
            32.792231
          ],
          [
            34.957707,
            32.792282
          ],
          [
            34.957701,
            32.792308
          ],
          [
            34.957687,
            32.792386
          ],
          [
            34.95768,
            32.792433
          ],
          [
            34.957683,
            32.792558
          ],
          [
            34.957723,
            32.792638
          ],
          [
            34.957743,
            32.79267
          ],
          [
            34.957763,
            32.792695
          ],
          [
            34.957802,
            32.792736
          ],
          [
            34.957842,
            32.792766
          ],
          [
            34.957879,
            32.792788
          ],
          [
            34.95792,
            32.792805
          ],
          [
            34.957965,
            32.792813
          ],
          [
            34.958019,
            32.792819
          ],
          [
            34.958096,
            32.792817
          ],
          [
            34.958198,
            32.792808
          ],
          [
            34.958668,
            32.792745
          ],
          [
            34.958816,
            32.792743
          ],
          [
            34.958936,
            32.792752
          ],
          [
            34.958996,
            32.792763
          ],
          [
            34.959026,
            32.792768
          ],
          [
            34.959115,
            32.792788
          ],
          [
            34.959214,
            32.792815
          ],
          [
            34.959336,
            32.792864
          ],
          [
            34.959465,
            32.792924
          ],
          [
            34.959578,
            32.79298
          ],
          [
            34.959664,
            32.793026
          ],
          [
            34.959738,
            32.793094
          ],
          [
            34.959762,
            32.79312
          ],
          [
            34.959784,
            32.79315
          ],
          [
            34.959798,
            32.793181
          ],
          [
            34.959801,
            32.793196
          ],
          [
            34.959805,
            32.793213
          ],
          [
            34.959804,
            32.79324
          ],
          [
            34.959793,
            32.793265
          ],
          [
            34.959774,
            32.793286
          ],
          [
            34.959742,
            32.793305
          ],
          [
            34.959702,
            32.793323
          ],
          [
            34.959587,
            32.793323
          ]
        ]
      }
    },
    {
      "type": "Feature",
      "properties": {
        "type": "original_route_stop",
        "stop_code": "41533",
        "stop_name": "ת. מרכזית המפרץ/רציפים עירוני",
        "marker-color": "#2ca02c",
        "marker-symbol": "bus",
        "marker-size": "medium"
      },
      "geometry": {
        "type": "Point",
        "coordinates": [
          35.034779,
          32.792678
        ]
      }
    },
    {
      "type": "Feature",
      "properties": {
        "type": "original_route_stop",
        "stop_code": "47409",
        "stop_name": "שדרות ההסתדרות/צומת הקריות",
        "marker-color": "#2ca02c",
        "marker-symbol": "bus",
        "marker-size": "medium"
      },
      "geometry": {
        "type": "Point",
        "coordinates": [
          35.028864,
          32.789491
        ]
      }
    },
    {
      "type": "Feature",
      "properties": {
        "type": "original_route_stop",
        "stop_code": "41260",
        "stop_name": "בר יהודה/גשר גדוד 21",
        "marker-color": "#2ca02c",
        "marker-symbol": "bus",
        "marker-size": "medium"
      },
      "geometry": {
        "type": "Point",
        "coordinates": [
          35.022022,
          32.795491
        ]
      }
    },
    {
      "type": "Feature",
      "properties": {
        "type": "original_route_stop",
        "stop_code": "42625",
        "stop_name": "יד לבנים/בר יהודה",
        "marker-color": "#2ca02c",
        "marker-symbol": "bus",
        "marker-size": "medium"
      },
      "geometry": {
        "type": "Point",
        "coordinates": [
          35.010274,
          32.803454
        ]
      }
    },
    {
      "type": "Feature",
      "properties": {
        "type": "original_route_stop",
        "stop_code": "41275",
        "stop_name": "יד לבנים/הגיבורים",
        "marker-color": "#2ca02c",
        "marker-symbol": "bus",
        "marker-size": "medium"
      },
      "geometry": {
        "type": "Point",
        "coordinates": [
          35.010974,
          32.801056
        ]
      }
    },
    {
      "type": "Feature",
      "properties": {
        "type": "original_route_stop",
        "stop_code": "41276",
        "stop_name": "יד לבנים/הירדן",
        "marker-color": "#2ca02c",
        "marker-symbol": "bus",
        "marker-size": "medium"
      },
      "geometry": {
        "type": "Point",
        "coordinates": [
          35.012675,
          32.799319
        ]
      }
    },
    {
      "type": "Feature",
      "properties": {
        "type": "original_route_stop",
        "stop_code": "42622",
        "stop_name": "יד לבנים/רזיאל",
        "marker-color": "#2ca02c",
        "marker-symbol": "bus",
        "marker-size": "medium"
      },
      "geometry": {
        "type": "Point",
        "coordinates": [
          35.014686,
          32.797715
        ]
      }
    },
    {
      "type": "Feature",
      "properties": {
        "type": "original_route_stop",
        "stop_code": "41266",
        "stop_name": "יד לבנים/פאר",
        "marker-color": "#2ca02c",
        "marker-symbol": "bus",
        "marker-size": "medium"
      },
      "geometry": {
        "type": "Point",
        "coordinates": [
          35.016764,
          32.79562
        ]
      }
    },
    {
      "type": "Feature",
      "properties": {
        "type": "original_route_stop",
        "stop_code": "41992",
        "stop_name": "יד לבנים/ערד",
        "marker-color": "#2ca02c",
        "marker-symbol": "bus",
        "marker-size": "medium"
      },
      "geometry": {
        "type": "Point",
        "coordinates": [
          35.018089,
          32.794214
        ]
      }
    },
    {
      "type": "Feature",
      "properties": {
        "type": "original_route_stop",
        "stop_code": "41262",
        "stop_name": "יד לבנים/מעלות דב גרונר",
        "marker-color": "#2ca02c",
        "marker-symbol": "bus",
        "marker-size": "medium"
      },
      "geometry": {
        "type": "Point",
        "coordinates": [
          35.0155,
          32.795499
        ]
      }
    },
    {
      "type": "Feature",
      "properties": {
        "type": "original_route_stop",
        "stop_code": "41263",
        "stop_name": "יד לבנים א",
        "marker-color": "#2ca02c",
        "marker-symbol": "bus",
        "marker-size": "medium"
      },
      "geometry": {
        "type": "Point",
        "coordinates": [
          35.012322,
          32.79734
        ]
      }
    },
    {
      "type": "Feature",
      "properties": {
        "type": "original_route_stop",
        "stop_code": "41264",
        "stop_name": "יד לבנים ב",
        "marker-color": "#2ca02c",
        "marker-symbol": "bus",
        "marker-size": "medium"
      },
      "geometry": {
        "type": "Point",
        "coordinates": [
          35.008957,
          32.798413
        ]
      }
    },
    {
      "type": "Feature",
      "properties": {
        "type": "original_route_stop",
        "stop_code": "41256",
        "stop_name": "יד לבנים/הלל סילבר",
        "marker-color": "#2ca02c",
        "marker-symbol": "bus",
        "marker-size": "medium"
      },
      "geometry": {
        "type": "Point",
        "coordinates": [
          35.007096,
          32.796975
        ]
      }
    },
    {
      "type": "Feature",
      "properties": {
        "type": "original_route_stop",
        "stop_code": "41231",
        "stop_name": "ניסנבוים/פרץ מרקיש",
        "marker-color": "#2ca02c",
        "marker-symbol": "bus",
        "marker-size": "medium"
      },
      "geometry": {
        "type": "Point",
        "coordinates": [
          35.008895,
          32.795378
        ]
      }
    },
    {
      "type": "Feature",
      "properties": {
        "type": "original_route_stop",
        "stop_code": "41236",
        "stop_name": "הגליל/נתיב חן",
        "marker-color": "#2ca02c",
        "marker-symbol": "bus",
        "marker-size": "medium"
      },
      "geometry": {
        "type": "Point",
        "coordinates": [
          35.011436,
          32.795377
        ]
      }
    },
    {
      "type": "Feature",
      "properties": {
        "type": "original_route_stop",
        "stop_code": "41892",
        "stop_name": "הגליל/הבנים",
        "marker-color": "#2ca02c",
        "marker-symbol": "bus",
        "marker-size": "medium"
      },
      "geometry": {
        "type": "Point",
        "coordinates": [
          35.013536,
          32.794061
        ]
      }
    },
    {
      "type": "Feature",
      "properties": {
        "type": "original_route_stop",
        "stop_code": "41893",
        "stop_name": "הגליל/ציון",
        "marker-color": "#2ca02c",
        "marker-symbol": "bus",
        "marker-size": "medium"
      },
      "geometry": {
        "type": "Point",
        "coordinates": [
          35.015937,
          32.792283
        ]
      }
    },
    {
      "type": "Feature",
      "properties": {
        "type": "original_route_stop",
        "stop_code": "43020",
        "stop_name": "הגליל/הבריכה",
        "marker-color": "#2ca02c",
        "marker-symbol": "bus",
        "marker-size": "medium"
      },
      "geometry": {
        "type": "Point",
        "coordinates": [
          35.018829,
          32.789391
        ]
      }
    },
    {
      "type": "Feature",
      "properties": {
        "type": "original_route_stop",
        "stop_code": "40994",
        "stop_name": "פיקא/הראל",
        "marker-color": "#2ca02c",
        "marker-symbol": "bus",
        "marker-size": "medium"
      },
      "geometry": {
        "type": "Point",
        "coordinates": [
          34.991564,
          32.787918
        ]
      }
    },
    {
      "type": "Feature",
      "properties": {
        "type": "original_route_stop",
        "stop_code": "40976",
        "stop_name": "מרכז חורב/חורב",
        "marker-color": "#2ca02c",
        "marker-symbol": "bus",
        "marker-size": "medium"
      },
      "geometry": {
        "type": "Point",
        "coordinates": [
          34.986637,
          32.784166
        ]
      }
    },
    {
      "type": "Feature",
      "properties": {
        "type": "original_route_stop",
        "stop_code": "42367",
        "stop_name": "פרויד/ויתקין",
        "marker-color": "#2ca02c",
        "marker-symbol": "bus",
        "marker-size": "medium"
      },
      "geometry": {
        "type": "Point",
        "coordinates": [
          34.987604,
          32.782407
        ]
      }
    },
    {
      "type": "Feature",
      "properties": {
        "type": "original_route_stop",
        "stop_code": "42661",
        "stop_name": "וינשל/ולנברג",
        "marker-color": "#2ca02c",
        "marker-symbol": "bus",
        "marker-size": "medium"
      },
      "geometry": {
        "type": "Point",
        "coordinates": [
          34.986316,
          32.777961
        ]
      }
    },
    {
      "type": "Feature",
      "properties": {
        "type": "original_route_stop",
        "stop_code": "42388",
        "stop_name": "פלימן/ולנברג",
        "marker-color": "#2ca02c",
        "marker-symbol": "bus",
        "marker-size": "medium"
      },
      "geometry": {
        "type": "Point",
        "coordinates": [
          34.980137,
          32.77869
        ]
      }
    },
    {
      "type": "Feature",
      "properties": {
        "type": "original_route_stop",
        "stop_code": "42825",
        "stop_name": "קניון קסטרא/פלימן",
        "marker-color": "#2ca02c",
        "marker-symbol": "bus",
        "marker-size": "medium"
      },
      "geometry": {
        "type": "Point",
        "coordinates": [
          34.970601,
          32.787758
        ]
      }
    },
    {
      "type": "Feature",
      "properties": {
        "type": "original_route_stop",
        "stop_code": "42506",
        "stop_name": "מרכז הקונגרסים/פלימן",
        "marker-color": "#2ca02c",
        "marker-symbol": "bus",
        "marker-size": "medium"
      },
      "geometry": {
        "type": "Point",
        "coordinates": [
          34.965229,
          32.790444
        ]
      }
    },
    {
      "type": "Feature",
      "properties": {
        "type": "original_route_stop",
        "stop_code": "42656",
        "stop_name": "מת''מ",
        "marker-color": "#2ca02c",
        "marker-symbol": "bus",
        "marker-size": "medium"
      },
      "geometry": {
        "type": "Point",
        "coordinates": [
          34.96134,
          32.790385
        ]
      }
    },
    {
      "type": "Feature",
      "properties": {
        "type": "original_route_stop",
        "stop_code": "42501",
        "stop_name": "סחרוב",
        "marker-color": "#2ca02c",
        "marker-symbol": "bus",
        "marker-size": "medium"
      },
      "geometry": {
        "type": "Point",
        "coordinates": [
          34.958675,
          32.790898
        ]
      }
    },
    {
      "type": "Feature",
      "properties": {
        "type": "original_route_stop",
        "stop_code": "42657",
        "stop_name": "ת. מרכזית חוף הכרמל/הורדה",
        "marker-color": "#2ca02c",
        "marker-symbol": "bus",
        "marker-size": "medium"
      },
      "geometry": {
        "type": "Point",
        "coordinates": [
          34.959587,
          32.793368
        ]
      }
    },
    {
      "type": "Feature",
      "properties": {
        "type": "cancelled_stop",
        "stop_code": "43077",
        "stop_name": "טרומפלדור/חניתה",
        "marker-color": "#ff0000",
        "marker-symbol": "bus",
        "marker-size": "medium"
      },
      "geometry": {
        "type": "Point",
        "coordinates": [
          35.017323,
          32.785034
        ]
      }
    },
    {
      "type": "Feature",
      "properties": {
        "type": "cancelled_stop",
        "stop_code": "41208",
        "stop_name": "טרומפלדור/מרכז זיו",
        "marker-color": "#ff0000",
        "marker-symbol": "bus",
        "marker-size": "medium"
      },
      "geometry": {
        "type": "Point",
        "coordinates": [
          35.014971,
          32.78356
        ]
      }
    },
    {
      "type": "Feature",
      "properties": {
        "type": "cancelled_stop",
        "stop_code": "41201",
        "stop_name": "חנקין/קומוי",
        "marker-color": "#ff0000",
        "marker-symbol": "bus",
        "marker-size": "medium"
      },
      "geometry": {
        "type": "Point",
        "coordinates": [
          35.013178,
          32.782206
        ]
      }
    },
    {
      "type": "Feature",
      "properties": {
        "type": "cancelled_stop",
        "stop_code": "41196",
        "stop_name": "דרך חנקין/בת חן",
        "marker-color": "#ff0000",
        "marker-symbol": "bus",
        "marker-size": "medium"
      },
      "geometry": {
        "type": "Point",
        "coordinates": [
          35.00818,
          32.782348
        ]
      }
    },
    {
      "type": "Feature",
      "properties": {
        "type": "cancelled_stop",
        "stop_code": "41751",
        "stop_name": "חנקין/גוטל לוין",
        "marker-color": "#ff0000",
        "marker-symbol": "bus",
        "marker-size": "medium"
      },
      "geometry": {
        "type": "Point",
        "coordinates": [
          35.003877,
          32.784122
        ]
      }
    },
    {
      "type": "Feature",
      "properties": {
        "type": "new_stop",
        "stop_code": "41210",
        "stop_name": "חניתה/טרומפלדור",
        "marker-color": "#1f9ed6",
        "marker-symbol": "bus",
        "marker-size": "medium"
      },
      "geometry": {
        "type": "Point",
        "coordinates": [
          35.017577,
          32.786016
        ]
      }
    },
    {
      "type": "Feature",
      "properties": {
        "type": "new_stop",
        "stop_code": "42642",
        "stop_name": "שמחה גולן/רטנר",
        "marker-color": "#1f9ed6",
        "marker-symbol": "bus",
        "marker-size": "medium"
      },
      "geometry": {
        "type": "Point",
        "coordinates": [
          35.014321,
          32.787913
        ]
      }
    },
    {
      "type": "Feature",
      "properties": {
        "type": "new_stop",
        "stop_code": "47392",
        "stop_name": "גרנד קניון/שמחה גולן",
        "marker-color": "#1f9ed6",
        "marker-symbol": "bus",
        "marker-size": "medium"
      },
      "geometry": {
        "type": "Point",
        "coordinates": [
          35.008062,
          32.789197
        ]
      }
    },
    {
      "type": "Feature",
      "properties": {
        "type": "new_stop",
        "stop_code": "41969",
        "stop_name": "גרנד קניון/רופין",
        "marker-color": "#1f9ed6",
        "marker-symbol": "bus",
        "marker-size": "medium"
      },
      "geometry": {
        "type": "Point",
        "coordinates": [
          35.003258,
          32.789683
        ]
      }
    },
    {
      "type": "Feature",
      "properties": {
        "type": "reported_block_stop",
        "stop_code": "41201",
        "stop_name": "חנקין/קומוי",
        "marker-color": "#ff8800",
        "marker-symbol": "bus",
        "marker-size": "medium"
      },
      "geometry": {
        "type": "Point",
        "coordinates": [
          35.013178,
          32.782206
        ]
      }
    },
    {
      "type": "Feature",
      "properties": {
        "type": "reported_block_stop",
        "stop_code": "41196",
        "stop_name": "דרך חנקין/בת חן",
        "marker-color": "#ff8800",
        "marker-symbol": "bus",
        "marker-size": "medium"
      },
      "geometry": {
        "type": "Point",
        "coordinates": [
          35.00818,
          32.782348
        ]
      }
    },
    {
      "type": "Feature",
      "properties": {
        "type": "deviate_from_stop",
        "stop_code": "43019",
        "stop_name": "טרומפלדור/התיכון",
        "marker-color": "#8000ff",
        "marker-symbol": "bus",
        "marker-size": "medium"
      },
      "geometry": {
        "type": "Point",
        "coordinates": [
          35.019772,
          32.786572
        ]
      }
    },
    {
      "type": "Feature",
      "properties": {
        "type": "deviate_to_stop",
        "stop_code": "42210",
        "stop_name": "היכל הספורט/פיקא",
        "marker-color": "#8000ff",
        "marker-symbol": "bus",
        "marker-size": "medium"
      },
      "geometry": {
        "type": "Point",
        "coordinates": [
          34.997471,
          32.787035
        ]
      }
    }
  ]
}