{
  "type": "FeatureCollection",
  "features": [
    {
      "type": "Feature",
      "properties": {
        "type": "deviation_path",
        "trip_id": "42755022_020826",
        "shape_id": "165040",
        "stroke": "#00bcd4",
        "stroke-width": 3,
        "stroke-opacity": 0.95
      },
      "geometry": {
        "type": "LineString",
        "coordinates": [
          [
            34.819562963303746,
            32.07871721031647
          ],
          [
            34.819624,
            32.078918
          ],
          [
            34.819772,
            32.079406
          ],
          [
            34.819997,
            32.080148
          ],
          [
            34.82006,
            32.080354
          ],
          [
            34.820153,
            32.080661
          ],
          [
            34.820163,
            32.080694
          ],
          [
            34.82044,
            32.081549
          ],
          [
            34.820621,
            32.082073
          ],
          [
            34.820696,
            32.082215
          ],
          [
            34.820796,
            32.082405
          ],
          [
            34.821232,
            32.083185
          ],
          [
            34.821536,
            32.08373
          ],
          [
            34.821427,
            32.083744
          ],
          [
            34.821193,
            32.083771
          ],
          [
            34.820859,
            32.083814
          ],
          [
            34.820758,
            32.083825
          ],
          [
            34.820269,
            32.083913
          ],
          [
            34.819827,
            32.083993
          ],
          [
            34.819424,
            32.084047
          ],
          [
            34.818563,
            32.083982
          ],
          [
            34.81841,
            32.083971
          ],
          [
            34.817801,
            32.083929
          ],
          [
            34.81718,
            32.08389
          ],
          [
            34.816861,
            32.083889
          ],
          [
            34.816568,
            32.083872
          ],
          [
            34.815966,
            32.083821
          ],
          [
            34.815697,
            32.08381
          ],
          [
            34.815451,
            32.083799
          ],
          [
            34.815416,
            32.083986
          ],
          [
            34.815264,
            32.084813
          ],
          [
            34.815212,
            32.085206
          ],
          [
            34.815195,
            32.085343
          ],
          [
            34.815003,
            32.086367
          ],
          [
            34.814938,
            32.086816
          ],
          [
            34.81491,
            32.087005
          ],
          [
            34.814884,
            32.087389
          ],
          [
            34.814842468418064,
            32.087627007911884
          ]
        ]
      }
    },
    {
      "type": "Feature",
      "properties": {
        "type": "original_route_shape",
        "shape_id": "144349",
        "stroke": "#1f2a7a",
        "stroke-width": 3,
        "stroke-opacity": 0.85
      },
      "geometry": {
        "type": "LineString",
        "coordinates": [
          [
            34.81461131026034,
            32.0461269712098
          ],
          [
            34.814495,
            32.046152
          ],
          [
            34.814337,
            32.046194
          ],
          [
            34.814029,
            32.046313
          ],
          [
            34.813781,
            32.046365
          ],
          [
            34.81389,
            32.046844
          ],
          [
            34.813974,
            32.047397
          ],
          [
            34.81402,
            32.047877
          ],
          [
            34.814031,
            32.048042
          ],
          [
            34.814036,
            32.048112
          ],
          [
            34.814003,
            32.048975
          ],
          [
            34.813978,
            32.049627
          ],
          [
            34.814442,
            32.04965
          ],
          [
            34.814667,
            32.04962
          ],
          [
            34.814826,
            32.049555
          ],
          [
            34.814912,
            32.04952
          ],
          [
            34.815629,
            32.049537
          ],
          [
            34.815639,
            32.049761
          ],
          [
            34.81565,
            32.049973
          ],
          [
            34.815862,
            32.050073
          ],
          [
            34.816069,
            32.050193
          ],
          [
            34.816291,
            32.050323
          ],
          [
            34.816954,
            32.05045
          ],
          [
            34.81732,
            32.05052
          ],
          [
            34.817534,
            32.050558
          ],
          [
            34.81882,
            32.051016
          ],
          [
            34.819002,
            32.051095
          ],
          [
            34.81921,
            32.051186
          ],
          [
            34.819298,
            32.051231
          ],
          [
            34.819525,
            32.051346
          ],
          [
            34.819574,
            32.051374
          ],
          [
            34.81962,
            32.051407
          ],
          [
            34.819635,
            32.051444
          ],
          [
            34.81964,
            32.051496
          ],
          [
            34.819386,
            32.051889
          ],
          [
            34.819065,
            32.052355
          ],
          [
            34.819213,
            32.052441
          ],
          [
            34.81937,
            32.052522
          ],
          [
            34.819557,
            32.052592
          ],
          [
            34.819761,
            32.052636
          ],
          [
            34.819922,
            32.052678
          ],
          [
            34.82025,
            32.052685
          ],
          [
            34.820429,
            32.052658
          ],
          [
            34.820532,
            32.052629
          ],
          [
            34.820666,
            32.05259
          ],
          [
            34.820779,
            32.052553
          ],
          [
            34.820888,
            32.052496
          ],
          [
            34.821052,
            32.052372
          ],
          [
            34.821287,
            32.052205
          ],
          [
            34.821292,
            32.052193
          ],
          [
            34.821301,
            32.052179
          ],
          [
            34.821313,
            32.052166
          ],
          [
            34.821322,
            32.052159
          ],
          [
            34.821338,
            32.05215
          ],
          [
            34.82135,
            32.052146
          ],
          [
            34.821368,
            32.052142
          ],
          [
            34.821381,
            32.052141
          ],
          [
            34.821393,
            32.052141
          ],
          [
            34.821405,
            32.052143
          ],
          [
            34.821417,
            32.052145
          ],
          [
            34.821429,
            32.05215
          ],
          [
            34.82144,
            32.052155
          ],
          [
            34.82145,
            32.052161
          ],
          [
            34.821459,
            32.052169
          ],
          [
            34.821466,
            32.052176
          ],
          [
            34.821476,
            32.052191
          ],
          [
            34.821483,
            32.052206
          ],
          [
            34.821485,
            32.052216
          ],
          [
            34.821486,
            32.052227
          ],
          [
            34.821484,
            32.052243
          ],
          [
            34.821479,
            32.052258
          ],
          [
            34.82147,
            32.052273
          ],
          [
            34.821459,
            32.052285
          ],
          [
            34.821449,
            32.052293
          ],
          [
            34.821442,
            32.052297
          ],
          [
            34.822618,
            32.052981
          ],
          [
            34.822826,
            32.053089
          ],
          [
            34.822963,
            32.05316
          ],
          [
            34.823468,
            32.053345
          ],
          [
            34.823482,
            32.053337
          ],
          [
            34.82351,
            32.05333
          ],
          [
            34.823539,
            32.053329
          ],
          [
            34.823561,
            32.053332
          ],
          [
            34.823581,
            32.053339
          ],
          [
            34.823594,
            32.053346
          ],
          [
            34.823606,
            32.053354
          ],
          [
            34.823613,
            32.05336
          ],
          [
            34.82363,
            32.053379
          ],
          [
            34.823642,
            32.053404
          ],
          [
            34.823645,
            32.053419
          ],
          [
            34.823957,
            32.053632
          ],
          [
            34.824183,
            32.053787
          ],
          [
            34.824574,
            32.054088
          ],
          [
            34.82524,
            32.054512
          ],
          [
            34.825342,
            32.054601
          ],
          [
            34.825677,
            32.054894
          ],
          [
            34.826084,
            32.055285
          ],
          [
            34.826347,
            32.055574
          ],
          [
            34.82639,
            32.055621
          ],
          [
            34.826442,
            32.055678
          ],
          [
            34.826834,
            32.056217
          ],
          [
            34.827005,
            32.056499
          ],
          [
            34.827263,
            32.057008
          ],
          [
            34.827629,
            32.057728
          ],
          [
            34.827638,
            32.057726
          ],
          [
            34.827649,
            32.057725
          ],
          [
            34.827666,
            32.057726
          ],
          [
            34.827682,
            32.057729
          ],
          [
            34.827697,
            32.057735
          ],
          [
            34.82771,
            32.057743
          ],
          [
            34.827718,
            32.057749
          ],
          [
            34.827725,
            32.057757
          ],
          [
            34.827733,
            32.057769
          ],
          [
            34.827739,
            32.057783
          ],
          [
            34.827741,
            32.057791
          ],
          [
            34.827741,
            32.057801
          ],
          [
            34.827741,
            32.05781
          ],
          [
            34.827739,
            32.057819
          ],
          [
            34.827735,
            32.057828
          ],
          [
            34.827731,
            32.057837
          ],
          [
            34.827725,
            32.057845
          ],
          [
            34.827715,
            32.057854
          ],
          [
            34.8279,
            32.058267
          ],
          [
            34.82795,
            32.058386
          ],
          [
            34.828014,
            32.058538
          ],
          [
            34.828029,
            32.058573
          ],
          [
            34.828057,
            32.058636
          ],
          [
            34.828087,
            32.058703
          ],
          [
            34.82811,
            32.058756
          ],
          [
            34.828118,
            32.058782
          ],
          [
            34.828135,
            32.058839
          ],
          [
            34.828177,
            32.059074
          ],
          [
            34.828234,
            32.059313
          ],
          [
            34.828268,
            32.059578
          ],
          [
            34.828294,
            32.059903
          ],
          [
            34.828303,
            32.060001
          ],
          [
            34.828306,
            32.06003
          ],
          [
            34.828316,
            32.060142
          ],
          [
            34.828337,
            32.060622
          ],
          [
            34.828344,
            32.060722
          ],
          [
            34.828364,
            32.061054
          ],
          [
            34.828375,
            32.06118
          ],
          [
            34.828412,
            32.061264
          ],
          [
            34.828437,
            32.061297
          ],
          [
            34.828463,
            32.061321
          ],
          [
            34.828518,
            32.061362
          ],
          [
            34.828622,
            32.061411
          ],
          [
            34.828891,
            32.061408
          ],
          [
            34.829531,
            32.061403
          ],
          [
            34.830226,
            32.061408
          ],
          [
            34.830438,
            32.061422
          ],
          [
            34.830933,
            32.061483
          ],
          [
            34.831202,
            32.06153
          ],
          [
            34.831521,
            32.061608
          ],
          [
            34.831757,
            32.061678
          ],
          [
            34.831923,
            32.061745
          ],
          [
            34.831992,
            32.06178
          ],
          [
            34.832113,
            32.061854
          ],
          [
            34.832284,
            32.061982
          ],
          [
            34.832383,
            32.062071
          ],
          [
            34.832451,
            32.062152
          ],
          [
            34.832502,
            32.062218
          ],
          [
            34.832516,
            32.062242
          ],
          [
            34.832638,
            32.06247
          ],
          [
            34.83269,
            32.062624
          ],
          [
            34.832735,
            32.062832
          ],
          [
            34.832829,
            32.063396
          ],
          [
            34.832862,
            32.063588
          ],
          [
            34.832907,
            32.063802
          ],
          [
            34.832977,
            32.064106
          ],
          [
            34.832998,
            32.064224
          ],
          [
            34.833062,
            32.064578
          ],
          [
            34.83307,
            32.064634
          ],
          [
            34.83308,
            32.064695
          ],
          [
            34.833085,
            32.064839
          ],
          [
            34.833085,
            32.065254
          ],
          [
            34.833044,
            32.06594
          ],
          [
            34.833025,
            32.066192
          ],
          [
            34.832906,
            32.066854
          ],
          [
            34.83283,
            32.067248
          ],
          [
            34.83279,
            32.067545
          ],
          [
            34.832744,
            32.067984
          ],
          [
            34.832702,
            32.068434
          ],
          [
            34.83267,
            32.068867
          ],
          [
            34.832605,
            32.069405
          ],
          [
            34.832564,
            32.069716
          ],
          [
            34.832558,
            32.069908
          ],
          [
            34.832499,
            32.06991
          ],
          [
            34.830838,
            32.069981
          ],
          [
            34.829957,
            32.070037
          ],
          [
            34.829611,
            32.070057
          ],
          [
            34.829423,
            32.070068
          ],
          [
            34.829154,
            32.070093
          ],
          [
            34.82873,
            32.070105
          ],
          [
            34.828614,
            32.070106
          ],
          [
            34.827448,
            32.070199
          ],
          [
            34.82686,
            32.070254
          ],
          [
            34.826712,
            32.070257
          ],
          [
            34.82606,
            32.070297
          ],
          [
            34.825442,
            32.070343
          ],
          [
            34.824735,
            32.070365
          ],
          [
            34.824407,
            32.070385
          ],
          [
            34.824293,
            32.070395
          ],
          [
            34.823649,
            32.070434
          ],
          [
            34.823124,
            32.070477
          ],
          [
            34.822894,
            32.070485
          ],
          [
            34.822554,
            32.070535
          ],
          [
            34.822623,
            32.070691
          ],
          [
            34.822736,
            32.071098
          ],
          [
            34.82279,
            32.071318
          ],
          [
            34.822875,
            32.071636
          ],
          [
            34.822939,
            32.071828
          ],
          [
            34.823039,
            32.072137
          ],
          [
            34.823112,
            32.072432
          ],
          [
            34.823153,
            32.072563
          ],
          [
            34.823217,
            32.072962
          ],
          [
            34.823225,
            32.073047
          ],
          [
            34.823223,
            32.073373
          ],
          [
            34.823137,
            32.073485
          ],
          [
            34.823101,
            32.073573
          ],
          [
            34.823089,
            32.073618
          ],
          [
            34.823079,
            32.073691
          ],
          [
            34.823089,
            32.074613
          ],
          [
            34.823048,
            32.074681
          ],
          [
            34.822468,
            32.0747
          ],
          [
            34.822019,
            32.074722
          ],
          [
            34.821919,
            32.074726
          ],
          [
            34.820972,
            32.074754
          ],
          [
            34.820203,
            32.074789
          ],
          [
            34.820081,
            32.074793
          ],
          [
            34.819947,
            32.074798
          ],
          [
            34.819412,
            32.074816
          ],
          [
            34.818918,
            32.074845
          ],
          [
            34.818637,
            32.074882
          ],
          [
            34.818735,
            32.075362
          ],
          [
            34.818754,
            32.075457
          ],
          [
            34.818866,
            32.075961
          ],
          [
            34.81906,
            32.076843
          ],
          [
            34.819129,
            32.077116
          ],
          [
            34.819162,
            32.077247
          ],
          [
            34.819217,
            32.077454
          ],
          [
            34.819366,
            32.078021
          ],
          [
            34.819402,
            32.078151
          ],
          [
            34.819479,
            32.078441
          ],
          [
            34.819624,
            32.078918
          ],
          [
            34.819772,
            32.079406
          ],
          [
            34.819997,
            32.080148
          ],
          [
            34.82006,
            32.080354
          ],
          [
            34.819946,
            32.080381
          ],
          [
            34.81859,
            32.081002
          ],
          [
            34.818281,
            32.081147
          ],
          [
            34.817917,
            32.081311
          ],
          [
            34.817398,
            32.081546
          ],
          [
            34.817277,
            32.081617
          ],
          [
            34.817082,
            32.081722
          ],
          [
            34.816831,
            32.081858
          ],
          [
            34.816515,
            32.082107
          ],
          [
            34.816361,
            32.082256
          ],
          [
            34.816293,
            32.08233
          ],
          [
            34.816191,
            32.08245
          ],
          [
            34.816165,
            32.082486
          ],
          [
            34.816109,
            32.082562
          ],
          [
            34.81592,
            32.082807
          ],
          [
            34.815841,
            32.082933
          ],
          [
            34.815741,
            32.083116
          ],
          [
            34.8157,
            32.083213
          ],
          [
            34.815648,
            32.083337
          ],
          [
            34.815451,
            32.083799
          ],
          [
            34.815416,
            32.083986
          ],
          [
            34.815264,
            32.084813
          ],
          [
            34.815212,
            32.085206
          ],
          [
            34.815195,
            32.085343
          ],
          [
            34.815003,
            32.086367
          ],
          [
            34.814938,
            32.086816
          ],
          [
            34.81491,
            32.087005
          ],
          [
            34.814884,
            32.087389
          ],
          [
            34.814832,
            32.087687
          ],
          [
            34.814782,
            32.087988
          ],
          [
            34.814754,
            32.088085
          ],
          [
            34.81473,
            32.088136
          ],
          [
            34.814693,
            32.088186
          ],
          [
            34.814605,
            32.088296
          ],
          [
            34.814559,
            32.088328
          ],
          [
            34.814445,
            32.088366
          ],
          [
            34.813951,
            32.088053
          ],
          [
            34.813735,
            32.087917
          ],
          [
            34.813579,
            32.087751
          ],
          [
            34.813403,
            32.087603
          ],
          [
            34.813166,
            32.087435
          ],
          [
            34.812713,
            32.087147
          ],
          [
            34.812093,
            32.086757
          ],
          [
            34.811935,
            32.086692
          ],
          [
            34.811563,
            32.086499
          ],
          [
            34.811255,
            32.086287
          ],
          [
            34.811244,
            32.086279
          ],
          [
            34.810735,
            32.08583
          ],
          [
            34.810616,
            32.085725
          ],
          [
            34.810217,
            32.085307
          ],
          [
            34.810041,
            32.085116
          ],
          [
            34.809731,
            32.084834
          ],
          [
            34.809462,
            32.08462
          ],
          [
            34.809376,
            32.084572
          ],
          [
            34.809091,
            32.084413
          ],
          [
            34.808553,
            32.084209
          ],
          [
            34.807739,
            32.083989
          ],
          [
            34.807673,
            32.083971
          ],
          [
            34.807255,
            32.083856
          ],
          [
            34.807002,
            32.083789
          ],
          [
            34.806854,
            32.083749
          ],
          [
            34.806695,
            32.083705
          ],
          [
            34.806484,
            32.083647
          ],
          [
            34.806278,
            32.08359
          ],
          [
            34.80584,
            32.083467
          ],
          [
            34.805618,
            32.083408
          ],
          [
            34.804696,
            32.083182
          ],
          [
            34.804458,
            32.083108
          ],
          [
            34.804275,
            32.083067
          ],
          [
            34.803967,
            32.083014
          ],
          [
            34.803645,
            32.082975
          ],
          [
            34.803509,
            32.082969
          ],
          [
            34.803442,
            32.082966
          ],
          [
            34.803398,
            32.083603
          ],
          [
            34.803407,
            32.083819
          ],
          [
            34.803439,
            32.084023
          ],
          [
            34.803471,
            32.084119
          ],
          [
            34.803491,
            32.084179
          ],
          [
            34.803632,
            32.084501
          ],
          [
            34.803683,
            32.084569
          ],
          [
            34.803761,
            32.08467
          ],
          [
            34.80397,
            32.084942
          ],
          [
            34.804301,
            32.08533
          ],
          [
            34.804462,
            32.085523
          ],
          [
            34.804515,
            32.085584
          ],
          [
            34.804648,
            32.085736
          ],
          [
            34.804838,
            32.085959
          ],
          [
            34.804893,
            32.086027
          ],
          [
            34.804977,
            32.086132
          ],
          [
            34.805045,
            32.086217
          ],
          [
            34.805277,
            32.08645
          ],
          [
            34.805638,
            32.086864
          ],
          [
            34.805976,
            32.087251
          ],
          [
            34.806024,
            32.087299
          ],
          [
            34.806166,
            32.087453
          ],
          [
            34.806247,
            32.087541
          ],
          [
            34.806399,
            32.087649
          ],
          [
            34.806757,
            32.087873
          ],
          [
            34.807152,
            32.088123
          ],
          [
            34.807472,
            32.088332
          ],
          [
            34.807627,
            32.088439
          ],
          [
            34.807909,
            32.088603
          ],
          [
            34.808578,
            32.088969
          ],
          [
            34.809119,
            32.089293
          ],
          [
            34.809358,
            32.089457
          ],
          [
            34.809863,
            32.089761
          ],
          [
            34.810028,
            32.089865
          ],
          [
            34.810551,
            32.090162
          ],
          [
            34.810931,
            32.090377
          ],
          [
            34.811388,
            32.090561
          ],
          [
            34.811746,
            32.090671
          ],
          [
            34.812919,
            32.091004
          ],
          [
            34.813278,
            32.091106
          ],
          [
            34.813692,
            32.091223
          ],
          [
            34.81405,
            32.091373
          ],
          [
            34.814558,
            32.091687
          ],
          [
            34.815357,
            32.092188
          ],
          [
            34.815599,
            32.092335
          ],
          [
            34.815764,
            32.092435
          ],
          [
            34.815997,
            32.092577
          ],
          [
            34.817235,
            32.093356
          ],
          [
            34.817316,
            32.093409
          ],
          [
            34.81738,
            32.093449
          ],
          [
            34.818031,
            32.093879
          ],
          [
            34.818521,
            32.094212
          ],
          [
            34.818587,
            32.094257
          ],
          [
            34.818643,
            32.094295
          ],
          [
            34.819386,
            32.094819
          ],
          [
            34.819446,
            32.094866
          ],
          [
            34.819565,
            32.094958
          ],
          [
            34.819704,
            32.09505
          ],
          [
            34.819954,
            32.095214
          ],
          [
            34.820025,
            32.095261
          ],
          [
            34.820235,
            32.095401
          ],
          [
            34.820331,
            32.095466
          ],
          [
            34.820693,
            32.095782
          ],
          [
            34.821054,
            32.09616
          ],
          [
            34.821137,
            32.096259
          ],
          [
            34.821379,
            32.096541
          ],
          [
            34.821463,
            32.096636
          ],
          [
            34.821551,
            32.096735
          ],
          [
            34.821386,
            32.096807
          ],
          [
            34.82126,
            32.096901
          ],
          [
            34.821198,
            32.096959
          ],
          [
            34.821174,
            32.097013
          ],
          [
            34.821164,
            32.09709
          ],
          [
            34.821195,
            32.097134
          ],
          [
            34.821226,
            32.097165
          ],
          [
            34.821275,
            32.097196
          ],
          [
            34.821351,
            32.097218
          ],
          [
            34.821553,
            32.097241
          ],
          [
            34.821696,
            32.097275
          ],
          [
            34.821798,
            32.097329
          ],
          [
            34.821901,
            32.097418
          ],
          [
            34.822089,
            32.09759
          ],
          [
            34.822195,
            32.097662
          ],
          [
            34.822322,
            32.097731
          ],
          [
            34.822498,
            32.097817
          ],
          [
            34.822629,
            32.097897
          ],
          [
            34.822794,
            32.098027
          ],
          [
            34.822893,
            32.098099
          ],
          [
            34.822967,
            32.098156
          ],
          [
            34.823057,
            32.098214
          ],
          [
            34.823129,
            32.098257
          ],
          [
            34.823191,
            32.098318
          ],
          [
            34.823223,
            32.098366
          ],
          [
            34.823246,
            32.098444
          ],
          [
            34.823273,
            32.098609
          ],
          [
            34.823293,
            32.09865
          ],
          [
            34.823312,
            32.098685
          ],
          [
            34.823334,
            32.09871
          ],
          [
            34.823389,
            32.098752
          ],
          [
            34.82351,
            32.098814
          ],
          [
            34.823599,
            32.09884
          ],
          [
            34.823688,
            32.098851
          ],
          [
            34.823803,
            32.098841
          ],
          [
            34.824002,
            32.098796
          ],
          [
            34.824138,
            32.098773
          ],
          [
            34.824267,
            32.098762
          ],
          [
            34.82441,
            32.09876
          ],
          [
            34.824624,
            32.098781
          ],
          [
            34.824835,
            32.09882
          ],
          [
            34.824889,
            32.098829
          ],
          [
            34.825127,
            32.098935
          ],
          [
            34.825303,
            32.099024
          ],
          [
            34.82542717492251,
            32.09911734528658
          ]
        ]
      }
    },
    {
      "type": "Feature",
      "properties": {
        "type": "original_route_stop",
        "stop_code": "26014",
        "stop_name": "איצטדיון וינטר",
        "marker-color": "#2ca02c",
        "marker-symbol": "bus",
        "marker-size": "medium"
      },
      "geometry": {
        "type": "Point",
        "coordinates": [
          34.814621,
          32.046172
        ]
      }
    },
    {
      "type": "Feature",
      "properties": {
        "type": "original_route_stop",
        "stop_code": "26064",
        "stop_name": "כיכר הרב פרדס/שלם",
        "marker-color": "#2ca02c",
        "marker-symbol": "bus",
        "marker-size": "medium"
      },
      "geometry": {
        "type": "Point",
        "coordinates": [
          34.814432,
          32.049604
        ]
      }
    },
    {
      "type": "Feature",
      "properties": {
        "type": "original_route_stop",
        "stop_code": "26144",
        "stop_name": "עזריאל/גבעתי",
        "marker-color": "#2ca02c",
        "marker-symbol": "bus",
        "marker-size": "medium"
      },
      "geometry": {
        "type": "Point",
        "coordinates": [
          34.817367,
          32.050482
        ]
      }
    },
    {
      "type": "Feature",
      "properties": {
        "type": "original_route_stop",
        "stop_code": "26148",
        "stop_name": "יהדות פילדלפיה/עזריאל",
        "marker-color": "#2ca02c",
        "marker-symbol": "bus",
        "marker-size": "medium"
      },
      "geometry": {
        "type": "Point",
        "coordinates": [
          34.819522,
          32.051771
        ]
      }
    },
    {
      "type": "Feature",
      "properties": {
        "type": "original_route_stop",
        "stop_code": "26149",
        "stop_name": "שלום עליכם/סן מרטין",
        "marker-color": "#2ca02c",
        "marker-symbol": "bus",
        "marker-size": "medium"
      },
      "geometry": {
        "type": "Point",
        "coordinates": [
          34.820763,
          32.052509
        ]
      }
    },
    {
      "type": "Feature",
      "properties": {
        "type": "original_route_stop",
        "stop_code": "26151",
        "stop_name": "כפר המכביה/ברנשטיין",
        "marker-color": "#2ca02c",
        "marker-symbol": "bus",
        "marker-size": "medium"
      },
      "geometry": {
        "type": "Point",
        "coordinates": [
          34.824428,
          32.053915
        ]
      }
    },
    {
      "type": "Feature",
      "properties": {
        "type": "original_route_stop",
        "stop_code": "26167",
        "stop_name": "ברנשטיין/אלוף שדה",
        "marker-color": "#2ca02c",
        "marker-symbol": "bus",
        "marker-size": "medium"
      },
      "geometry": {
        "type": "Point",
        "coordinates": [
          34.827039,
          32.056456
        ]
      }
    },
    {
      "type": "Feature",
      "properties": {
        "type": "original_route_stop",
        "stop_code": "21319",
        "stop_name": "הירדן/ אלוף שדה",
        "marker-color": "#2ca02c",
        "marker-symbol": "bus",
        "marker-size": "medium"
      },
      "geometry": {
        "type": "Point",
        "coordinates": [
          34.828287,
          32.059308
        ]
      }
    },
    {
      "type": "Feature",
      "properties": {
        "type": "original_route_stop",
        "stop_code": "26178",
        "stop_name": "בן אליעזר/הירדן",
        "marker-color": "#2ca02c",
        "marker-symbol": "bus",
        "marker-size": "medium"
      },
      "geometry": {
        "type": "Point",
        "coordinates": [
          34.828984,
          32.061362
        ]
      }
    },
    {
      "type": "Feature",
      "properties": {
        "type": "original_route_stop",
        "stop_code": "26461",
        "stop_name": "בן אליעזר/פנחס רוטנברג",
        "marker-color": "#2ca02c",
        "marker-symbol": "bus",
        "marker-size": "medium"
      },
      "geometry": {
        "type": "Point",
        "coordinates": [
          34.832808,
          32.062954
        ]
      }
    },
    {
      "type": "Feature",
      "properties": {
        "type": "original_route_stop",
        "stop_code": "28577",
        "stop_name": "בן אליעזר/אצ''ל",
        "marker-color": "#2ca02c",
        "marker-symbol": "bus",
        "marker-size": "medium"
      },
      "geometry": {
        "type": "Point",
        "coordinates": [
          34.832924,
          32.067036
        ]
      }
    },
    {
      "type": "Feature",
      "properties": {
        "type": "original_route_stop",
        "stop_code": "28620",
        "stop_name": "בית ראסל/אריה בן אליעזר",
        "marker-color": "#2ca02c",
        "marker-symbol": "bus",
        "marker-size": "medium"
      },
      "geometry": {
        "type": "Point",
        "coordinates": [
          34.832731,
          32.068757
        ]
      }
    },
    {
      "type": "Feature",
      "properties": {
        "type": "original_route_stop",
        "stop_code": "26222",
        "stop_name": "דרך נגבה/בן אליעזר",
        "marker-color": "#2ca02c",
        "marker-symbol": "bus",
        "marker-size": "medium"
      },
      "geometry": {
        "type": "Point",
        "coordinates": [
          34.831939,
          32.069979
        ]
      }
    },
    {
      "type": "Feature",
      "properties": {
        "type": "original_route_stop",
        "stop_code": "21568",
        "stop_name": "נגבה/ הירדן",
        "marker-color": "#2ca02c",
        "marker-symbol": "bus",
        "marker-size": "medium"
      },
      "geometry": {
        "type": "Point",
        "coordinates": [
          34.827992,
          32.070201
        ]
      }
    },
    {
      "type": "Feature",
      "properties": {
        "type": "original_route_stop",
        "stop_code": "21566",
        "stop_name": "נגבה/ הרא''ה",
        "marker-color": "#2ca02c",
        "marker-symbol": "bus",
        "marker-size": "medium"
      },
      "geometry": {
        "type": "Point",
        "coordinates": [
          34.825556,
          32.07038
        ]
      }
    },
    {
      "type": "Feature",
      "properties": {
        "type": "original_route_stop",
        "stop_code": "26206",
        "stop_name": "ביה''ס חורב/עוזיאל",
        "marker-color": "#2ca02c",
        "marker-symbol": "bus",
        "marker-size": "medium"
      },
      "geometry": {
        "type": "Point",
        "coordinates": [
          34.823049,
          32.071997
        ]
      }
    },
    {
      "type": "Feature",
      "properties": {
        "type": "original_route_stop",
        "stop_code": "26208",
        "stop_name": "שד. ירושלים/ עוזיאל",
        "marker-color": "#2ca02c",
        "marker-symbol": "bus",
        "marker-size": "medium"
      },
      "geometry": {
        "type": "Point",
        "coordinates": [
          34.822264,
          32.074755
        ]
      }
    },
    {
      "type": "Feature",
      "properties": {
        "type": "original_route_stop",
        "stop_code": "26199",
        "stop_name": "שד' ירושלים/דרך בן גוריון",
        "marker-color": "#2ca02c",
        "marker-symbol": "bus",
        "marker-size": "medium"
      },
      "geometry": {
        "type": "Point",
        "coordinates": [
          34.819256,
          32.07487
        ]
      }
    },
    {
      "type": "Feature",
      "properties": {
        "type": "original_route_stop",
        "stop_code": "26201",
        "stop_name": "בן גוריון/ כצנלסון",
        "marker-color": "#2ca02c",
        "marker-symbol": "bus",
        "marker-size": "medium"
      },
      "geometry": {
        "type": "Point",
        "coordinates": [
          34.819015,
          32.076395
        ]
      }
    },
    {
      "type": "Feature",
      "properties": {
        "type": "original_route_stop",
        "stop_code": "21354",
        "stop_name": "ת.רק''ל ביאליק/דרך ז'בוטינסקי",
        "marker-color": "#2ca02c",
        "marker-symbol": "bus",
        "marker-size": "medium"
      },
      "geometry": {
        "type": "Point",
        "coordinates": [
          34.8128,
          32.087259
        ]
      }
    },
    {
      "type": "Feature",
      "properties": {
        "type": "original_route_stop",
        "stop_code": "21654",
        "stop_name": "דרך ז'בוטינסקי/ביאליק",
        "marker-color": "#2ca02c",
        "marker-symbol": "bus",
        "marker-size": "medium"
      },
      "geometry": {
        "type": "Point",
        "coordinates": [
          34.810136,
          32.085293
        ]
      }
    },
    {
      "type": "Feature",
      "properties": {
        "type": "original_route_stop",
        "stop_code": "23034",
        "stop_name": "דרך ז'בוטינסקי/גלעד",
        "marker-color": "#2ca02c",
        "marker-symbol": "bus",
        "marker-size": "medium"
      },
      "geometry": {
        "type": "Point",
        "coordinates": [
          34.806421,
          32.083677
        ]
      }
    },
    {
      "type": "Feature",
      "properties": {
        "type": "original_route_stop",
        "stop_code": "26248",
        "stop_name": "ת.רק''ל אבא הלל",
        "marker-color": "#2ca02c",
        "marker-symbol": "bus",
        "marker-size": "medium"
      },
      "geometry": {
        "type": "Point",
        "coordinates": [
          34.803468,
          32.083873
        ]
      }
    },
    {
      "type": "Feature",
      "properties": {
        "type": "original_route_stop",
        "stop_code": "26258",
        "stop_name": "דרך אבא הלל/ביאליק",
        "marker-color": "#2ca02c",
        "marker-symbol": "bus",
        "marker-size": "medium"
      },
      "geometry": {
        "type": "Point",
        "coordinates": [
          34.807448,
          32.08826
        ]
      }
    },
    {
      "type": "Feature",
      "properties": {
        "type": "original_route_stop",
        "stop_code": "26286",
        "stop_name": "דרך אבא הלל/רוקח",
        "marker-color": "#2ca02c",
        "marker-symbol": "bus",
        "marker-size": "medium"
      },
      "geometry": {
        "type": "Point",
        "coordinates": [
          34.810376,
          32.090008
        ]
      }
    },
    {
      "type": "Feature",
      "properties": {
        "type": "original_route_stop",
        "stop_code": "26289",
        "stop_name": "דרך אבא הלל/התקווה",
        "marker-color": "#2ca02c",
        "marker-symbol": "bus",
        "marker-size": "medium"
      },
      "geometry": {
        "type": "Point",
        "coordinates": [
          34.813685,
          32.091173
        ]
      }
    },
    {
      "type": "Feature",
      "properties": {
        "type": "original_route_stop",
        "stop_code": "26353",
        "stop_name": "דרך אבא הלל/רש''י",
        "marker-color": "#2ca02c",
        "marker-symbol": "bus",
        "marker-size": "medium"
      },
      "geometry": {
        "type": "Point",
        "coordinates": [
          34.816607,
          32.092905
        ]
      }
    },
    {
      "type": "Feature",
      "properties": {
        "type": "original_route_stop",
        "stop_code": "26356",
        "stop_name": "מוזיאון לאמנות/דרך אבא הלל",
        "marker-color": "#2ca02c",
        "marker-symbol": "bus",
        "marker-size": "medium"
      },
      "geometry": {
        "type": "Point",
        "coordinates": [
          34.81994,
          32.095148
        ]
      }
    },
    {
      "type": "Feature",
      "properties": {
        "type": "original_route_stop",
        "stop_code": "26438",
        "stop_name": "קניון איילון",
        "marker-color": "#2ca02c",
        "marker-symbol": "bus",
        "marker-size": "medium"
      },
      "geometry": {
        "type": "Point",
        "coordinates": [
          34.825456,
          32.099079
        ]
      }
    },
    {
      "type": "Feature",
      "properties": {
        "type": "cancelled_stop",
        "stop_code": "26332",
        "stop_name": "הרצל/קריניצי",
        "marker-color": "#ff0000",
        "marker-symbol": "bus",
        "marker-size": "medium"
      },
      "geometry": {
        "type": "Point",
        "coordinates": [
          34.818264,
          32.081206
        ]
      }
    },
    {
      "type": "Feature",
      "properties": {
        "type": "cancelled_stop",
        "stop_code": "21660",
        "stop_name": "הרצל/קופת חולים",
        "marker-color": "#ff0000",
        "marker-symbol": "bus",
        "marker-size": "medium"
      },
      "geometry": {
        "type": "Point",
        "coordinates": [
          34.816128,
          32.082619
        ]
      }
    },
    {
      "type": "Feature",
      "properties": {
        "type": "new_stop",
        "stop_code": "21228",
        "stop_name": "בן גוריון/ החץ",
        "marker-color": "#1f9ed6",
        "marker-symbol": "bus",
        "marker-size": "medium"
      },
      "geometry": {
        "type": "Point",
        "coordinates": [
          34.820663,
          32.082033
        ]
      }
    },
    {
      "type": "Feature",
      "properties": {
        "type": "new_stop",
        "stop_code": "26326",
        "stop_name": "הרא''ה/הרצל",
        "marker-color": "#1f9ed6",
        "marker-symbol": "bus",
        "marker-size": "medium"
      },
      "geometry": {
        "type": "Point",
        "coordinates": [
          34.816328,
          32.083897
        ]
      }
    },
    {
      "type": "Feature",
      "properties": {
        "type": "reported_block_stop",
        "stop_code": "26332",
        "stop_name": "הרצל/קריניצי",
        "marker-color": "#ff8800",
        "marker-symbol": "bus",
        "marker-size": "medium"
      },
      "geometry": {
        "type": "Point",
        "coordinates": [
          34.818264,
          32.081206
        ]
      }
    },
    {
      "type": "Feature",
      "properties": {
        "type": "reported_block_stop",
        "stop_code": "21660",
        "stop_name": "הרצל/קופת חולים",
        "marker-color": "#ff8800",
        "marker-symbol": "bus",
        "marker-size": "medium"
      },
      "geometry": {
        "type": "Point",
        "coordinates": [
          34.816128,
          32.082619
        ]
      }
    },
    {
      "type": "Feature",
      "properties": {
        "type": "deviate_from_stop",
        "stop_code": "26203",
        "stop_name": "בן גוריון/ סירקין",
        "marker-color": "#8000ff",
        "marker-symbol": "bus",
        "marker-size": "medium"
      },
      "geometry": {
        "type": "Point",
        "coordinates": [
          34.819613,
          32.078702
        ]
      }
    },
    {
      "type": "Feature",
      "properties": {
        "type": "deviate_to_stop",
        "stop_code": "26283",
        "stop_name": "הרצל/דרך ז'בוטינסקי",
        "marker-color": "#8000ff",
        "marker-symbol": "bus",
        "marker-size": "medium"
      },
      "geometry": {
        "type": "Point",
        "coordinates": [
          34.814894,
          32.087636
        ]
      }
    }
  ]
}