{
  "type": "FeatureCollection",
  "features": [
    {
      "type": "Feature",
      "properties": {
        "type": "deviation_path_edge",
        "from_stop_code": "33163",
        "to_stop_code": "33196",
        "stroke": "#00bcd4",
        "stroke-width": 3,
        "stroke-opacity": 0.95
      },
      "geometry": {
        "type": "LineString",
        "coordinates": [
          [
            34.76325789297752,
            32.00582913656291
          ],
          [
            34.763837,
            32.005869
          ],
          [
            34.764146,
            32.005933
          ],
          [
            34.764403,
            32.005964
          ],
          [
            34.764606,
            32.005986
          ],
          [
            34.764671,
            32.005998
          ],
          [
            34.764655,
            32.0061
          ],
          [
            34.764638,
            32.006202
          ],
          [
            34.764625,
            32.006337
          ],
          [
            34.764625,
            32.006499
          ],
          [
            34.76462798369883,
            32.0065500958424
          ]
        ]
      }
    },
    {
      "type": "Feature",
      "properties": {
        "type": "deviation_path_edge",
        "from_stop_code": "33196",
        "to_stop_code": "36182",
        "stroke": "#00bcd4",
        "stroke-width": 3,
        "stroke-opacity": 0.95
      },
      "geometry": {
        "type": "LineString",
        "coordinates": [
          [
            34.76462798369883,
            32.0065500958424
          ],
          [
            34.764657,
            32.007047
          ],
          [
            34.764689,
            32.007615
          ],
          [
            34.76472,
            32.007996
          ],
          [
            34.764702,
            32.008064
          ],
          [
            34.764763,
            32.00844
          ],
          [
            34.76478867360472,
            32.00871890870584
          ]
        ]
      }
    },
    {
      "type": "Feature",
      "properties": {
        "type": "deviation_path_edge",
        "from_stop_code": "36182",
        "to_stop_code": "36184",
        "stroke": "#00bcd4",
        "stroke-width": 3,
        "stroke-opacity": 0.95
      },
      "geometry": {
        "type": "LineString",
        "coordinates": [
          [
            34.76478867360472,
            32.00871890870584
          ],
          [
            34.764829,
            32.009157
          ],
          [
            34.764892,
            32.00985
          ],
          [
            34.764946,
            32.010006
          ],
          [
            34.76496,
            32.010253
          ],
          [
            34.76496441154225,
            32.01064758794549
          ]
        ]
      }
    },
    {
      "type": "Feature",
      "properties": {
        "type": "deviation_path_edge",
        "from_stop_code": "36184",
        "to_stop_code": "34067",
        "stroke": "#00bcd4",
        "stroke-width": 3,
        "stroke-opacity": 0.95
      },
      "geometry": {
        "type": "LineString",
        "coordinates": [
          [
            34.76496441154225,
            32.01064758794549
          ],
          [
            34.764969,
            32.011058
          ],
          [
            34.764966,
            32.012283
          ],
          [
            34.7649593016241,
            32.01254062984223
          ]
        ]
      }
    },
    {
      "type": "Feature",
      "properties": {
        "type": "deviation_path_edge",
        "from_stop_code": "34067",
        "to_stop_code": "37659",
        "stroke": "#00bcd4",
        "stroke-width": 3,
        "stroke-opacity": 0.95
      },
      "geometry": {
        "type": "LineString",
        "coordinates": [
          [
            34.7649593016241,
            32.01254062984223
          ],
          [
            34.764953,
            32.012783
          ],
          [
            34.764946,
            32.013187
          ],
          [
            34.764933,
            32.014057
          ],
          [
            34.764941,
            32.014428
          ],
          [
            34.764947,
            32.014506
          ],
          [
            34.764955,
            32.014789
          ],
          [
            34.764964,
            32.015168
          ],
          [
            34.764929,
            32.016009
          ],
          [
            34.764925,
            32.016067
          ],
          [
            34.764946,
            32.016472
          ],
          [
            34.7649404353505,
            32.01655236008537
          ]
        ]
      }
    },
    {
      "type": "Feature",
      "properties": {
        "type": "deviation_path_edge",
        "from_stop_code": "37659",
        "to_stop_code": "36274",
        "stroke": "#00bcd4",
        "stroke-width": 3,
        "stroke-opacity": 0.95
      },
      "geometry": {
        "type": "LineString",
        "coordinates": [
          [
            34.7649404353505,
            32.01655236008537
          ],
          [
            34.764912,
            32.016963
          ],
          [
            34.76492,
            32.017358
          ],
          [
            34.76491,
            32.017547
          ],
          [
            34.76491,
            32.017593
          ],
          [
            34.764896,
            32.017929
          ],
          [
            34.764902,
            32.018371
          ],
          [
            34.764966,
            32.018439
          ],
          [
            34.765072,
            32.018519
          ],
          [
            34.765208,
            32.018563
          ],
          [
            34.765675,
            32.018568
          ],
          [
            34.765830240671264,
            32.0185535459109
          ]
        ]
      }
    },
    {
      "type": "Feature",
      "properties": {
        "type": "deviation_path_edge",
        "from_stop_code": "36274",
        "to_stop_code": "31460",
        "stroke": "#00bcd4",
        "stroke-width": 3,
        "stroke-opacity": 0.95
      },
      "geometry": {
        "type": "LineString",
        "coordinates": [
          [
            34.765830240671264,
            32.0185535459109
          ],
          [
            34.766502,
            32.018491
          ],
          [
            34.766661,
            32.018457
          ],
          [
            34.767264,
            32.018389
          ],
          [
            34.767352,
            32.018379
          ],
          [
            34.768135,
            32.018337
          ],
          [
            34.76830444896145,
            32.018324018023115
          ]
        ]
      }
    },
    {
      "type": "Feature",
      "properties": {
        "type": "deviation_path_edge",
        "from_stop_code": "31460",
        "to_stop_code": "39739",
        "stroke": "#00bcd4",
        "stroke-width": 3,
        "stroke-opacity": 0.95
      },
      "geometry": {
        "type": "LineString",
        "coordinates": [
          [
            34.76830444896145,
            32.018324018023115
          ],
          [
            34.768631,
            32.018299
          ],
          [
            34.769086,
            32.018245
          ],
          [
            34.769805,
            32.018156
          ],
          [
            34.770607,
            32.01802
          ],
          [
            34.770711,
            32.018007
          ],
          [
            34.770994,
            32.017989
          ],
          [
            34.771448,
            32.017922
          ],
          [
            34.771642,
            32.017893
          ],
          [
            34.771739,
            32.017878
          ],
          [
            34.772126,
            32.017821
          ],
          [
            34.772174,
            32.017814
          ],
          [
            34.772584,
            32.017753
          ],
          [
            34.77272,
            32.017733
          ],
          [
            34.772914,
            32.017704
          ],
          [
            34.773247,
            32.017654
          ],
          [
            34.773703,
            32.017598
          ],
          [
            34.77401657056332,
            32.017566503990686
          ]
        ]
      }
    },
    {
      "type": "Feature",
      "properties": {
        "type": "original_route_shape",
        "shape_id": "165415",
        "stroke": "#1f2a7a",
        "stroke-width": 3,
        "stroke-opacity": 0.85
      },
      "geometry": {
        "type": "LineString",
        "coordinates": [
          [
            34.767378247060655,
            31.99808325105785
          ],
          [
            34.767385,
            31.998368
          ],
          [
            34.767439,
            31.998952
          ],
          [
            34.767473,
            31.999223
          ],
          [
            34.767482,
            31.999297
          ],
          [
            34.767503,
            31.999483
          ],
          [
            34.767597,
            32.00054
          ],
          [
            34.767625,
            32.000814
          ],
          [
            34.76763,
            32.000845
          ],
          [
            34.767644,
            32.00093
          ],
          [
            34.767691,
            32.001256
          ],
          [
            34.767727,
            32.001505
          ],
          [
            34.767829,
            32.002346
          ],
          [
            34.767909,
            32.002867
          ],
          [
            34.7678,
            32.002946
          ],
          [
            34.767143,
            32.003022
          ],
          [
            34.766644,
            32.003104
          ],
          [
            34.766571,
            32.003116
          ],
          [
            34.766569,
            32.003126
          ],
          [
            34.766561,
            32.003144
          ],
          [
            34.766545,
            32.003166
          ],
          [
            34.766523,
            32.003184
          ],
          [
            34.766497,
            32.003196
          ],
          [
            34.766475,
            32.003202
          ],
          [
            34.766445,
            32.003204
          ],
          [
            34.76644,
            32.003203
          ],
          [
            34.766416,
            32.003199
          ],
          [
            34.766388,
            32.003189
          ],
          [
            34.766365,
            32.003173
          ],
          [
            34.766351,
            32.003158
          ],
          [
            34.76634,
            32.003141
          ],
          [
            34.766333,
            32.003122
          ],
          [
            34.766331,
            32.003097
          ],
          [
            34.766335,
            32.003072
          ],
          [
            34.766347,
            32.003048
          ],
          [
            34.766356,
            32.003037
          ],
          [
            34.766361,
            32.003033
          ],
          [
            34.766199,
            32.002933
          ],
          [
            34.766107,
            32.002894
          ],
          [
            34.765764,
            32.002786
          ],
          [
            34.7655,
            32.002722
          ],
          [
            34.765018,
            32.002641
          ],
          [
            34.764627,
            32.002578
          ],
          [
            34.764349,
            32.002585
          ],
          [
            34.763987,
            32.002586
          ],
          [
            34.763667,
            32.002618
          ],
          [
            34.763467,
            32.002621
          ],
          [
            34.76294,
            32.002648
          ],
          [
            34.762589,
            32.002677
          ],
          [
            34.762613,
            32.002806
          ],
          [
            34.762808,
            32.003277
          ],
          [
            34.762891,
            32.003503
          ],
          [
            34.762899,
            32.003534
          ],
          [
            34.762981,
            32.003772
          ],
          [
            34.763127,
            32.003973
          ],
          [
            34.763193,
            32.004023
          ],
          [
            34.763516,
            32.004289
          ],
          [
            34.76323,
            32.004863
          ],
          [
            34.763116,
            32.005165
          ],
          [
            34.763089,
            32.005367
          ],
          [
            34.763065,
            32.005551
          ],
          [
            34.763038,
            32.005814
          ],
          [
            34.763837,
            32.005869
          ],
          [
            34.764146,
            32.005933
          ],
          [
            34.764403,
            32.005964
          ],
          [
            34.764606,
            32.005986
          ],
          [
            34.764616,
            32.00594
          ],
          [
            34.764655,
            32.005823
          ],
          [
            34.764699,
            32.005704
          ],
          [
            34.764765,
            32.005654
          ],
          [
            34.76485,
            32.005481
          ],
          [
            34.764932,
            32.005371
          ],
          [
            34.765094,
            32.005186
          ],
          [
            34.765134,
            32.005157
          ],
          [
            34.765232,
            32.005083
          ],
          [
            34.765394,
            32.004994
          ],
          [
            34.765596,
            32.004926
          ],
          [
            34.766075,
            32.004854
          ],
          [
            34.766268,
            32.004831
          ],
          [
            34.766632,
            32.004788
          ],
          [
            34.767278,
            32.004741
          ],
          [
            34.767333,
            32.004712
          ],
          [
            34.768028,
            32.004634
          ],
          [
            34.768065,
            32.004632
          ],
          [
            34.768136,
            32.004627
          ],
          [
            34.768144,
            32.004691
          ],
          [
            34.768162,
            32.004831
          ],
          [
            34.768172,
            32.004907
          ],
          [
            34.768197,
            32.00519
          ],
          [
            34.768199,
            32.00525
          ],
          [
            34.768206,
            32.005464
          ],
          [
            34.768212,
            32.005617
          ],
          [
            34.768189,
            32.005691
          ],
          [
            34.768308,
            32.006451
          ],
          [
            34.768377,
            32.006753
          ],
          [
            34.768846,
            32.008261
          ],
          [
            34.769297,
            32.009735
          ],
          [
            34.769421,
            32.010451
          ],
          [
            34.769617,
            32.011651
          ],
          [
            34.769831,
            32.012993
          ],
          [
            34.769854,
            32.013159
          ],
          [
            34.769868,
            32.013237
          ],
          [
            34.769945,
            32.013689
          ],
          [
            34.769958,
            32.013769
          ],
          [
            34.770068,
            32.014382
          ],
          [
            34.77016,
            32.015038
          ],
          [
            34.770172,
            32.015112
          ],
          [
            34.770245,
            32.015547
          ],
          [
            34.77034,
            32.016076
          ],
          [
            34.770462,
            32.016583
          ],
          [
            34.770497,
            32.016722
          ],
          [
            34.77055,
            32.017178
          ],
          [
            34.77066,
            32.017806
          ],
          [
            34.770719,
            32.01788
          ],
          [
            34.770753,
            32.017905
          ],
          [
            34.770769,
            32.017913
          ],
          [
            34.770844,
            32.017947
          ],
          [
            34.770994,
            32.017989
          ],
          [
            34.771448,
            32.017922
          ],
          [
            34.771642,
            32.017893
          ],
          [
            34.771739,
            32.017878
          ],
          [
            34.772126,
            32.017821
          ],
          [
            34.772174,
            32.017814
          ],
          [
            34.772914,
            32.017704
          ],
          [
            34.773247,
            32.017654
          ],
          [
            34.773703,
            32.017598
          ],
          [
            34.77438,
            32.01753
          ],
          [
            34.774707,
            32.01749
          ],
          [
            34.774928,
            32.017443
          ],
          [
            34.775445,
            32.017386
          ],
          [
            34.775495,
            32.017382
          ],
          [
            34.775588,
            32.017376
          ],
          [
            34.775952,
            32.017363
          ],
          [
            34.7763,
            32.017341
          ],
          [
            34.776789,
            32.017311
          ],
          [
            34.777682,
            32.017266
          ],
          [
            34.777915,
            32.017254
          ],
          [
            34.778566,
            32.017211
          ],
          [
            34.778644,
            32.017207
          ],
          [
            34.779327,
            32.017167
          ],
          [
            34.779827,
            32.017138
          ],
          [
            34.780031,
            32.017123
          ],
          [
            34.780114,
            32.017116
          ],
          [
            34.780263,
            32.0171
          ],
          [
            34.780775,
            32.01703
          ],
          [
            34.780985,
            32.016999
          ],
          [
            34.781303,
            32.016963
          ],
          [
            34.781576,
            32.016899
          ],
          [
            34.781601,
            32.016893
          ],
          [
            34.781853,
            32.016821
          ],
          [
            34.781902,
            32.0168
          ],
          [
            34.782079,
            32.016726
          ],
          [
            34.782165,
            32.01668
          ],
          [
            34.782261,
            32.01663
          ],
          [
            34.782436,
            32.016525
          ],
          [
            34.782542,
            32.016461
          ],
          [
            34.78318,
            32.016036
          ],
          [
            34.783635,
            32.015755
          ],
          [
            34.784053,
            32.015478
          ],
          [
            34.784091,
            32.015454
          ],
          [
            34.784155,
            32.015414
          ],
          [
            34.784275,
            32.015337
          ],
          [
            34.784415,
            32.015259
          ],
          [
            34.78538,
            32.014751
          ],
          [
            34.785483,
            32.014614
          ],
          [
            34.785536,
            32.014508
          ],
          [
            34.785557,
            32.014392
          ],
          [
            34.785558,
            32.014233
          ],
          [
            34.785532,
            32.014133
          ],
          [
            34.785497,
            32.013906
          ],
          [
            34.785369,
            32.012926
          ],
          [
            34.785354,
            32.012922
          ],
          [
            34.785341,
            32.012917
          ],
          [
            34.785322,
            32.012907
          ],
          [
            34.78531,
            32.012898
          ],
          [
            34.7853,
            32.012888
          ],
          [
            34.785292,
            32.012877
          ],
          [
            34.785285,
            32.012866
          ],
          [
            34.78528,
            32.012854
          ],
          [
            34.785277,
            32.012841
          ],
          [
            34.785276,
            32.012822
          ],
          [
            34.785279,
            32.012802
          ],
          [
            34.785286,
            32.012784
          ],
          [
            34.785297,
            32.012767
          ],
          [
            34.785311,
            32.012752
          ],
          [
            34.785322,
            32.012743
          ],
          [
            34.785341,
            32.012733
          ],
          [
            34.785219,
            32.011647
          ],
          [
            34.785191,
            32.011317
          ],
          [
            34.785137,
            32.010913
          ],
          [
            34.785137,
            32.010843
          ],
          [
            34.78509,
            32.010563
          ],
          [
            34.785066,
            32.010431
          ],
          [
            34.785028,
            32.010214
          ],
          [
            34.784971,
            32.009773
          ],
          [
            34.784842,
            32.008908
          ],
          [
            34.784833,
            32.00885
          ],
          [
            34.78477,
            32.008208
          ],
          [
            34.784751,
            32.008035
          ],
          [
            34.784722,
            32.007852
          ],
          [
            34.784643,
            32.007212
          ],
          [
            34.784476,
            32.005858
          ],
          [
            34.784425,
            32.005454
          ],
          [
            34.784402,
            32.005214
          ],
          [
            34.784398,
            32.005135
          ],
          [
            34.78449,
            32.005135
          ],
          [
            34.784635,
            32.005135
          ],
          [
            34.78508,
            32.005111
          ],
          [
            34.785659,
            32.00508
          ],
          [
            34.785837,
            32.00507
          ],
          [
            34.786523,
            32.005042
          ],
          [
            34.788043,
            32.004954
          ],
          [
            34.788972,
            32.004901
          ],
          [
            34.789577,
            32.004866
          ],
          [
            34.789921,
            32.004845
          ],
          [
            34.789923,
            32.004845
          ],
          [
            34.790762,
            32.004792
          ],
          [
            34.791682,
            32.004735
          ],
          [
            34.791812,
            32.00472
          ],
          [
            34.792025,
            32.004715
          ],
          [
            34.792535,
            32.004687
          ],
          [
            34.792762,
            32.004675
          ],
          [
            34.79313,
            32.004655
          ],
          [
            34.793222,
            32.00465
          ],
          [
            34.793513,
            32.004635
          ],
          [
            34.793968,
            32.004617
          ],
          [
            34.794793,
            32.004644
          ],
          [
            34.79535,
            32.004694
          ],
          [
            34.795429,
            32.004701
          ],
          [
            34.795594,
            32.004725
          ],
          [
            34.795977,
            32.00478
          ],
          [
            34.796373,
            32.004834
          ],
          [
            34.796734,
            32.004907
          ],
          [
            34.796878,
            32.004942
          ],
          [
            34.79704,
            32.004978
          ],
          [
            34.797174,
            32.005008
          ],
          [
            34.797275,
            32.005036
          ],
          [
            34.79769,
            32.005147
          ],
          [
            34.797947,
            32.005227
          ],
          [
            34.798076,
            32.005269
          ],
          [
            34.798384,
            32.005375
          ],
          [
            34.798683,
            32.005493
          ],
          [
            34.798802,
            32.005533
          ],
          [
            34.79892,
            32.00557
          ],
          [
            34.799021,
            32.005605
          ],
          [
            34.799098,
            32.005641
          ],
          [
            34.799151,
            32.00567
          ],
          [
            34.799379,
            32.005806
          ],
          [
            34.799604,
            32.005923
          ],
          [
            34.799881,
            32.006071
          ],
          [
            34.800145,
            32.006245
          ],
          [
            34.800398,
            32.00645
          ],
          [
            34.800633,
            32.006632
          ],
          [
            34.800848,
            32.006827
          ],
          [
            34.801249,
            32.00718
          ],
          [
            34.801429,
            32.007333
          ],
          [
            34.801506,
            32.0074
          ],
          [
            34.801577,
            32.007452
          ],
          [
            34.801685,
            32.007552
          ],
          [
            34.801744,
            32.007615
          ],
          [
            34.801839,
            32.007734
          ],
          [
            34.801866,
            32.007768
          ],
          [
            34.801898,
            32.007807
          ],
          [
            34.80201,
            32.007944
          ],
          [
            34.802794,
            32.008947
          ],
          [
            34.802818,
            32.008945
          ],
          [
            34.80284,
            32.008945
          ],
          [
            34.802861,
            32.008948
          ],
          [
            34.802882,
            32.008953
          ],
          [
            34.802902,
            32.00896
          ],
          [
            34.80292,
            32.008969
          ],
          [
            34.802937,
            32.00898
          ],
          [
            34.802945,
            32.008986
          ],
          [
            34.802958,
            32.008997
          ],
          [
            34.803227,
            32.008906
          ],
          [
            34.803667,
            32.008758
          ],
          [
            34.80389,
            32.008683
          ],
          [
            34.803985,
            32.008651
          ],
          [
            34.805054,
            32.008272
          ],
          [
            34.805056,
            32.008261
          ],
          [
            34.80506,
            32.008247
          ],
          [
            34.805067,
            32.008233
          ],
          [
            34.805076,
            32.00822
          ],
          [
            34.805081,
            32.008214
          ],
          [
            34.805092,
            32.008203
          ],
          [
            34.805104,
            32.008193
          ],
          [
            34.805118,
            32.008184
          ],
          [
            34.805126,
            32.008181
          ],
          [
            34.805141,
            32.008175
          ],
          [
            34.805151,
            32.008172
          ],
          [
            34.805166,
            32.008169
          ],
          [
            34.805183,
            32.008167
          ],
          [
            34.8052,
            32.008168
          ],
          [
            34.805217,
            32.00817
          ],
          [
            34.805233,
            32.008174
          ],
          [
            34.805241,
            32.008176
          ],
          [
            34.805256,
            32.008183
          ],
          [
            34.805269,
            32.00819
          ],
          [
            34.80668,
            32.007951
          ],
          [
            34.807579,
            32.007779
          ],
          [
            34.807585,
            32.007766
          ],
          [
            34.807592,
            32.007753
          ],
          [
            34.807607,
            32.007736
          ],
          [
            34.807618,
            32.007728
          ],
          [
            34.807626,
            32.007722
          ],
          [
            34.80764,
            32.007714
          ],
          [
            34.807655,
            32.007708
          ],
          [
            34.807679,
            32.007701
          ],
          [
            34.807696,
            32.007699
          ],
          [
            34.807705,
            32.007698
          ],
          [
            34.80773,
            32.0077
          ],
          [
            34.807755,
            32.007704
          ],
          [
            34.807778,
            32.007713
          ],
          [
            34.807794,
            32.007722
          ],
          [
            34.807799,
            32.007725
          ],
          [
            34.807817,
            32.00774
          ],
          [
            34.807831,
            32.007757
          ],
          [
            34.807841,
            32.007776
          ],
          [
            34.807846,
            32.007797
          ],
          [
            34.807847,
            32.00781
          ],
          [
            34.807846,
            32.007824
          ],
          [
            34.807843,
            32.007838
          ],
          [
            34.807834,
            32.007858
          ],
          [
            34.807821,
            32.007876
          ],
          [
            34.807805,
            32.007891
          ],
          [
            34.8078,
            32.007894
          ],
          [
            34.807865,
            32.008591
          ],
          [
            34.807986,
            32.00941
          ],
          [
            34.80803,
            32.009961
          ],
          [
            34.808065,
            32.010255
          ],
          [
            34.808183,
            32.011518
          ],
          [
            34.808229,
            32.01187
          ],
          [
            34.808418,
            32.013131
          ],
          [
            34.808476,
            32.01336
          ],
          [
            34.808497,
            32.013442
          ],
          [
            34.808576,
            32.013643
          ],
          [
            34.808675,
            32.013838
          ],
          [
            34.808978,
            32.014419
          ],
          [
            34.809048,
            32.01452
          ],
          [
            34.80894,
            32.014568
          ],
          [
            34.808847,
            32.014608
          ],
          [
            34.808783,
            32.014637
          ],
          [
            34.808617,
            32.014713
          ],
          [
            34.808541,
            32.014761
          ],
          [
            34.808466,
            32.014813
          ],
          [
            34.808439,
            32.014839
          ],
          [
            34.808344,
            32.01493
          ],
          [
            34.808208,
            32.015096
          ],
          [
            34.807999,
            32.015355
          ],
          [
            34.807726,
            32.015682
          ],
          [
            34.807333,
            32.016129
          ],
          [
            34.806766,
            32.016839
          ],
          [
            34.806577,
            32.017063
          ],
          [
            34.80632,
            32.017357
          ],
          [
            34.80607,
            32.017652
          ],
          [
            34.805883,
            32.017863
          ],
          [
            34.805528,
            32.018246
          ],
          [
            34.804836,
            32.019071
          ],
          [
            34.804498,
            32.019449
          ],
          [
            34.80434,
            32.019632
          ],
          [
            34.804327,
            32.01976
          ],
          [
            34.804318,
            32.019842
          ],
          [
            34.804328,
            32.019909
          ],
          [
            34.804414,
            32.020063
          ],
          [
            34.804649,
            32.020255
          ],
          [
            34.804856729986525,
            32.02042171663021
          ]
        ]
      }
    },
    {
      "type": "Feature",
      "properties": {
        "type": "original_route_stop",
        "stop_code": "36319",
        "stop_name": "בן גוריון/רבינוביץ",
        "marker-color": "#2ca02c",
        "marker-symbol": "bus",
        "marker-size": "medium"
      },
      "geometry": {
        "type": "Point",
        "coordinates": [
          34.767431,
          31.998082
        ]
      }
    },
    {
      "type": "Feature",
      "properties": {
        "type": "original_route_stop",
        "stop_code": "35900",
        "stop_name": "אהרונוביץ'/משה דיין",
        "marker-color": "#2ca02c",
        "marker-symbol": "bus",
        "marker-size": "medium"
      },
      "geometry": {
        "type": "Point",
        "coordinates": [
          34.767782,
          32.001519
        ]
      }
    },
    {
      "type": "Feature",
      "properties": {
        "type": "original_route_stop",
        "stop_code": "34493",
        "stop_name": "ארבע ארצות/דולפין",
        "marker-color": "#2ca02c",
        "marker-symbol": "bus",
        "marker-size": "medium"
      },
      "geometry": {
        "type": "Point",
        "coordinates": [
          34.765612,
          32.002796
        ]
      }
    },
    {
      "type": "Feature",
      "properties": {
        "type": "original_route_stop",
        "stop_code": "33382",
        "stop_name": "הסנהדרין/הסבוראים",
        "marker-color": "#2ca02c",
        "marker-symbol": "bus",
        "marker-size": "medium"
      },
      "geometry": {
        "type": "Point",
        "coordinates": [
          34.763204,
          32.003971
        ]
      }
    },
    {
      "type": "Feature",
      "properties": {
        "type": "original_route_stop",
        "stop_code": "36381",
        "stop_name": "ההסתדרות/חנקין",
        "marker-color": "#2ca02c",
        "marker-symbol": "bus",
        "marker-size": "medium"
      },
      "geometry": {
        "type": "Point",
        "coordinates": [
          34.777356,
          32.017237
        ]
      }
    },
    {
      "type": "Feature",
      "properties": {
        "type": "original_route_stop",
        "stop_code": "36386",
        "stop_name": "ההסתדרות/ראש פינה",
        "marker-color": "#2ca02c",
        "marker-symbol": "bus",
        "marker-size": "medium"
      },
      "geometry": {
        "type": "Point",
        "coordinates": [
          34.780855,
          32.016972
        ]
      }
    },
    {
      "type": "Feature",
      "properties": {
        "type": "original_route_stop",
        "stop_code": "36398",
        "stop_name": "ההסתדרות/גאולים",
        "marker-color": "#2ca02c",
        "marker-symbol": "bus",
        "marker-size": "medium"
      },
      "geometry": {
        "type": "Point",
        "coordinates": [
          34.783367,
          32.015864
        ]
      }
    },
    {
      "type": "Feature",
      "properties": {
        "type": "original_route_stop",
        "stop_code": "35809",
        "stop_name": "דוד אלעזר/ההסתדרות",
        "marker-color": "#2ca02c",
        "marker-symbol": "bus",
        "marker-size": "medium"
      },
      "geometry": {
        "type": "Point",
        "coordinates": [
          34.785474,
          32.014101
        ]
      }
    },
    {
      "type": "Feature",
      "properties": {
        "type": "original_route_stop",
        "stop_code": "37093",
        "stop_name": "דוד אלעזר/גולדה מאיר",
        "marker-color": "#2ca02c",
        "marker-symbol": "bus",
        "marker-size": "medium"
      },
      "geometry": {
        "type": "Point",
        "coordinates": [
          34.784968,
          32.010164
        ]
      }
    },
    {
      "type": "Feature",
      "properties": {
        "type": "original_route_stop",
        "stop_code": "39737",
        "stop_name": "דוד אלעזר/קרן היסוד",
        "marker-color": "#2ca02c",
        "marker-symbol": "bus",
        "marker-size": "medium"
      },
      "geometry": {
        "type": "Point",
        "coordinates": [
          34.784654,
          32.007736
        ]
      }
    },
    {
      "type": "Feature",
      "properties": {
        "type": "original_route_stop",
        "stop_code": "34732",
        "stop_name": "דוד אלעזר/בגין",
        "marker-color": "#2ca02c",
        "marker-symbol": "bus",
        "marker-size": "medium"
      },
      "geometry": {
        "type": "Point",
        "coordinates": [
          34.784441,
          32.006013
        ]
      }
    },
    {
      "type": "Feature",
      "properties": {
        "type": "original_route_stop",
        "stop_code": "34447",
        "stop_name": "מפרץ שלמה/קרית שמונה",
        "marker-color": "#2ca02c",
        "marker-symbol": "bus",
        "marker-size": "medium"
      },
      "geometry": {
        "type": "Point",
        "coordinates": [
          34.78605,
          32.005016
        ]
      }
    },
    {
      "type": "Feature",
      "properties": {
        "type": "original_route_stop",
        "stop_code": "34448",
        "stop_name": "מפרץ שלמה/גבעת התחמושת",
        "marker-color": "#2ca02c",
        "marker-symbol": "bus",
        "marker-size": "medium"
      },
      "geometry": {
        "type": "Point",
        "coordinates": [
          34.790265,
          32.004778
        ]
      }
    },
    {
      "type": "Feature",
      "properties": {
        "type": "original_route_stop",
        "stop_code": "36344",
        "stop_name": "ימית 2000/מפרץ שלמה",
        "marker-color": "#2ca02c",
        "marker-symbol": "bus",
        "marker-size": "medium"
      },
      "geometry": {
        "type": "Point",
        "coordinates": [
          34.793908,
          32.004574
        ]
      }
    },
    {
      "type": "Feature",
      "properties": {
        "type": "original_route_stop",
        "stop_code": "36346",
        "stop_name": "מפרץ שלמה/רמת הגולן",
        "marker-color": "#2ca02c",
        "marker-symbol": "bus",
        "marker-size": "medium"
      },
      "geometry": {
        "type": "Point",
        "coordinates": [
          34.797373,
          32.005015
        ]
      }
    },
    {
      "type": "Feature",
      "properties": {
        "type": "original_route_stop",
        "stop_code": "3400",
        "stop_name": "הלהב/הכישור",
        "marker-color": "#2ca02c",
        "marker-symbol": "bus",
        "marker-size": "medium"
      },
      "geometry": {
        "type": "Point",
        "coordinates": [
          34.800498,
          32.006467
        ]
      }
    },
    {
      "type": "Feature",
      "properties": {
        "type": "original_route_stop",
        "stop_code": "36417",
        "stop_name": "האורגים/המנור",
        "marker-color": "#2ca02c",
        "marker-symbol": "bus",
        "marker-size": "medium"
      },
      "geometry": {
        "type": "Point",
        "coordinates": [
          34.804726,
          32.008339
        ]
      }
    },
    {
      "type": "Feature",
      "properties": {
        "type": "original_route_stop",
        "stop_code": "39787",
        "stop_name": "האורגים/המרכבה",
        "marker-color": "#2ca02c",
        "marker-symbol": "bus",
        "marker-size": "medium"
      },
      "geometry": {
        "type": "Point",
        "coordinates": [
          34.807276,
          32.007791
        ]
      }
    },
    {
      "type": "Feature",
      "properties": {
        "type": "original_route_stop",
        "stop_code": "35847",
        "stop_name": "חצי חינם/המרכבה",
        "marker-color": "#2ca02c",
        "marker-symbol": "bus",
        "marker-size": "medium"
      },
      "geometry": {
        "type": "Point",
        "coordinates": [
          34.808141,
          32.010495
        ]
      }
    },
    {
      "type": "Feature",
      "properties": {
        "type": "original_route_stop",
        "stop_code": "35857",
        "stop_name": "המרכבה/המשביר",
        "marker-color": "#2ca02c",
        "marker-symbol": "bus",
        "marker-size": "medium"
      },
      "geometry": {
        "type": "Point",
        "coordinates": [
          34.808329,
          32.012184
        ]
      }
    },
    {
      "type": "Feature",
      "properties": {
        "type": "original_route_stop",
        "stop_code": "35858",
        "stop_name": "המרכבה",
        "marker-color": "#2ca02c",
        "marker-symbol": "bus",
        "marker-size": "medium"
      },
      "geometry": {
        "type": "Point",
        "coordinates": [
          34.807676,
          32.015813
        ]
      }
    },
    {
      "type": "Feature",
      "properties": {
        "type": "original_route_stop",
        "stop_code": "34517",
        "stop_name": "המרכבה/הבנאי",
        "marker-color": "#2ca02c",
        "marker-symbol": "bus",
        "marker-size": "medium"
      },
      "geometry": {
        "type": "Point",
        "coordinates": [
          34.806057,
          32.017741
        ]
      }
    },
    {
      "type": "Feature",
      "properties": {
        "type": "original_route_stop",
        "stop_code": "33768",
        "stop_name": "המלאכה/השבעה",
        "marker-color": "#2ca02c",
        "marker-symbol": "bus",
        "marker-size": "medium"
      },
      "geometry": {
        "type": "Point",
        "coordinates": [
          34.804887,
          32.020384
        ]
      }
    },
    {
      "type": "Feature",
      "properties": {
        "type": "cancelled_stop",
        "stop_code": "36324",
        "stop_name": "מקס וג'סי הכהן/אהרונוביץ'",
        "marker-color": "#ff0000",
        "marker-symbol": "bus",
        "marker-size": "medium"
      },
      "geometry": {
        "type": "Point",
        "coordinates": [
          34.766861,
          32.004726
        ]
      }
    },
    {
      "type": "Feature",
      "properties": {
        "type": "cancelled_stop",
        "stop_code": "33206",
        "stop_name": "אהרונוביץ'/הציונות",
        "marker-color": "#ff0000",
        "marker-symbol": "bus",
        "marker-size": "medium"
      },
      "geometry": {
        "type": "Point",
        "coordinates": [
          34.768546,
          32.00712
        ]
      }
    },
    {
      "type": "Feature",
      "properties": {
        "type": "cancelled_stop",
        "stop_code": "33222",
        "stop_name": "אהרונוביץ'/דוד רמז",
        "marker-color": "#ff0000",
        "marker-symbol": "bus",
        "marker-size": "medium"
      },
      "geometry": {
        "type": "Point",
        "coordinates": [
          34.769511,
          32.010679
        ]
      }
    },
    {
      "type": "Feature",
      "properties": {
        "type": "cancelled_stop",
        "stop_code": "33223",
        "stop_name": "אהרונוביץ'/הופיין",
        "marker-color": "#ff0000",
        "marker-symbol": "bus",
        "marker-size": "medium"
      },
      "geometry": {
        "type": "Point",
        "coordinates": [
          34.769841,
          32.012722
        ]
      }
    },
    {
      "type": "Feature",
      "properties": {
        "type": "cancelled_stop",
        "stop_code": "33895",
        "stop_name": "עיריית חולון/ויצמן",
        "marker-color": "#ff0000",
        "marker-symbol": "bus",
        "marker-size": "medium"
      },
      "geometry": {
        "type": "Point",
        "coordinates": [
          34.770573,
          32.016918
        ]
      }
    },
    {
      "type": "Feature",
      "properties": {
        "type": "new_stop",
        "stop_code": "33196",
        "stop_name": "אילת/התנאים",
        "marker-color": "#1f9ed6",
        "marker-symbol": "bus",
        "marker-size": "medium"
      },
      "geometry": {
        "type": "Point",
        "coordinates": [
          34.764681,
          32.006547
        ]
      }
    },
    {
      "type": "Feature",
      "properties": {
        "type": "new_stop",
        "stop_code": "36182",
        "stop_name": "מכללת תלפיות/אילת",
        "marker-color": "#1f9ed6",
        "marker-symbol": "bus",
        "marker-size": "medium"
      },
      "geometry": {
        "type": "Point",
        "coordinates": [
          34.764842,
          32.008714
        ]
      }
    },
    {
      "type": "Feature",
      "properties": {
        "type": "new_stop",
        "stop_code": "36184",
        "stop_name": "אילת/דוד רמז",
        "marker-color": "#1f9ed6",
        "marker-symbol": "bus",
        "marker-size": "medium"
      },
      "geometry": {
        "type": "Point",
        "coordinates": [
          34.765017,
          32.010647
        ]
      }
    },
    {
      "type": "Feature",
      "properties": {
        "type": "new_stop",
        "stop_code": "34067",
        "stop_name": "אילת/יוספטל",
        "marker-color": "#1f9ed6",
        "marker-symbol": "bus",
        "marker-size": "medium"
      },
      "geometry": {
        "type": "Point",
        "coordinates": [
          34.765012,
          32.012542
        ]
      }
    },
    {
      "type": "Feature",
      "properties": {
        "type": "new_stop",
        "stop_code": "37659",
        "stop_name": "אילת/חצרים",
        "marker-color": "#1f9ed6",
        "marker-symbol": "bus",
        "marker-size": "medium"
      },
      "geometry": {
        "type": "Point",
        "coordinates": [
          34.764993,
          32.016556
        ]
      }
    },
    {
      "type": "Feature",
      "properties": {
        "type": "new_stop",
        "stop_code": "36274",
        "stop_name": "מרכז נאות רחל/ההסתדרות",
        "marker-color": "#1f9ed6",
        "marker-symbol": "bus",
        "marker-size": "medium"
      },
      "geometry": {
        "type": "Point",
        "coordinates": [
          34.765826,
          32.018508
        ]
      }
    },
    {
      "type": "Feature",
      "properties": {
        "type": "new_stop",
        "stop_code": "31460",
        "stop_name": "ההסתדרות/אחד במאי",
        "marker-color": "#1f9ed6",
        "marker-symbol": "bus",
        "marker-size": "medium"
      },
      "geometry": {
        "type": "Point",
        "coordinates": [
          34.768301,
          32.018279
        ]
      }
    },
    {
      "type": "Feature",
      "properties": {
        "type": "reported_block_stop",
        "stop_code": "33206",
        "stop_name": "אהרונוביץ'/הציונות",
        "marker-color": "#ff8800",
        "marker-symbol": "bus",
        "marker-size": "medium"
      },
      "geometry": {
        "type": "Point",
        "coordinates": [
          34.768546,
          32.00712
        ]
      }
    },
    {
      "type": "Feature",
      "properties": {
        "type": "reported_block_stop",
        "stop_code": "33222",
        "stop_name": "אהרונוביץ'/דוד רמז",
        "marker-color": "#ff8800",
        "marker-symbol": "bus",
        "marker-size": "medium"
      },
      "geometry": {
        "type": "Point",
        "coordinates": [
          34.769511,
          32.010679
        ]
      }
    },
    {
      "type": "Feature",
      "properties": {
        "type": "deviate_from_stop",
        "stop_code": "33163",
        "stop_name": "התנאים/האמוראים",
        "marker-color": "#8000ff",
        "marker-symbol": "bus",
        "marker-size": "medium"
      },
      "geometry": {
        "type": "Point",
        "coordinates": [
          34.763261,
          32.005784
        ]
      }
    },
    {
      "type": "Feature",
      "properties": {
        "type": "deviate_to_stop",
        "stop_code": "39739",
        "stop_name": "ההסתדרות/שנקר",
        "marker-color": "#8000ff",
        "marker-symbol": "bus",
        "marker-size": "medium"
      },
      "geometry": {
        "type": "Point",
        "coordinates": [
          34.774012,
          32.017521
        ]
      }
    }
  ]
}