{
  "type": "FeatureCollection",
  "features": [
    {
      "type": "Feature",
      "properties": {
        "type": "deviation_path",
        "trip_id": "1303074_020826",
        "shape_id": "124880",
        "stroke": "#00bcd4",
        "stroke-width": 3,
        "stroke-opacity": 0.95
      },
      "geometry": {
        "type": "LineString",
        "coordinates": [
          [
            34.99441897010117,
            32.807529488272195
          ],
          [
            34.994474,
            32.807503
          ],
          [
            34.994776,
            32.807376
          ],
          [
            34.994919,
            32.807318
          ],
          [
            34.995558,
            32.807138
          ],
          [
            34.995752,
            32.807069
          ],
          [
            34.995818,
            32.807039
          ],
          [
            34.995946,
            32.806983
          ],
          [
            34.996173,
            32.806862
          ],
          [
            34.997213,
            32.806265
          ],
          [
            34.997381,
            32.806158
          ],
          [
            34.997421,
            32.806129
          ],
          [
            34.997565,
            32.806024
          ],
          [
            34.997697,
            32.805874
          ],
          [
            34.997891,
            32.805689
          ],
          [
            34.99805,
            32.805529
          ],
          [
            34.998288,
            32.805311
          ],
          [
            34.998338,
            32.805245
          ],
          [
            34.998434,
            32.805155
          ],
          [
            34.998538,
            32.805087
          ],
          [
            34.998642,
            32.805032
          ],
          [
            34.998733,
            32.804984
          ],
          [
            34.998763,
            32.804968
          ],
          [
            34.998852,
            32.804916
          ],
          [
            34.998865,
            32.804908
          ],
          [
            34.999033,
            32.8048
          ],
          [
            34.99926,
            32.804725
          ],
          [
            34.999386,
            32.804685
          ],
          [
            34.999539,
            32.804654
          ],
          [
            34.999703,
            32.804613
          ],
          [
            34.99982,
            32.804596
          ],
          [
            34.999952,
            32.804597
          ],
          [
            35.000082,
            32.804603
          ],
          [
            35.000157,
            32.804617
          ],
          [
            35.000242,
            32.804652
          ],
          [
            35.000333,
            32.804714
          ],
          [
            35.000516,
            32.804944
          ],
          [
            35.000567,
            32.805024
          ],
          [
            35.000608,
            32.805123
          ],
          [
            35.000673,
            32.805334
          ],
          [
            35.000762,
            32.805848
          ],
          [
            35.000758,
            32.805922
          ],
          [
            35.000805,
            32.806012
          ],
          [
            35.000826,
            32.806038
          ],
          [
            35.000846,
            32.806053
          ],
          [
            35.000873,
            32.806061
          ],
          [
            35.000902,
            32.806062
          ],
          [
            35.000949,
            32.806059
          ],
          [
            35.001069,
            32.805981
          ],
          [
            35.001129,
            32.805909
          ],
          [
            35.001259,
            32.805746
          ],
          [
            35.00139,
            32.805576
          ],
          [
            35.001519,
            32.805368
          ],
          [
            35.001532,
            32.805344
          ],
          [
            35.00171,
            32.805064
          ],
          [
            35.001817,
            32.804895
          ],
          [
            35.001963,
            32.80504
          ],
          [
            35.002163,
            32.805221
          ],
          [
            35.00237,
            32.805432
          ],
          [
            35.00259,
            32.805658
          ],
          [
            35.002606,
            32.805693
          ],
          [
            35.002612,
            32.805717
          ],
          [
            35.002608,
            32.805753
          ],
          [
            35.002557,
            32.805817
          ],
          [
            35.00239,
            32.806037
          ],
          [
            35.002329,
            32.80612
          ],
          [
            35.00214,
            32.806374
          ],
          [
            35.001993,
            32.80657
          ],
          [
            35.0018,
            32.806829
          ],
          [
            35.0017,
            32.806973
          ],
          [
            35.001572,
            32.80713
          ],
          [
            35.001492,
            32.80721
          ],
          [
            35.001434,
            32.807268
          ],
          [
            35.001177,
            32.807492
          ],
          [
            35.000831,
            32.807824
          ],
          [
            35.000661,
            32.80798
          ],
          [
            35.000382,
            32.808226
          ],
          [
            35.000281,
            32.808313
          ],
          [
            35.000238,
            32.808351
          ],
          [
            34.99977,
            32.808789
          ],
          [
            34.999433,
            32.809102
          ],
          [
            34.999137,
            32.809393
          ],
          [
            34.999022,
            32.809506
          ],
          [
            34.99892,
            32.809629
          ],
          [
            34.998833,
            32.809783
          ],
          [
            34.998608,
            32.81018
          ],
          [
            34.998416,
            32.810516
          ],
          [
            34.998314,
            32.8107
          ],
          [
            34.998254,
            32.81081
          ],
          [
            34.998173,
            32.810944
          ],
          [
            34.998133,
            32.811008
          ],
          [
            34.998076,
            32.811097
          ],
          [
            34.997853,
            32.811392
          ],
          [
            34.997783,
            32.811469
          ],
          [
            34.997699,
            32.811542
          ],
          [
            34.997643,
            32.811589
          ],
          [
            34.997614,
            32.811613
          ],
          [
            34.997512,
            32.811736
          ],
          [
            34.997298,
            32.811985
          ],
          [
            34.99726061981628,
            32.81202501696016
          ]
        ]
      }
    },
    {
      "type": "Feature",
      "properties": {
        "type": "original_route_shape",
        "shape_id": "104194",
        "stroke": "#1f2a7a",
        "stroke-width": 3,
        "stroke-opacity": 0.85
      },
      "geometry": {
        "type": "LineString",
        "coordinates": [
          [
            35.021838335503546,
            32.75878983388853
          ],
          [
            35.021578,
            32.758999
          ],
          [
            35.021502,
            32.75906
          ],
          [
            35.021321,
            32.759182
          ],
          [
            35.021183,
            32.759322
          ],
          [
            35.020797,
            32.759648
          ],
          [
            35.020664,
            32.759761
          ],
          [
            35.020599,
            32.759811
          ],
          [
            35.020453,
            32.759908
          ],
          [
            35.020408,
            32.759968
          ],
          [
            35.020371,
            32.760036
          ],
          [
            35.020267,
            32.760207
          ],
          [
            35.020206,
            32.760326
          ],
          [
            35.02009,
            32.760501
          ],
          [
            35.01999,
            32.760651
          ],
          [
            35.019983,
            32.760656
          ],
          [
            35.019771,
            32.760903
          ],
          [
            35.019702,
            32.760999
          ],
          [
            35.019701,
            32.761004
          ],
          [
            35.019696,
            32.761017
          ],
          [
            35.01969,
            32.761029
          ],
          [
            35.019682,
            32.76104
          ],
          [
            35.019672,
            32.76105
          ],
          [
            35.019656,
            32.761063
          ],
          [
            35.019632,
            32.761075
          ],
          [
            35.019615,
            32.76108
          ],
          [
            35.019601,
            32.761082
          ],
          [
            35.019586,
            32.761083
          ],
          [
            35.019571,
            32.761083
          ],
          [
            35.019565,
            32.761082
          ],
          [
            35.019556,
            32.76108
          ],
          [
            35.019542,
            32.761077
          ],
          [
            35.019528,
            32.761071
          ],
          [
            35.019515,
            32.761065
          ],
          [
            35.019507,
            32.761059
          ],
          [
            35.019251,
            32.761249
          ],
          [
            35.019083,
            32.761397
          ],
          [
            35.019042,
            32.761433
          ],
          [
            35.018938,
            32.761512
          ],
          [
            35.018461,
            32.761876
          ],
          [
            35.017434,
            32.762686
          ],
          [
            35.01723,
            32.762853
          ],
          [
            35.017036,
            32.763015
          ],
          [
            35.016798,
            32.763207
          ],
          [
            35.01663,
            32.76335
          ],
          [
            35.016506,
            32.763475
          ],
          [
            35.016382,
            32.763569
          ],
          [
            35.015747,
            32.764089
          ],
          [
            35.015674,
            32.764149
          ],
          [
            35.015556,
            32.764263
          ],
          [
            35.015495,
            32.764322
          ],
          [
            35.015428,
            32.764392
          ],
          [
            35.015342,
            32.764481
          ],
          [
            35.015108,
            32.764727
          ],
          [
            35.015083,
            32.764755
          ],
          [
            35.014959,
            32.764893
          ],
          [
            35.014879,
            32.764982
          ],
          [
            35.014667,
            32.765204
          ],
          [
            35.014629,
            32.76523
          ],
          [
            35.014586,
            32.765246
          ],
          [
            35.014533,
            32.765263
          ],
          [
            35.014485,
            32.76527
          ],
          [
            35.01443,
            32.765272
          ],
          [
            35.014365,
            32.765263
          ],
          [
            35.014316,
            32.765254
          ],
          [
            35.014262,
            32.765239
          ],
          [
            35.014212,
            32.765224
          ],
          [
            35.014125,
            32.765187
          ],
          [
            35.014095,
            32.765182
          ],
          [
            35.014059,
            32.765184
          ],
          [
            35.013943,
            32.765272
          ],
          [
            35.013826,
            32.765352
          ],
          [
            35.013727,
            32.765416
          ],
          [
            35.01352,
            32.765547
          ],
          [
            35.013111,
            32.765761
          ],
          [
            35.012752,
            32.765964
          ],
          [
            35.012462,
            32.766159
          ],
          [
            35.012323,
            32.766267
          ],
          [
            35.012204,
            32.766381
          ],
          [
            35.0121,
            32.766494
          ],
          [
            35.011748,
            32.766863
          ],
          [
            35.011466,
            32.767113
          ],
          [
            35.011439,
            32.767134
          ],
          [
            35.011398,
            32.767176
          ],
          [
            35.011239,
            32.767288
          ],
          [
            35.01114,
            32.767362
          ],
          [
            35.010454,
            32.76775
          ],
          [
            35.00995,
            32.767952
          ],
          [
            35.00952,
            32.768062
          ],
          [
            35.008986,
            32.768144
          ],
          [
            35.008639,
            32.768206
          ],
          [
            35.008409,
            32.768255
          ],
          [
            35.008189,
            32.768341
          ],
          [
            35.007934,
            32.768506
          ],
          [
            35.007723,
            32.768704
          ],
          [
            35.0077,
            32.768733
          ],
          [
            35.007321,
            32.769241
          ],
          [
            35.007233,
            32.769354
          ],
          [
            35.007139,
            32.769481
          ],
          [
            35.007125,
            32.769501
          ],
          [
            35.007114,
            32.769546
          ],
          [
            35.007082,
            32.76968
          ],
          [
            35.00708,
            32.769687
          ],
          [
            35.007063,
            32.769901
          ],
          [
            35.007073,
            32.770134
          ],
          [
            35.007081,
            32.770221
          ],
          [
            35.007093,
            32.770377
          ],
          [
            35.007091,
            32.770567
          ],
          [
            35.007088,
            32.770675
          ],
          [
            35.006989,
            32.771038
          ],
          [
            35.006542,
            32.771818
          ],
          [
            35.005989,
            32.77247
          ],
          [
            35.005978,
            32.772483
          ],
          [
            35.005748,
            32.772716
          ],
          [
            35.005566,
            32.7729
          ],
          [
            35.005032,
            32.773324
          ],
          [
            35.004263,
            32.77391
          ],
          [
            35.004219,
            32.77394
          ],
          [
            35.003903,
            32.77416
          ],
          [
            35.003758,
            32.774236
          ],
          [
            35.00328,
            32.774456
          ],
          [
            35.00295,
            32.774598
          ],
          [
            35.002578,
            32.774767
          ],
          [
            35.00236,
            32.77489
          ],
          [
            35.002103,
            32.775035
          ],
          [
            35.001984,
            32.775109
          ],
          [
            35.001918,
            32.775149
          ],
          [
            35.001797,
            32.77522
          ],
          [
            35.001741,
            32.775253
          ],
          [
            35.001618,
            32.775334
          ],
          [
            35.000967,
            32.775764
          ],
          [
            35.000619,
            32.775991
          ],
          [
            35.000335,
            32.776185
          ],
          [
            35.000218,
            32.776278
          ],
          [
            35.000139,
            32.776342
          ],
          [
            34.999982,
            32.776478
          ],
          [
            34.999849,
            32.776692
          ],
          [
            34.999682,
            32.776973
          ],
          [
            34.999589,
            32.777125
          ],
          [
            34.99951,
            32.777254
          ],
          [
            34.999442,
            32.77732
          ],
          [
            34.999285,
            32.777472
          ],
          [
            34.999025,
            32.777679
          ],
          [
            34.998513,
            32.778092
          ],
          [
            34.998276,
            32.778296
          ],
          [
            34.997962,
            32.778494
          ],
          [
            34.99786,
            32.77852
          ],
          [
            34.997808,
            32.778527
          ],
          [
            34.997781,
            32.77853
          ],
          [
            34.997556,
            32.778544
          ],
          [
            34.997358,
            32.778546
          ],
          [
            34.997179,
            32.778519
          ],
          [
            34.997085,
            32.778486
          ],
          [
            34.997006,
            32.778445
          ],
          [
            34.996607,
            32.778237
          ],
          [
            34.996107,
            32.77799
          ],
          [
            34.996005,
            32.777934
          ],
          [
            34.995781,
            32.77781
          ],
          [
            34.995656,
            32.777775
          ],
          [
            34.995518,
            32.77776
          ],
          [
            34.995307,
            32.777805
          ],
          [
            34.994881,
            32.777961
          ],
          [
            34.994343,
            32.778233
          ],
          [
            34.994,
            32.778406
          ],
          [
            34.993784,
            32.778501
          ],
          [
            34.993738,
            32.778537
          ],
          [
            34.993715,
            32.778567
          ],
          [
            34.993701,
            32.778603
          ],
          [
            34.993696,
            32.778641
          ],
          [
            34.993711,
            32.778685
          ],
          [
            34.99375,
            32.778768
          ],
          [
            34.993793,
            32.778868
          ],
          [
            34.99389,
            32.779026
          ],
          [
            34.993915,
            32.779108
          ],
          [
            34.993924,
            32.779232
          ],
          [
            34.993909,
            32.77931
          ],
          [
            34.993904,
            32.779336
          ],
          [
            34.993821,
            32.779472
          ],
          [
            34.993688,
            32.779629
          ],
          [
            34.993493,
            32.779748
          ],
          [
            34.993272,
            32.77982
          ],
          [
            34.993164,
            32.779855
          ],
          [
            34.992618,
            32.779952
          ],
          [
            34.99242,
            32.779987
          ],
          [
            34.992333,
            32.780005
          ],
          [
            34.992276,
            32.780023
          ],
          [
            34.992186,
            32.78007
          ],
          [
            34.992136,
            32.780105
          ],
          [
            34.992042,
            32.780178
          ],
          [
            34.990998,
            32.781067
          ],
          [
            34.990841,
            32.781189
          ],
          [
            34.990731,
            32.781267
          ],
          [
            34.990598,
            32.781346
          ],
          [
            34.989965,
            32.781653
          ],
          [
            34.989398,
            32.781925
          ],
          [
            34.989042,
            32.782086
          ],
          [
            34.988793,
            32.782223
          ],
          [
            34.988673,
            32.782312
          ],
          [
            34.988578,
            32.782385
          ],
          [
            34.988452,
            32.7825
          ],
          [
            34.988105,
            32.782831
          ],
          [
            34.987953,
            32.782985
          ],
          [
            34.987727,
            32.783221
          ],
          [
            34.987411,
            32.783517
          ],
          [
            34.987141,
            32.78377
          ],
          [
            34.987024,
            32.7839
          ],
          [
            34.986962,
            32.783981
          ],
          [
            34.986904,
            32.784066
          ],
          [
            34.986789,
            32.784256
          ],
          [
            34.986582,
            32.784542
          ],
          [
            34.986521,
            32.78464
          ],
          [
            34.986398,
            32.784777
          ],
          [
            34.986201,
            32.785044
          ],
          [
            34.986118,
            32.785169
          ],
          [
            34.986015,
            32.785325
          ],
          [
            34.985812,
            32.785814
          ],
          [
            34.985679,
            32.786405
          ],
          [
            34.985624,
            32.786907
          ],
          [
            34.985614,
            32.787061
          ],
          [
            34.98561,
            32.787195
          ],
          [
            34.985625,
            32.787286
          ],
          [
            34.985671,
            32.787405
          ],
          [
            34.985724,
            32.787477
          ],
          [
            34.985866,
            32.787603
          ],
          [
            34.986223,
            32.787947
          ],
          [
            34.986437,
            32.788142
          ],
          [
            34.986542,
            32.788281
          ],
          [
            34.98655,
            32.788291
          ],
          [
            34.986613,
            32.788394
          ],
          [
            34.986622,
            32.788413
          ],
          [
            34.986686,
            32.788551
          ],
          [
            34.986709,
            32.789225
          ],
          [
            34.986708,
            32.789544
          ],
          [
            34.986737,
            32.789845
          ],
          [
            34.986733,
            32.789849
          ],
          [
            34.986743,
            32.789858
          ],
          [
            34.986757,
            32.789873
          ],
          [
            34.986769,
            32.789889
          ],
          [
            34.986779,
            32.789907
          ],
          [
            34.986783,
            32.789916
          ],
          [
            34.986789,
            32.789936
          ],
          [
            34.986792,
            32.789946
          ],
          [
            34.986794,
            32.789966
          ],
          [
            34.986795,
            32.789976
          ],
          [
            34.986793,
            32.789996
          ],
          [
            34.986789,
            32.790018
          ],
          [
            34.986783,
            32.790036
          ],
          [
            34.986779,
            32.790045
          ],
          [
            34.986769,
            32.790063
          ],
          [
            34.986757,
            32.790079
          ],
          [
            34.986743,
            32.790094
          ],
          [
            34.986727,
            32.790107
          ],
          [
            34.986709,
            32.790118
          ],
          [
            34.986695,
            32.790125
          ],
          [
            34.986681,
            32.790131
          ],
          [
            34.986629,
            32.790139
          ],
          [
            34.986564,
            32.790328
          ],
          [
            34.986539,
            32.790667
          ],
          [
            34.986513,
            32.791179
          ],
          [
            34.986468,
            32.791491
          ],
          [
            34.986458,
            32.791559
          ],
          [
            34.98642,
            32.791762
          ],
          [
            34.986358,
            32.792089
          ],
          [
            34.986314,
            32.79232
          ],
          [
            34.98626,
            32.792609
          ],
          [
            34.986206,
            32.792778
          ],
          [
            34.985994,
            32.793149
          ],
          [
            34.98596,
            32.793207
          ],
          [
            34.98557,
            32.793907
          ],
          [
            34.985498,
            32.794036
          ],
          [
            34.985326,
            32.794347
          ],
          [
            34.985225,
            32.794607
          ],
          [
            34.985168,
            32.794753
          ],
          [
            34.985046,
            32.795065
          ],
          [
            34.984882,
            32.795472
          ],
          [
            34.984745,
            32.795813
          ],
          [
            34.984557,
            32.7963
          ],
          [
            34.984497,
            32.796457
          ],
          [
            34.984475,
            32.796515
          ],
          [
            34.984322,
            32.796862
          ],
          [
            34.984286,
            32.796964
          ],
          [
            34.984266,
            32.797105
          ],
          [
            34.984267,
            32.7972
          ],
          [
            34.984354,
            32.797601
          ],
          [
            34.984525,
            32.798069
          ],
          [
            34.9847,
            32.798697
          ],
          [
            34.984777,
            32.798974
          ],
          [
            34.984839,
            32.799334
          ],
          [
            34.984828,
            32.799507
          ],
          [
            34.984815,
            32.799607
          ],
          [
            34.98479,
            32.79972
          ],
          [
            34.984763,
            32.799808
          ],
          [
            34.984724,
            32.799905
          ],
          [
            34.984648,
            32.800061
          ],
          [
            34.984632,
            32.800102
          ],
          [
            34.984521,
            32.800267
          ],
          [
            34.983989,
            32.801011
          ],
          [
            34.98391,
            32.801171
          ],
          [
            34.9839,
            32.801231
          ],
          [
            34.983873,
            32.801383
          ],
          [
            34.98386,
            32.801452
          ],
          [
            34.983865,
            32.801589
          ],
          [
            34.983889,
            32.801725
          ],
          [
            34.983924,
            32.801803
          ],
          [
            34.983946,
            32.801847
          ],
          [
            34.983982,
            32.801907
          ],
          [
            34.984047,
            32.801988
          ],
          [
            34.984133,
            32.802081
          ],
          [
            34.984182,
            32.802155
          ],
          [
            34.984758,
            32.802804
          ],
          [
            34.984792,
            32.802835
          ],
          [
            34.984819,
            32.802854
          ],
          [
            34.984849,
            32.80287
          ],
          [
            34.984884,
            32.802884
          ],
          [
            34.984915,
            32.802894
          ],
          [
            34.984949,
            32.802904
          ],
          [
            34.984979,
            32.802907
          ],
          [
            34.985018,
            32.802914
          ],
          [
            34.98508,
            32.802917
          ],
          [
            34.985145,
            32.802913
          ],
          [
            34.985551,
            32.802864
          ],
          [
            34.985776,
            32.802859
          ],
          [
            34.985934,
            32.802869
          ],
          [
            34.986032,
            32.802881
          ],
          [
            34.986167,
            32.802908
          ],
          [
            34.986207,
            32.802918
          ],
          [
            34.986235,
            32.802926
          ],
          [
            34.986406,
            32.802932
          ],
          [
            34.986497,
            32.802928
          ],
          [
            34.986703,
            32.802895
          ],
          [
            34.987025,
            32.802736
          ],
          [
            34.987336,
            32.802594
          ],
          [
            34.987593,
            32.802469
          ],
          [
            34.987725,
            32.80239
          ],
          [
            34.98789,
            32.80231
          ],
          [
            34.987997,
            32.802262
          ],
          [
            34.98808,
            32.802234
          ],
          [
            34.98815,
            32.802217
          ],
          [
            34.988229,
            32.802199
          ],
          [
            34.988548,
            32.802132
          ],
          [
            34.988714,
            32.802093
          ],
          [
            34.988967,
            32.80203
          ],
          [
            34.989303,
            32.801952
          ],
          [
            34.989645,
            32.801875
          ],
          [
            34.989975,
            32.801797
          ],
          [
            34.990196,
            32.801756
          ],
          [
            34.990373,
            32.801734
          ],
          [
            34.990575,
            32.801716
          ],
          [
            34.990713,
            32.8017
          ],
          [
            34.990771,
            32.801698
          ],
          [
            34.990818,
            32.801703
          ],
          [
            34.99086,
            32.801711
          ],
          [
            34.990908,
            32.801731
          ],
          [
            34.990932,
            32.801753
          ],
          [
            34.990953,
            32.801784
          ],
          [
            34.990973,
            32.801821
          ],
          [
            34.990983,
            32.801854
          ],
          [
            34.990988,
            32.801892
          ],
          [
            34.990989,
            32.80193
          ],
          [
            34.990977,
            32.801998
          ],
          [
            34.990966,
            32.802045
          ],
          [
            34.990953,
            32.802123
          ],
          [
            34.990952,
            32.802193
          ],
          [
            34.990965,
            32.802283
          ],
          [
            34.990979,
            32.802334
          ],
          [
            34.990988,
            32.802332
          ],
          [
            34.991003,
            32.802332
          ],
          [
            34.991013,
            32.802333
          ],
          [
            34.991022,
            32.802335
          ],
          [
            34.991032,
            32.802339
          ],
          [
            34.991164,
            32.802275
          ],
          [
            34.991221,
            32.802247
          ],
          [
            34.991302,
            32.80219
          ],
          [
            34.991536,
            32.802029
          ],
          [
            34.99172,
            32.801918
          ],
          [
            34.991819,
            32.801871
          ],
          [
            34.992082,
            32.80178
          ],
          [
            34.992321,
            32.801676
          ],
          [
            34.992615,
            32.801551
          ],
          [
            34.993626,
            32.80117
          ],
          [
            34.994044,
            32.800979
          ],
          [
            34.994243,
            32.800895
          ],
          [
            34.994491,
            32.800764
          ],
          [
            34.994811,
            32.80058
          ],
          [
            34.995027,
            32.800406
          ],
          [
            34.995197,
            32.800293
          ],
          [
            34.99535,
            32.800187
          ],
          [
            34.995417,
            32.800141
          ],
          [
            34.995789,
            32.799882
          ],
          [
            34.99588,
            32.799838
          ],
          [
            34.995939,
            32.799812
          ],
          [
            34.995993,
            32.799799
          ],
          [
            34.996055,
            32.799786
          ],
          [
            34.996062,
            32.799784
          ],
          [
            34.996135,
            32.799784
          ],
          [
            34.996199,
            32.799795
          ],
          [
            34.996266,
            32.799817
          ],
          [
            34.996317,
            32.799848
          ],
          [
            34.996356,
            32.799891
          ],
          [
            34.996381,
            32.799928
          ],
          [
            34.996391,
            32.799965
          ],
          [
            34.996399,
            32.800024
          ],
          [
            34.996404,
            32.80008
          ],
          [
            34.996396,
            32.800161
          ],
          [
            34.996365,
            32.800237
          ],
          [
            34.996303,
            32.800319
          ],
          [
            34.996246,
            32.800365
          ],
          [
            34.996138,
            32.800423
          ],
          [
            34.995999,
            32.800521
          ],
          [
            34.995696,
            32.800719
          ],
          [
            34.99539,
            32.800922
          ],
          [
            34.994878,
            32.80126
          ],
          [
            34.99477,
            32.80133
          ],
          [
            34.994199,
            32.801695
          ],
          [
            34.99402,
            32.801809
          ],
          [
            34.99362,
            32.802038
          ],
          [
            34.993443,
            32.802136
          ],
          [
            34.993373,
            32.802175
          ],
          [
            34.993232,
            32.80225
          ],
          [
            34.993036,
            32.802366
          ],
          [
            34.992977,
            32.802409
          ],
          [
            34.992925,
            32.802458
          ],
          [
            34.992857,
            32.802534
          ],
          [
            34.992809,
            32.802601
          ],
          [
            34.992776,
            32.802679
          ],
          [
            34.992753,
            32.802748
          ],
          [
            34.992728,
            32.80289
          ],
          [
            34.992679,
            32.803125
          ],
          [
            34.992643,
            32.803226
          ],
          [
            34.992606,
            32.803293
          ],
          [
            34.992528,
            32.803387
          ],
          [
            34.99235,
            32.803568
          ],
          [
            34.992257,
            32.803683
          ],
          [
            34.992177,
            32.803809
          ],
          [
            34.992148,
            32.803953
          ],
          [
            34.992141,
            32.804026
          ],
          [
            34.992144,
            32.804085
          ],
          [
            34.992151,
            32.804143
          ],
          [
            34.99216,
            32.8042
          ],
          [
            34.992177,
            32.80427
          ],
          [
            34.992206,
            32.804338
          ],
          [
            34.992241,
            32.804392
          ],
          [
            34.992298,
            32.804467
          ],
          [
            34.992371,
            32.804574
          ],
          [
            34.992533,
            32.804754
          ],
          [
            34.992552,
            32.804772
          ],
          [
            34.99262,
            32.804827
          ],
          [
            34.992689,
            32.804897
          ],
          [
            34.992751,
            32.804968
          ],
          [
            34.99276,
            32.804969
          ],
          [
            34.992773,
            32.804971
          ],
          [
            34.992792,
            32.804977
          ],
          [
            34.992809,
            32.804986
          ],
          [
            34.992824,
            32.804997
          ],
          [
            34.992836,
            32.805011
          ],
          [
            34.992845,
            32.805026
          ],
          [
            34.99285,
            32.805042
          ],
          [
            34.992852,
            32.80506
          ],
          [
            34.992851,
            32.80507
          ],
          [
            34.992849,
            32.805081
          ],
          [
            34.992845,
            32.805092
          ],
          [
            34.992839,
            32.805102
          ],
          [
            34.992829,
            32.805115
          ],
          [
            34.992819,
            32.805124
          ],
          [
            34.992809,
            32.805131
          ],
          [
            34.992797,
            32.805137
          ],
          [
            34.992786,
            32.805142
          ],
          [
            34.992781,
            32.805143
          ],
          [
            34.992566,
            32.805276
          ],
          [
            34.992513,
            32.805321
          ],
          [
            34.992301,
            32.80554
          ],
          [
            34.992243,
            32.805598
          ],
          [
            34.991808,
            32.806036
          ],
          [
            34.991721,
            32.806116
          ],
          [
            34.99156,
            32.80627
          ],
          [
            34.991448,
            32.806378
          ],
          [
            34.991389,
            32.806447
          ],
          [
            34.991209,
            32.806636
          ],
          [
            34.991056,
            32.806801
          ],
          [
            34.99093,
            32.806938
          ],
          [
            34.990792,
            32.80709
          ],
          [
            34.990617,
            32.807305
          ],
          [
            34.990351,
            32.807664
          ],
          [
            34.99021,
            32.807856
          ],
          [
            34.989794,
            32.808384
          ],
          [
            34.989656,
            32.808561
          ],
          [
            34.989561,
            32.808684
          ],
          [
            34.989514,
            32.808749
          ],
          [
            34.989394,
            32.808914
          ],
          [
            34.989237,
            32.809227
          ],
          [
            34.989068,
            32.809686
          ],
          [
            34.988991,
            32.80993
          ],
          [
            34.988883,
            32.810151
          ],
          [
            34.988741,
            32.810397
          ],
          [
            34.98865,
            32.810558
          ],
          [
            34.988568,
            32.810719
          ],
          [
            34.988564,
            32.810778
          ],
          [
            34.988576,
            32.810833
          ],
          [
            34.988592,
            32.810878
          ],
          [
            34.988617,
            32.810916
          ],
          [
            34.988657,
            32.810958
          ],
          [
            34.988706,
            32.810983
          ],
          [
            34.988786,
            32.811014
          ],
          [
            34.988861,
            32.811027
          ],
          [
            34.988872,
            32.811026
          ],
          [
            34.988923,
            32.81102
          ],
          [
            34.988984,
            32.811006
          ],
          [
            34.989049,
            32.810975
          ],
          [
            34.989227,
            32.810822
          ],
          [
            34.989396,
            32.810639
          ],
          [
            34.989529,
            32.810501
          ],
          [
            34.98963,
            32.810401
          ],
          [
            34.989778,
            32.810251
          ],
          [
            34.989883,
            32.81014
          ],
          [
            34.990361,
            32.809633
          ],
          [
            34.990474,
            32.809478
          ],
          [
            34.990554,
            32.809373
          ],
          [
            34.990642,
            32.809275
          ],
          [
            34.990896,
            32.809003
          ],
          [
            34.991066,
            32.808803
          ],
          [
            34.99123,
            32.808672
          ],
          [
            34.99133,
            32.808611
          ],
          [
            34.991425,
            32.808564
          ],
          [
            34.991528,
            32.808542
          ],
          [
            34.991628,
            32.808531
          ],
          [
            34.991889,
            32.808526
          ],
          [
            34.991966,
            32.808521
          ],
          [
            34.992036,
            32.808508
          ],
          [
            34.992159,
            32.808474
          ],
          [
            34.992299,
            32.808419
          ],
          [
            34.992475,
            32.808347
          ],
          [
            34.992619,
            32.80823
          ],
          [
            34.992624,
            32.808216
          ],
          [
            34.992632,
            32.808205
          ],
          [
            34.992638,
            32.808198
          ],
          [
            34.992649,
            32.808189
          ],
          [
            34.992661,
            32.808182
          ],
          [
            34.992671,
            32.808178
          ],
          [
            34.99268,
            32.808176
          ],
          [
            34.992687,
            32.808175
          ],
          [
            34.992701,
            32.808174
          ],
          [
            34.992711,
            32.808175
          ],
          [
            34.992721,
            32.808177
          ],
          [
            34.99273,
            32.808179
          ],
          [
            34.992744,
            32.808185
          ],
          [
            34.992751,
            32.80819
          ],
          [
            34.99297,
            32.808168
          ],
          [
            34.993304,
            32.808035
          ],
          [
            34.99369,
            32.807857
          ],
          [
            34.993806,
            32.807807
          ],
          [
            34.993981,
            32.807724
          ],
          [
            34.994206,
            32.807632
          ],
          [
            34.994474,
            32.807503
          ],
          [
            34.994776,
            32.807376
          ],
          [
            34.994902,
            32.807375
          ],
          [
            34.994929,
            32.807379
          ],
          [
            34.994949,
            32.807382
          ],
          [
            34.994984,
            32.807394
          ],
          [
            34.995024,
            32.80742
          ],
          [
            34.995061,
            32.80746
          ],
          [
            34.99507,
            32.807477
          ],
          [
            34.995143,
            32.807621
          ],
          [
            34.995158,
            32.80765
          ],
          [
            34.995257,
            32.807806
          ],
          [
            34.995392,
            32.808061
          ],
          [
            34.995463,
            32.808242
          ],
          [
            34.995524,
            32.808354
          ],
          [
            34.995629,
            32.808547
          ],
          [
            34.995974,
            32.809152
          ],
          [
            34.996016,
            32.809215
          ],
          [
            34.996065,
            32.809275
          ],
          [
            34.996141,
            32.809344
          ],
          [
            34.996236,
            32.80942
          ],
          [
            34.996311,
            32.80947
          ],
          [
            34.996504,
            32.809579
          ],
          [
            34.996861,
            32.809749
          ],
          [
            34.996966,
            32.809813
          ],
          [
            34.997072,
            32.809873
          ],
          [
            34.997166,
            32.809982
          ],
          [
            34.997444,
            32.810282
          ],
          [
            34.997618,
            32.810442
          ],
          [
            34.9979,
            32.810731
          ],
          [
            34.998099,
            32.810969
          ],
          [
            34.998133,
            32.811008
          ],
          [
            34.998235,
            32.811127
          ],
          [
            34.998538,
            32.81148
          ],
          [
            34.998575,
            32.811523
          ],
          [
            34.998485,
            32.811638
          ],
          [
            34.998348,
            32.811789
          ],
          [
            34.998048,
            32.812124
          ],
          [
            34.99801,
            32.81208
          ],
          [
            34.997747,
            32.811783
          ],
          [
            34.997722,
            32.811753
          ],
          [
            34.997663,
            32.811734
          ],
          [
            34.997622,
            32.811725
          ],
          [
            34.997571,
            32.811722
          ],
          [
            34.997513,
            32.811734
          ],
          [
            34.997298,
            32.811985
          ],
          [
            34.997057,
            32.812243
          ],
          [
            34.997023,
            32.812273
          ],
          [
            34.997011,
            32.812284
          ],
          [
            34.996919,
            32.812339
          ],
          [
            34.996755,
            32.812418
          ],
          [
            34.996518,
            32.812535
          ],
          [
            34.996264,
            32.812657
          ],
          [
            34.995968,
            32.812795
          ],
          [
            34.995744,
            32.812886
          ],
          [
            34.995529,
            32.812953
          ],
          [
            34.995356,
            32.812998
          ],
          [
            34.995151,
            32.813041
          ],
          [
            34.994989,
            32.813076
          ],
          [
            34.994851,
            32.813112
          ],
          [
            34.994707,
            32.813143
          ],
          [
            34.994589,
            32.813167
          ],
          [
            34.994413,
            32.813211
          ],
          [
            34.994275,
            32.813263
          ],
          [
            34.994199,
            32.813297
          ],
          [
            34.994091,
            32.813351
          ],
          [
            34.99405,
            32.813388
          ],
          [
            34.994019,
            32.81342
          ],
          [
            34.994002,
            32.813438
          ],
          [
            34.993958,
            32.813509
          ],
          [
            34.993937,
            32.813564
          ],
          [
            34.993883,
            32.813675
          ],
          [
            34.993839,
            32.813752
          ],
          [
            34.993787,
            32.813835
          ],
          [
            34.993617,
            32.814058
          ],
          [
            34.993446,
            32.814276
          ],
          [
            34.993303,
            32.814476
          ],
          [
            34.993208,
            32.814567
          ],
          [
            34.993154,
            32.814599
          ],
          [
            34.993098,
            32.814627
          ],
          [
            34.993026,
            32.814656
          ],
          [
            34.992882,
            32.814699
          ],
          [
            34.992815,
            32.814715
          ],
          [
            34.992733,
            32.814743
          ],
          [
            34.99267,
            32.814777
          ],
          [
            34.992609,
            32.814817
          ],
          [
            34.992538,
            32.814908
          ],
          [
            34.992429,
            32.815061
          ],
          [
            34.992356,
            32.815174
          ],
          [
            34.992246,
            32.815368
          ],
          [
            34.992224,
            32.81543
          ],
          [
            34.992198,
            32.815536
          ],
          [
            34.992181,
            32.815628
          ],
          [
            34.992193,
            32.815826
          ],
          [
            34.992208,
            32.815875
          ],
          [
            34.992059,
            32.815938
          ],
          [
            34.991804,
            32.816043
          ],
          [
            34.991709,
            32.816082
          ],
          [
            34.991618,
            32.816122
          ],
          [
            34.990685,
            32.816534
          ],
          [
            34.989777,
            32.816949
          ],
          [
            34.9896,
            32.817032
          ],
          [
            34.989302,
            32.81715
          ],
          [
            34.989168,
            32.817229
          ],
          [
            34.989103,
            32.817269
          ],
          [
            34.989041,
            32.817313
          ],
          [
            34.989,
            32.817353
          ],
          [
            34.989002,
            32.81736
          ],
          [
            34.988998,
            32.81738
          ],
          [
            34.988991,
            32.817399
          ],
          [
            34.988983,
            32.817411
          ],
          [
            34.989,
            32.817479
          ],
          [
            34.989002,
            32.817489
          ],
          [
            34.989028,
            32.817563
          ],
          [
            34.989402,
            32.818157
          ],
          [
            34.989658,
            32.818581
          ],
          [
            34.989828,
            32.818826
          ],
          [
            34.989913,
            32.818975
          ],
          [
            34.99059,
            32.820082
          ],
          [
            34.991159,
            32.821051
          ],
          [
            34.991304,
            32.821263
          ],
          [
            34.991324,
            32.821263
          ],
          [
            34.991342,
            32.821268
          ],
          [
            34.991362,
            32.821274
          ],
          [
            34.991381,
            32.821284
          ],
          [
            34.991397,
            32.821296
          ],
          [
            34.991411,
            32.82131
          ],
          [
            34.991421,
            32.821326
          ],
          [
            34.991427,
            32.821344
          ],
          [
            34.991429,
            32.821362
          ],
          [
            34.991428,
            32.821374
          ],
          [
            34.991425,
            32.821386
          ],
          [
            34.991418,
            32.821416
          ],
          [
            34.991405,
            32.821432
          ],
          [
            34.991387,
            32.821448
          ],
          [
            34.99136,
            32.821457
          ],
          [
            34.991333,
            32.821459
          ],
          [
            34.991319,
            32.82146
          ],
          [
            34.991285,
            32.821457
          ],
          [
            34.991073,
            32.821453
          ],
          [
            34.990982,
            32.821467
          ],
          [
            34.990562,
            32.821644
          ],
          [
            34.99018,
            32.821829
          ],
          [
            34.990088,
            32.821902
          ],
          [
            34.990044,
            32.821932
          ],
          [
            34.988936,
            32.822418
          ],
          [
            34.98836,
            32.822664
          ],
          [
            34.987827,
            32.822909
          ],
          [
            34.987707,
            32.822964
          ],
          [
            34.98756,
            32.823027
          ],
          [
            34.986629,
            32.823425
          ],
          [
            34.986201,
            32.823602
          ],
          [
            34.985929,
            32.823722
          ],
          [
            34.985366,
            32.823959
          ],
          [
            34.985211,
            32.824044
          ],
          [
            34.984998,
            32.82416
          ],
          [
            34.984834,
            32.824269
          ],
          [
            34.984639,
            32.824416
          ],
          [
            34.984532,
            32.824515
          ],
          [
            34.984396,
            32.824649
          ],
          [
            34.984318,
            32.824737
          ],
          [
            34.984263,
            32.824833
          ],
          [
            34.984205,
            32.824932
          ],
          [
            34.984163,
            32.825
          ],
          [
            34.984106,
            32.825092
          ],
          [
            34.984077,
            32.825181
          ],
          [
            34.984006,
            32.825436
          ],
          [
            34.983739,
            32.826336
          ],
          [
            34.983719,
            32.826449
          ],
          [
            34.98369,
            32.826614
          ],
          [
            34.983676,
            32.826785
          ],
          [
            34.983674,
            32.826856
          ],
          [
            34.983679,
            32.826951
          ],
          [
            34.983695,
            32.827055
          ],
          [
            34.983717,
            32.827172
          ],
          [
            34.983805,
            32.827429
          ],
          [
            34.983845,
            32.827546
          ],
          [
            34.983901,
            32.827693
          ],
          [
            34.983954,
            32.827812
          ],
          [
            34.984038,
            32.827988
          ],
          [
            34.984119,
            32.828173
          ],
          [
            34.984273,
            32.828506
          ],
          [
            34.984771,
            32.829396
          ],
          [
            34.985311,
            32.830407
          ],
          [
            34.985463,
            32.830672
          ],
          [
            34.985554,
            32.830829
          ],
          [
            34.985742,
            32.831147
          ],
          [
            34.985766,
            32.831152
          ],
          [
            34.985784,
            32.831158
          ],
          [
            34.985796,
            32.831163
          ],
          [
            34.985814,
            32.831172
          ],
          [
            34.985831,
            32.831184
          ],
          [
            34.985845,
            32.831197
          ],
          [
            34.985858,
            32.831211
          ],
          [
            34.985868,
            32.831226
          ],
          [
            34.985876,
            32.831243
          ],
          [
            34.98588,
            32.831253
          ],
          [
            34.985883,
            32.831269
          ],
          [
            34.985884,
            32.831287
          ],
          [
            34.985883,
            32.831304
          ],
          [
            34.985879,
            32.831321
          ],
          [
            34.985876,
            32.831329
          ],
          [
            34.985868,
            32.831346
          ],
          [
            34.985857,
            32.831361
          ],
          [
            34.985851,
            32.831369
          ],
          [
            34.985845,
            32.831376
          ],
          [
            34.98583,
            32.831389
          ],
          [
            34.985813,
            32.8314
          ],
          [
            34.985795,
            32.831409
          ],
          [
            34.985775,
            32.831417
          ],
          [
            34.985755,
            32.831423
          ],
          [
            34.985734,
            32.831426
          ],
          [
            34.985712,
            32.831428
          ],
          [
            34.985688,
            32.831426
          ],
          [
            34.985669,
            32.831424
          ],
          [
            34.985659,
            32.831421
          ],
          [
            34.985638,
            32.831415
          ],
          [
            34.985629,
            32.831411
          ],
          [
            34.985619,
            32.831407
          ],
          [
            34.985602,
            32.831397
          ],
          [
            34.985585,
            32.831385
          ],
          [
            34.985571,
            32.831372
          ],
          [
            34.985565,
            32.831365
          ],
          [
            34.985559,
            32.831357
          ],
          [
            34.985549,
            32.831341
          ],
          [
            34.985545,
            32.831333
          ],
          [
            34.985539,
            32.831316
          ],
          [
            34.985535,
            32.831293
          ],
          [
            34.985536,
            32.831281
          ],
          [
            34.985538,
            32.831264
          ],
          [
            34.985544,
            32.831243
          ],
          [
            34.985427,
            32.830977
          ],
          [
            34.985327,
            32.830749
          ],
          [
            34.985205,
            32.830651
          ],
          [
            34.985087,
            32.830571
          ],
          [
            34.984952,
            32.830494
          ],
          [
            34.984812,
            32.830416
          ],
          [
            34.984704,
            32.830373
          ],
          [
            34.984637,
            32.830351
          ],
          [
            34.98456,
            32.830333
          ],
          [
            34.98448,
            32.830323
          ],
          [
            34.984405,
            32.830322
          ],
          [
            34.984295,
            32.830324
          ],
          [
            34.984169,
            32.83034
          ],
          [
            34.984051,
            32.830361
          ],
          [
            34.983899,
            32.830405
          ],
          [
            34.983892,
            32.830405
          ],
          [
            34.983558,
            32.830508
          ],
          [
            34.98301,
            32.830685
          ],
          [
            34.982837477835965,
            32.83074219737514
          ]
        ]
      }
    },
    {
      "type": "Feature",
      "properties": {
        "type": "original_route_stop",
        "stop_code": "43112",
        "stop_name": "אוניברסיטה/רב תכליתי",
        "marker-color": "#2ca02c",
        "marker-symbol": "bus",
        "marker-size": "medium"
      },
      "geometry": {
        "type": "Point",
        "coordinates": [
          35.021869,
          32.758828
        ]
      }
    },
    {
      "type": "Feature",
      "properties": {
        "type": "original_route_stop",
        "stop_code": "41511",
        "stop_name": "אוניברסיטה/מגדל אשכול",
        "marker-color": "#2ca02c",
        "marker-symbol": "bus",
        "marker-size": "medium"
      },
      "geometry": {
        "type": "Point",
        "coordinates": [
          35.018366,
          32.762012
        ]
      }
    },
    {
      "type": "Feature",
      "properties": {
        "type": "original_route_stop",
        "stop_code": "40293",
        "stop_name": "אבא חושי/שער חיפה",
        "marker-color": "#2ca02c",
        "marker-symbol": "bus",
        "marker-size": "medium"
      },
      "geometry": {
        "type": "Point",
        "coordinates": [
          35.013792,
          32.765431
        ]
      }
    },
    {
      "type": "Feature",
      "properties": {
        "type": "original_route_stop",
        "stop_code": "42998",
        "stop_name": "אבא חושי/שינדלר",
        "marker-color": "#2ca02c",
        "marker-symbol": "bus",
        "marker-size": "medium"
      },
      "geometry": {
        "type": "Point",
        "coordinates": [
          35.011845,
          32.766833
        ]
      }
    },
    {
      "type": "Feature",
      "properties": {
        "type": "original_route_stop",
        "stop_code": "41988",
        "stop_name": "אבא חושי/דר ארתור בירם",
        "marker-color": "#2ca02c",
        "marker-symbol": "bus",
        "marker-size": "medium"
      },
      "geometry": {
        "type": "Point",
        "coordinates": [
          35.007125,
          32.770739
        ]
      }
    },
    {
      "type": "Feature",
      "properties": {
        "type": "original_route_stop",
        "stop_code": "42442",
        "stop_name": "אבא חושי/מצפור זייד",
        "marker-color": "#2ca02c",
        "marker-symbol": "bus",
        "marker-size": "medium"
      },
      "geometry": {
        "type": "Point",
        "coordinates": [
          35.005877,
          32.772655
        ]
      }
    },
    {
      "type": "Feature",
      "properties": {
        "type": "original_route_stop",
        "stop_code": "42165",
        "stop_name": "אבא חושי/מצפור תמר",
        "marker-color": "#2ca02c",
        "marker-symbol": "bus",
        "marker-size": "medium"
      },
      "geometry": {
        "type": "Point",
        "coordinates": [
          35.001541,
          32.775442
        ]
      }
    },
    {
      "type": "Feature",
      "properties": {
        "type": "original_route_stop",
        "stop_code": "41171",
        "stop_name": "אבא חושי/איינשטיין",
        "marker-color": "#2ca02c",
        "marker-symbol": "bus",
        "marker-size": "medium"
      },
      "geometry": {
        "type": "Point",
        "coordinates": [
          34.999399,
          32.777431
        ]
      }
    },
    {
      "type": "Feature",
      "properties": {
        "type": "original_route_stop",
        "stop_code": "41172",
        "stop_name": "בית בירם/אבא חושי",
        "marker-color": "#2ca02c",
        "marker-symbol": "bus",
        "marker-size": "medium"
      },
      "geometry": {
        "type": "Point",
        "coordinates": [
          34.998081,
          32.778475
        ]
      }
    },
    {
      "type": "Feature",
      "properties": {
        "type": "original_route_stop",
        "stop_code": "40969",
        "stop_name": "אבא חושי/ווטסון",
        "marker-color": "#2ca02c",
        "marker-symbol": "bus",
        "marker-size": "medium"
      },
      "geometry": {
        "type": "Point",
        "coordinates": [
          34.994119,
          32.778399
        ]
      }
    },
    {
      "type": "Feature",
      "properties": {
        "type": "original_route_stop",
        "stop_code": "40973",
        "stop_name": "חורב/גבעת דאונס",
        "marker-color": "#2ca02c",
        "marker-symbol": "bus",
        "marker-size": "medium"
      },
      "geometry": {
        "type": "Point",
        "coordinates": [
          34.991918,
          32.780348
        ]
      }
    },
    {
      "type": "Feature",
      "properties": {
        "type": "original_route_stop",
        "stop_code": "40974",
        "stop_name": "חורב/יאנוש קורצאק",
        "marker-color": "#2ca02c",
        "marker-symbol": "bus",
        "marker-size": "medium"
      },
      "geometry": {
        "type": "Point",
        "coordinates": [
          34.989069,
          32.782125
        ]
      }
    },
    {
      "type": "Feature",
      "properties": {
        "type": "original_route_stop",
        "stop_code": "43100",
        "stop_name": "מרכז חורב/חורב",
        "marker-color": "#2ca02c",
        "marker-symbol": "bus",
        "marker-size": "medium"
      },
      "geometry": {
        "type": "Point",
        "coordinates": [
          34.985923,
          32.785681
        ]
      }
    },
    {
      "type": "Feature",
      "properties": {
        "type": "original_route_stop",
        "stop_code": "40980",
        "stop_name": "מוריה/מאפו",
        "marker-color": "#2ca02c",
        "marker-symbol": "bus",
        "marker-size": "medium"
      },
      "geometry": {
        "type": "Point",
        "coordinates": [
          34.986077,
          32.787737
        ]
      }
    },
    {
      "type": "Feature",
      "properties": {
        "type": "original_route_stop",
        "stop_code": "41689",
        "stop_name": "מוריה/קרית ספר",
        "marker-color": "#2ca02c",
        "marker-symbol": "bus",
        "marker-size": "medium"
      },
      "geometry": {
        "type": "Point",
        "coordinates": [
          34.986574,
          32.791033
        ]
      }
    },
    {
      "type": "Feature",
      "properties": {
        "type": "original_route_stop",
        "stop_code": "40989",
        "stop_name": "מוריה/מעברות",
        "marker-color": "#2ca02c",
        "marker-symbol": "bus",
        "marker-size": "medium"
      },
      "geometry": {
        "type": "Point",
        "coordinates": [
          34.986281,
          32.792719
        ]
      }
    },
    {
      "type": "Feature",
      "properties": {
        "type": "original_route_stop",
        "stop_code": "40990",
        "stop_name": "מוריה/ספקטור",
        "marker-color": "#2ca02c",
        "marker-symbol": "bus",
        "marker-size": "medium"
      },
      "geometry": {
        "type": "Point",
        "coordinates": [
          34.985432,
          32.794261
        ]
      }
    },
    {
      "type": "Feature",
      "properties": {
        "type": "original_route_stop",
        "stop_code": "41016",
        "stop_name": "מוריה/צפרירים",
        "marker-color": "#2ca02c",
        "marker-symbol": "bus",
        "marker-size": "medium"
      },
      "geometry": {
        "type": "Point",
        "coordinates": [
          34.984391,
          32.797519
        ]
      }
    },
    {
      "type": "Feature",
      "properties": {
        "type": "original_route_stop",
        "stop_code": "41017",
        "stop_name": "מוריה/פיגין",
        "marker-color": "#2ca02c",
        "marker-symbol": "bus",
        "marker-size": "medium"
      },
      "geometry": {
        "type": "Point",
        "coordinates": [
          34.984781,
          32.799904
        ]
      }
    },
    {
      "type": "Feature",
      "properties": {
        "type": "original_route_stop",
        "stop_code": "41032",
        "stop_name": "שדרות מוריה/הברושים",
        "marker-color": "#2ca02c",
        "marker-symbol": "bus",
        "marker-size": "medium"
      },
      "geometry": {
        "type": "Point",
        "coordinates": [
          34.984364,
          32.802285
        ]
      }
    },
    {
      "type": "Feature",
      "properties": {
        "type": "original_route_stop",
        "stop_code": "43000",
        "stop_name": "מרכז הכרמל/אודיטוריום",
        "marker-color": "#2ca02c",
        "marker-symbol": "bus",
        "marker-size": "medium"
      },
      "geometry": {
        "type": "Point",
        "coordinates": [
          34.986185,
          32.802866
        ]
      }
    },
    {
      "type": "Feature",
      "properties": {
        "type": "original_route_stop",
        "stop_code": "41065",
        "stop_name": "בית חולים אלישע/וגווד",
        "marker-color": "#2ca02c",
        "marker-symbol": "bus",
        "marker-size": "medium"
      },
      "geometry": {
        "type": "Point",
        "coordinates": [
          34.990339,
          32.801692
        ]
      }
    },
    {
      "type": "Feature",
      "properties": {
        "type": "original_route_stop",
        "stop_code": "41066",
        "stop_name": "קיש/חולדה",
        "marker-color": "#2ca02c",
        "marker-symbol": "bus",
        "marker-size": "medium"
      },
      "geometry": {
        "type": "Point",
        "coordinates": [
          34.991836,
          32.801816
        ]
      }
    },
    {
      "type": "Feature",
      "properties": {
        "type": "original_route_stop",
        "stop_code": "41067",
        "stop_name": "קיש/האסיף",
        "marker-color": "#2ca02c",
        "marker-symbol": "bus",
        "marker-size": "medium"
      },
      "geometry": {
        "type": "Point",
        "coordinates": [
          34.994872,
          32.800468
        ]
      }
    },
    {
      "type": "Feature",
      "properties": {
        "type": "original_route_stop",
        "stop_code": "41077",
        "stop_name": "וינגייט/חנה סנש",
        "marker-color": "#2ca02c",
        "marker-symbol": "bus",
        "marker-size": "medium"
      },
      "geometry": {
        "type": "Point",
        "coordinates": [
          34.993175,
          32.802339
        ]
      }
    },
    {
      "type": "Feature",
      "properties": {
        "type": "original_route_stop",
        "stop_code": "42297",
        "stop_name": "מרפאות חוץ/וינגייט",
        "marker-color": "#2ca02c",
        "marker-symbol": "bus",
        "marker-size": "medium"
      },
      "geometry": {
        "type": "Point",
        "coordinates": [
          34.992631,
          32.804773
        ]
      }
    },
    {
      "type": "Feature",
      "properties": {
        "type": "original_route_stop",
        "stop_code": "41078",
        "stop_name": "בית חולים בני ציון/גולומב",
        "marker-color": "#2ca02c",
        "marker-symbol": "bus",
        "marker-size": "medium"
      },
      "geometry": {
        "type": "Point",
        "coordinates": [
          34.991486,
          32.806409
        ]
      }
    },
    {
      "type": "Feature",
      "properties": {
        "type": "original_route_stop",
        "stop_code": "41079",
        "stop_name": "תחנת כרמלית/גולומב",
        "marker-color": "#2ca02c",
        "marker-symbol": "bus",
        "marker-size": "medium"
      },
      "geometry": {
        "type": "Point",
        "coordinates": [
          34.990183,
          32.807971
        ]
      }
    },
    {
      "type": "Feature",
      "properties": {
        "type": "original_route_stop",
        "stop_code": "41080",
        "stop_name": "מרכז הבהאים/גולומב",
        "marker-color": "#2ca02c",
        "marker-symbol": "bus",
        "marker-size": "medium"
      },
      "geometry": {
        "type": "Point",
        "coordinates": [
          34.98871,
          32.810555
        ]
      }
    },
    {
      "type": "Feature",
      "properties": {
        "type": "original_route_stop",
        "stop_code": "41691",
        "stop_name": "ארלוזורוב/הס",
        "marker-color": "#2ca02c",
        "marker-symbol": "bus",
        "marker-size": "medium"
      },
      "geometry": {
        "type": "Point",
        "coordinates": [
          34.991291,
          32.808579
        ]
      }
    },
    {
      "type": "Feature",
      "properties": {
        "type": "original_route_stop",
        "stop_code": "42868",
        "stop_name": "הרצל/יואל",
        "marker-color": "#2ca02c",
        "marker-symbol": "bus",
        "marker-size": "medium"
      },
      "geometry": {
        "type": "Point",
        "coordinates": [
          34.996182,
          32.812746
        ]
      }
    },
    {
      "type": "Feature",
      "properties": {
        "type": "original_route_stop",
        "stop_code": "41574",
        "stop_name": "שבתאי לוי/פרץ",
        "marker-color": "#2ca02c",
        "marker-symbol": "bus",
        "marker-size": "medium"
      },
      "geometry": {
        "type": "Point",
        "coordinates": [
          34.994313,
          32.813298
        ]
      }
    },
    {
      "type": "Feature",
      "properties": {
        "type": "original_route_stop",
        "stop_code": "41164",
        "stop_name": "שבתאי לוי/רשפון",
        "marker-color": "#2ca02c",
        "marker-symbol": "bus",
        "marker-size": "medium"
      },
      "geometry": {
        "type": "Point",
        "coordinates": [
          34.993351,
          32.814497
        ]
      }
    },
    {
      "type": "Feature",
      "properties": {
        "type": "original_route_stop",
        "stop_code": "41145",
        "stop_name": "הגפן/הפרסים",
        "marker-color": "#2ca02c",
        "marker-symbol": "bus",
        "marker-size": "medium"
      },
      "geometry": {
        "type": "Point",
        "coordinates": [
          34.990107,
          32.81685
        ]
      }
    },
    {
      "type": "Feature",
      "properties": {
        "type": "original_route_stop",
        "stop_code": "41162",
        "stop_name": "בן גוריון/אלנבי",
        "marker-color": "#2ca02c",
        "marker-symbol": "bus",
        "marker-size": "medium"
      },
      "geometry": {
        "type": "Point",
        "coordinates": [
          34.990101,
          32.819185
        ]
      }
    },
    {
      "type": "Feature",
      "properties": {
        "type": "original_route_stop",
        "stop_code": "42955",
        "stop_name": "בן גוריון/המגינים",
        "marker-color": "#2ca02c",
        "marker-symbol": "bus",
        "marker-size": "medium"
      },
      "geometry": {
        "type": "Point",
        "coordinates": [
          34.991229,
          32.821063
        ]
      }
    },
    {
      "type": "Feature",
      "properties": {
        "type": "original_route_stop",
        "stop_code": "47882",
        "stop_name": "בית חולים איטלקי/המגינים",
        "marker-color": "#2ca02c",
        "marker-symbol": "bus",
        "marker-size": "medium"
      },
      "geometry": {
        "type": "Point",
        "coordinates": [
          34.988216,
          32.822782
        ]
      }
    },
    {
      "type": "Feature",
      "properties": {
        "type": "original_route_stop",
        "stop_code": "47940",
        "stop_name": "מרכז רפואי לין",
        "marker-color": "#2ca02c",
        "marker-symbol": "bus",
        "marker-size": "medium"
      },
      "geometry": {
        "type": "Point",
        "coordinates": [
          34.985203,
          32.824102
        ]
      }
    },
    {
      "type": "Feature",
      "properties": {
        "type": "original_route_stop",
        "stop_code": "42953",
        "stop_name": "צומת דולפין",
        "marker-color": "#2ca02c",
        "marker-symbol": "bus",
        "marker-size": "medium"
      },
      "geometry": {
        "type": "Point",
        "coordinates": [
          34.983728,
          32.826827
        ]
      }
    },
    {
      "type": "Feature",
      "properties": {
        "type": "original_route_stop",
        "stop_code": "42746",
        "stop_name": "חיל הים/העלייה השנייה",
        "marker-color": "#2ca02c",
        "marker-symbol": "bus",
        "marker-size": "medium"
      },
      "geometry": {
        "type": "Point",
        "coordinates": [
          34.985302,
          32.830821
        ]
      }
    },
    {
      "type": "Feature",
      "properties": {
        "type": "original_route_stop",
        "stop_code": "47181",
        "stop_name": "ת. רכבת בת גלים",
        "marker-color": "#2ca02c",
        "marker-symbol": "bus",
        "marker-size": "medium"
      },
      "geometry": {
        "type": "Point",
        "coordinates": [
          34.982852,
          32.830786
        ]
      }
    },
    {
      "type": "Feature",
      "properties": {
        "type": "cancelled_stop",
        "stop_code": "41134",
        "stop_name": "בלפור/יוסף",
        "marker-color": "#ff0000",
        "marker-symbol": "bus",
        "marker-size": "medium"
      },
      "geometry": {
        "type": "Point",
        "coordinates": [
          34.995827,
          32.808789
        ]
      }
    },
    {
      "type": "Feature",
      "properties": {
        "type": "cancelled_stop",
        "stop_code": "41135",
        "stop_name": "מדעטק/בלפור",
        "marker-color": "#ff0000",
        "marker-symbol": "bus",
        "marker-size": "medium"
      },
      "geometry": {
        "type": "Point",
        "coordinates": [
          34.997048,
          32.809805
        ]
      }
    },
    {
      "type": "Feature",
      "properties": {
        "type": "new_stop",
        "stop_code": "41128",
        "stop_name": "ארלוזורוב/הפועל",
        "marker-color": "#1f9ed6",
        "marker-symbol": "bus",
        "marker-size": "medium"
      },
      "geometry": {
        "type": "Point",
        "coordinates": [
          34.997928,
          32.805581
        ]
      }
    },
    {
      "type": "Feature",
      "properties": {
        "type": "new_stop",
        "stop_code": "41252",
        "stop_name": "ארלוזורוב/פבזנר",
        "marker-color": "#1f9ed6",
        "marker-symbol": "bus",
        "marker-size": "medium"
      },
      "geometry": {
        "type": "Point",
        "coordinates": [
          35.000398,
          32.804716
        ]
      }
    },
    {
      "type": "Feature",
      "properties": {
        "type": "new_stop",
        "stop_code": "41279",
        "stop_name": "מיכאל/בר כוכבא",
        "marker-color": "#1f9ed6",
        "marker-symbol": "bus",
        "marker-size": "medium"
      },
      "geometry": {
        "type": "Point",
        "coordinates": [
          35.001427,
          32.80542
        ]
      }
    },
    {
      "type": "Feature",
      "properties": {
        "type": "new_stop",
        "stop_code": "47529",
        "stop_name": "שוק תלפיות",
        "marker-color": "#1f9ed6",
        "marker-symbol": "bus",
        "marker-size": "medium"
      },
      "geometry": {
        "type": "Point",
        "coordinates": [
          35.000902,
          32.807824
        ]
      }
    },
    {
      "type": "Feature",
      "properties": {
        "type": "new_stop",
        "stop_code": "47530",
        "stop_name": "לב הדר",
        "marker-color": "#1f9ed6",
        "marker-symbol": "bus",
        "marker-size": "medium"
      },
      "geometry": {
        "type": "Point",
        "coordinates": [
          34.998949,
          32.809682
        ]
      }
    },
    {
      "type": "Feature",
      "properties": {
        "type": "reported_block_stop",
        "stop_code": "41134",
        "stop_name": "בלפור/יוסף",
        "marker-color": "#ff8800",
        "marker-symbol": "bus",
        "marker-size": "medium"
      },
      "geometry": {
        "type": "Point",
        "coordinates": [
          34.995827,
          32.808789
        ]
      }
    },
    {
      "type": "Feature",
      "properties": {
        "type": "reported_block_stop",
        "stop_code": "41135",
        "stop_name": "מדעטק/בלפור",
        "marker-color": "#ff8800",
        "marker-symbol": "bus",
        "marker-size": "medium"
      },
      "geometry": {
        "type": "Point",
        "coordinates": [
          34.997048,
          32.809805
        ]
      }
    },
    {
      "type": "Feature",
      "properties": {
        "type": "deviate_from_stop",
        "stop_code": "41692",
        "stop_name": "ארלוזורוב/בלפור",
        "marker-color": "#8000ff",
        "marker-symbol": "bus",
        "marker-size": "medium"
      },
      "geometry": {
        "type": "Point",
        "coordinates": [
          34.994399,
          32.807488
        ]
      }
    },
    {
      "type": "Feature",
      "properties": {
        "type": "deviate_to_stop",
        "stop_code": "42867",
        "stop_name": "בית הקרנות",
        "marker-color": "#8000ff",
        "marker-symbol": "bus",
        "marker-size": "medium"
      },
      "geometry": {
        "type": "Point",
        "coordinates": [
          34.997297,
          32.812059
        ]
      }
    }
  ]
}