{
  "type": "FeatureCollection",
  "features": [
    {
      "type": "Feature",
      "properties": {
        "type": "deviation_path_edge",
        "from_stop_code": "21150",
        "to_stop_code": "20273",
        "stroke": "#00bcd4",
        "stroke-width": 3,
        "stroke-opacity": 0.95
      },
      "geometry": {
        "type": "LineString",
        "coordinates": [
          [
            34.782894781932804,
            32.07561883187728
          ],
          [
            34.782823,
            32.075616
          ],
          [
            34.782014,
            32.075586
          ],
          [
            34.781779,
            32.075577
          ],
          [
            34.781703,
            32.075574
          ],
          [
            34.7816,
            32.07551
          ],
          [
            34.78163,
            32.075063
          ],
          [
            34.781635,
            32.074861
          ],
          [
            34.781687,
            32.07427
          ],
          [
            34.78169283988882,
            32.0739901024716
          ]
        ]
      }
    },
    {
      "type": "Feature",
      "properties": {
        "type": "deviation_path_edge",
        "from_stop_code": "20273",
        "to_stop_code": "25592",
        "stroke": "#00bcd4",
        "stroke-width": 3,
        "stroke-opacity": 0.95
      },
      "geometry": {
        "type": "LineString",
        "coordinates": [
          [
            34.78169283988882,
            32.0739901024716
          ],
          [
            34.781701,
            32.073599
          ],
          [
            34.781745,
            32.072931
          ],
          [
            34.781794,
            32.071723
          ],
          [
            34.78182,
            32.07108
          ],
          [
            34.781393,
            32.07122
          ],
          [
            34.780827,
            32.071377
          ],
          [
            34.780671,
            32.071408
          ],
          [
            34.780387,
            32.071489
          ],
          [
            34.780334,
            32.071508
          ],
          [
            34.780252,
            32.071537
          ],
          [
            34.780155,
            32.07158
          ],
          [
            34.780072,
            32.071622
          ],
          [
            34.779956,
            32.071688
          ],
          [
            34.779816,
            32.071762
          ],
          [
            34.779349,
            32.072049
          ],
          [
            34.77925,
            32.0721
          ],
          [
            34.779162,
            32.07205
          ],
          [
            34.779145,
            32.07204
          ],
          [
            34.779121,
            32.072019
          ],
          [
            34.77912,
            32.071991
          ],
          [
            34.779108,
            32.071936
          ],
          [
            34.779045,
            32.071739
          ],
          [
            34.778931382147995,
            32.071410899468184
          ]
        ]
      }
    },
    {
      "type": "Feature",
      "properties": {
        "type": "original_route_shape",
        "shape_id": "164290",
        "stroke": "#1f2a7a",
        "stroke-width": 3,
        "stroke-opacity": 0.85
      },
      "geometry": {
        "type": "LineString",
        "coordinates": [
          [
            34.79361061881446,
            32.097617338716404
          ],
          [
            34.793624,
            32.09754
          ],
          [
            34.79371,
            32.097143
          ],
          [
            34.793728,
            32.097083
          ],
          [
            34.793752,
            32.097002
          ],
          [
            34.793819,
            32.096766
          ],
          [
            34.794215,
            32.095291
          ],
          [
            34.794423,
            32.094517
          ],
          [
            34.794895,
            32.092521
          ],
          [
            34.795063,
            32.091714
          ],
          [
            34.79518,
            32.091268
          ],
          [
            34.795216,
            32.091161
          ],
          [
            34.795257,
            32.090873
          ],
          [
            34.795344,
            32.090418
          ],
          [
            34.795366,
            32.090198
          ],
          [
            34.795402,
            32.089922
          ],
          [
            34.795435,
            32.089565
          ],
          [
            34.795459,
            32.089204
          ],
          [
            34.795473,
            32.089012
          ],
          [
            34.79548,
            32.08864
          ],
          [
            34.795484,
            32.088529
          ],
          [
            34.795483,
            32.088159
          ],
          [
            34.795473,
            32.087701
          ],
          [
            34.795412,
            32.087206
          ],
          [
            34.795391,
            32.086815
          ],
          [
            34.795325,
            32.086425
          ],
          [
            34.795247,
            32.086139
          ],
          [
            34.795181,
            32.085863
          ],
          [
            34.79516,
            32.085776
          ],
          [
            34.795134,
            32.085698
          ],
          [
            34.795075,
            32.085354
          ],
          [
            34.79507,
            32.085324
          ],
          [
            34.794706,
            32.083354
          ],
          [
            34.794624,
            32.082993
          ],
          [
            34.794544,
            32.082683
          ],
          [
            34.794514,
            32.082568
          ],
          [
            34.794497,
            32.082497
          ],
          [
            34.794366,
            32.081928
          ],
          [
            34.794089,
            32.080565
          ],
          [
            34.794089,
            32.080563
          ],
          [
            34.793947,
            32.080003
          ],
          [
            34.793863,
            32.07982
          ],
          [
            34.793785,
            32.079645
          ],
          [
            34.793721,
            32.07955
          ],
          [
            34.793501,
            32.07929
          ],
          [
            34.793358,
            32.079143
          ],
          [
            34.793251,
            32.079024
          ],
          [
            34.792986,
            32.07879
          ],
          [
            34.792868,
            32.078647
          ],
          [
            34.792782,
            32.078536
          ],
          [
            34.792697,
            32.078418
          ],
          [
            34.792617,
            32.078281
          ],
          [
            34.79255,
            32.078212
          ],
          [
            34.792487,
            32.078158
          ],
          [
            34.792454,
            32.078135
          ],
          [
            34.792408,
            32.078118
          ],
          [
            34.792301,
            32.078094
          ],
          [
            34.792136,
            32.078057
          ],
          [
            34.791874,
            32.078005
          ],
          [
            34.791739,
            32.077976
          ],
          [
            34.791461,
            32.077888
          ],
          [
            34.791339,
            32.077848
          ],
          [
            34.79088,
            32.077695
          ],
          [
            34.790787,
            32.077664
          ],
          [
            34.790354,
            32.077521
          ],
          [
            34.790026,
            32.077413
          ],
          [
            34.789168,
            32.077129
          ],
          [
            34.788872,
            32.07703
          ],
          [
            34.788781,
            32.076999
          ],
          [
            34.788666,
            32.07696
          ],
          [
            34.787775,
            32.076655
          ],
          [
            34.787081,
            32.076414
          ],
          [
            34.786084,
            32.076081
          ],
          [
            34.785906,
            32.076022
          ],
          [
            34.785417,
            32.075893
          ],
          [
            34.784833,
            32.075773
          ],
          [
            34.784443,
            32.075718
          ],
          [
            34.784356,
            32.07571
          ],
          [
            34.784239,
            32.0757
          ],
          [
            34.783912,
            32.075671
          ],
          [
            34.783406,
            32.075639
          ],
          [
            34.782823,
            32.075616
          ],
          [
            34.782014,
            32.075586
          ],
          [
            34.781779,
            32.075577
          ],
          [
            34.781703,
            32.075574
          ],
          [
            34.7816,
            32.07551
          ],
          [
            34.781501,
            32.075524
          ],
          [
            34.780852,
            32.075616
          ],
          [
            34.780165,
            32.075732
          ],
          [
            34.780028,
            32.075755
          ],
          [
            34.779908,
            32.075775
          ],
          [
            34.779208,
            32.075859
          ],
          [
            34.777662,
            32.076053
          ],
          [
            34.777209,
            32.076116
          ],
          [
            34.77713,
            32.076146
          ],
          [
            34.777059,
            32.076177
          ],
          [
            34.776981,
            32.076218
          ],
          [
            34.776893,
            32.076274
          ],
          [
            34.776681,
            32.076021
          ],
          [
            34.776379,
            32.075589
          ],
          [
            34.776308,
            32.075478
          ],
          [
            34.776127,
            32.075199
          ],
          [
            34.775863,
            32.074795
          ],
          [
            34.775729,
            32.074548
          ],
          [
            34.775656,
            32.074413
          ],
          [
            34.775575,
            32.074336
          ],
          [
            34.775381,
            32.074059
          ],
          [
            34.775327,
            32.073972
          ],
          [
            34.775397,
            32.073929
          ],
          [
            34.775933,
            32.073597
          ],
          [
            34.776182,
            32.073476
          ],
          [
            34.776822,
            32.073147
          ],
          [
            34.776947,
            32.073082
          ],
          [
            34.777016,
            32.073046
          ],
          [
            34.77773,
            32.072672
          ],
          [
            34.778492,
            32.072316
          ],
          [
            34.778582,
            32.072287
          ],
          [
            34.778838,
            32.072215
          ],
          [
            34.77893,
            32.072186
          ],
          [
            34.779027,
            32.072147
          ],
          [
            34.779061,
            32.072128
          ],
          [
            34.779089,
            32.0721
          ],
          [
            34.779108,
            32.072065
          ],
          [
            34.779121,
            32.072019
          ],
          [
            34.77912,
            32.071991
          ],
          [
            34.779108,
            32.071936
          ],
          [
            34.779045,
            32.071739
          ],
          [
            34.778751,
            32.07089
          ],
          [
            34.778692,
            32.070689
          ],
          [
            34.778641,
            32.070517
          ],
          [
            34.778597,
            32.07036
          ],
          [
            34.778351,
            32.069649
          ],
          [
            34.778014,
            32.06848
          ],
          [
            34.77795,
            32.068265
          ],
          [
            34.777939,
            32.068229
          ],
          [
            34.777765,
            32.067562
          ],
          [
            34.777471,
            32.066658
          ],
          [
            34.777197,
            32.065952
          ],
          [
            34.777157,
            32.065885
          ],
          [
            34.777072,
            32.065784
          ],
          [
            34.776686,
            32.065421
          ],
          [
            34.775568,
            32.064373
          ],
          [
            34.775602,
            32.064295
          ],
          [
            34.775613,
            32.064252
          ],
          [
            34.77563,
            32.06419
          ],
          [
            34.775762,
            32.063927
          ],
          [
            34.775964,
            32.063611
          ],
          [
            34.775476,
            32.063267
          ],
          [
            34.77516,
            32.063012
          ],
          [
            34.774946,
            32.062863
          ],
          [
            34.774859,
            32.062787
          ],
          [
            34.774443,
            32.062533
          ],
          [
            34.774007,
            32.062315
          ],
          [
            34.77361,
            32.062087
          ],
          [
            34.773462,
            32.062006
          ],
          [
            34.773497,
            32.061895
          ],
          [
            34.773559,
            32.0617
          ],
          [
            34.773636,
            32.061449
          ],
          [
            34.773672,
            32.061332
          ],
          [
            34.773819,
            32.060881
          ],
          [
            34.773931,
            32.060582
          ],
          [
            34.773825,
            32.060085
          ],
          [
            34.773638,
            32.059392
          ],
          [
            34.773485,
            32.058799
          ],
          [
            34.773473,
            32.058754
          ],
          [
            34.773285,
            32.058032
          ],
          [
            34.773107,
            32.057405
          ],
          [
            34.772974,
            32.056885
          ],
          [
            34.772819,
            32.056329
          ],
          [
            34.772699,
            32.05602
          ],
          [
            34.772267,
            32.055075
          ],
          [
            34.772111,
            32.054804
          ],
          [
            34.772105,
            32.054704
          ],
          [
            34.772141,
            32.054007
          ],
          [
            34.772173,
            32.053487
          ],
          [
            34.772184,
            32.053295
          ],
          [
            34.772186,
            32.053259
          ],
          [
            34.772223,
            32.05273
          ],
          [
            34.772237,
            32.052533
          ],
          [
            34.772244,
            32.052431
          ],
          [
            34.772251,
            32.052315
          ],
          [
            34.772255,
            32.052063
          ],
          [
            34.772226,
            32.05186
          ],
          [
            34.772192,
            32.051729
          ],
          [
            34.772162,
            32.051668
          ],
          [
            34.772069,
            32.051472
          ],
          [
            34.772052,
            32.051447
          ],
          [
            34.772001,
            32.051372
          ],
          [
            34.771975,
            32.051331
          ],
          [
            34.771885,
            32.051219
          ],
          [
            34.771519,
            32.050754
          ],
          [
            34.771484,
            32.050711
          ],
          [
            34.771217,
            32.050863
          ],
          [
            34.770573,
            32.051175
          ],
          [
            34.770145,
            32.051358
          ],
          [
            34.770125,
            32.051247
          ],
          [
            34.770045,
            32.051034
          ],
          [
            34.77002971340552,
            32.05100215292817
          ]
        ]
      }
    },
    {
      "type": "Feature",
      "properties": {
        "type": "original_route_stop",
        "stop_code": "21188",
        "stop_name": "דרך נמיר/יהודה המכבי",
        "marker-color": "#2ca02c",
        "marker-symbol": "bus",
        "marker-size": "medium"
      },
      "geometry": {
        "type": "Point",
        "coordinates": [
          34.794137,
          32.095376
        ]
      }
    },
    {
      "type": "Feature",
      "properties": {
        "type": "original_route_stop",
        "stop_code": "21534",
        "stop_name": "תיכון חדש רבין/דרך נמיר",
        "marker-color": "#2ca02c",
        "marker-symbol": "bus",
        "marker-size": "medium"
      },
      "geometry": {
        "type": "Point",
        "coordinates": [
          34.795303,
          32.090293
        ]
      }
    },
    {
      "type": "Feature",
      "properties": {
        "type": "original_route_stop",
        "stop_code": "20348",
        "stop_name": "דרך נמיר/ז'בוטינסקי",
        "marker-color": "#2ca02c",
        "marker-symbol": "bus",
        "marker-size": "medium"
      },
      "geometry": {
        "type": "Point",
        "coordinates": [
          34.795006,
          32.085267
        ]
      }
    },
    {
      "type": "Feature",
      "properties": {
        "type": "original_route_stop",
        "stop_code": "20349",
        "stop_name": "ת. רכבת תל אביב - סבידור/דרך נמיר",
        "marker-color": "#2ca02c",
        "marker-symbol": "bus",
        "marker-size": "medium"
      },
      "geometry": {
        "type": "Point",
        "coordinates": [
          34.794199,
          32.081367
        ]
      }
    },
    {
      "type": "Feature",
      "properties": {
        "type": "original_route_stop",
        "stop_code": "2320",
        "stop_name": "שדרות שאול המלך/הנרייטה סולד",
        "marker-color": "#2ca02c",
        "marker-symbol": "bus",
        "marker-size": "medium"
      },
      "geometry": {
        "type": "Point",
        "coordinates": [
          34.792251,
          32.078129
        ]
      }
    },
    {
      "type": "Feature",
      "properties": {
        "type": "original_route_stop",
        "stop_code": "25732",
        "stop_name": "בית הדר דפנה/שד' שאול המלך",
        "marker-color": "#2ca02c",
        "marker-symbol": "bus",
        "marker-size": "medium"
      },
      "geometry": {
        "type": "Point",
        "coordinates": [
          34.790426,
          32.077593
        ]
      }
    },
    {
      "type": "Feature",
      "properties": {
        "type": "original_route_stop",
        "stop_code": "21544",
        "stop_name": "בית המשפט/שד' שאול המלך",
        "marker-color": "#2ca02c",
        "marker-symbol": "bus",
        "marker-size": "medium"
      },
      "geometry": {
        "type": "Point",
        "coordinates": [
          34.787868,
          32.076736
        ]
      }
    },
    {
      "type": "Feature",
      "properties": {
        "type": "original_route_stop",
        "stop_code": "25587",
        "stop_name": "שד' רוטשילד/שיינקין",
        "marker-color": "#2ca02c",
        "marker-symbol": "bus",
        "marker-size": "medium"
      },
      "geometry": {
        "type": "Point",
        "coordinates": [
          34.777966,
          32.0685
        ]
      }
    },
    {
      "type": "Feature",
      "properties": {
        "type": "original_route_stop",
        "stop_code": "25578",
        "stop_name": "שד' רוטשילד/נחמני",
        "marker-color": "#2ca02c",
        "marker-symbol": "bus",
        "marker-size": "medium"
      },
      "geometry": {
        "type": "Point",
        "coordinates": [
          34.776104,
          32.064942
        ]
      }
    },
    {
      "type": "Feature",
      "properties": {
        "type": "original_route_stop",
        "stop_code": "20005",
        "stop_name": "ת.רק''ל אלנבי/יהודה הלוי",
        "marker-color": "#2ca02c",
        "marker-symbol": "bus",
        "marker-size": "medium"
      },
      "geometry": {
        "type": "Point",
        "coordinates": [
          34.77418,
          32.062454
        ]
      }
    },
    {
      "type": "Feature",
      "properties": {
        "type": "original_route_stop",
        "stop_code": "25394",
        "stop_name": "שוק לוינסקי/העלייה",
        "marker-color": "#2ca02c",
        "marker-symbol": "bus",
        "marker-size": "medium"
      },
      "geometry": {
        "type": "Point",
        "coordinates": [
          34.773499,
          32.059065
        ]
      }
    },
    {
      "type": "Feature",
      "properties": {
        "type": "original_route_stop",
        "stop_code": "21584",
        "stop_name": "העלייה/פלורנטין",
        "marker-color": "#2ca02c",
        "marker-symbol": "bus",
        "marker-size": "medium"
      },
      "geometry": {
        "type": "Point",
        "coordinates": [
          34.772525,
          32.055762
        ]
      }
    },
    {
      "type": "Feature",
      "properties": {
        "type": "original_route_stop",
        "stop_code": "20388",
        "stop_name": "שוקן/דרך שלמה",
        "marker-color": "#2ca02c",
        "marker-symbol": "bus",
        "marker-size": "medium"
      },
      "geometry": {
        "type": "Point",
        "coordinates": [
          34.772082,
          32.054131
        ]
      }
    },
    {
      "type": "Feature",
      "properties": {
        "type": "original_route_stop",
        "stop_code": "25380",
        "stop_name": "בית המשפט/שוקן",
        "marker-color": "#2ca02c",
        "marker-symbol": "bus",
        "marker-size": "medium"
      },
      "geometry": {
        "type": "Point",
        "coordinates": [
          34.772093,
          32.051643
        ]
      }
    },
    {
      "type": "Feature",
      "properties": {
        "type": "cancelled_stop",
        "stop_code": "20738",
        "stop_name": "הנביאים/שמריהו לוין",
        "marker-color": "#ff0000",
        "marker-symbol": "bus",
        "marker-size": "medium"
      },
      "geometry": {
        "type": "Point",
        "coordinates": [
          34.778827,
          32.075952
        ]
      }
    },
    {
      "type": "Feature",
      "properties": {
        "type": "cancelled_stop",
        "stop_code": "20784",
        "stop_name": "דיזנגוף סנטר/המלך ג'ורג'",
        "marker-color": "#ff0000",
        "marker-symbol": "bus",
        "marker-size": "medium"
      },
      "geometry": {
        "type": "Point",
        "coordinates": [
          34.776195,
          32.075397
        ]
      }
    },
    {
      "type": "Feature",
      "properties": {
        "type": "cancelled_stop",
        "stop_code": "25608",
        "stop_name": "דיזנגוף סנטר/שדרות בן ציון",
        "marker-color": "#ff0000",
        "marker-symbol": "bus",
        "marker-size": "medium"
      },
      "geometry": {
        "type": "Point",
        "coordinates": [
          34.775586,
          32.073756
        ]
      }
    },
    {
      "type": "Feature",
      "properties": {
        "type": "new_stop",
        "stop_code": "20273",
        "stop_name": "אבן גבירול/אליעזר קפלן",
        "marker-color": "#1f9ed6",
        "marker-symbol": "bus",
        "marker-size": "medium"
      },
      "geometry": {
        "type": "Point",
        "coordinates": [
          34.78164,
          32.073989
        ]
      }
    },
    {
      "type": "Feature",
      "properties": {
        "type": "reported_block_stop",
        "stop_code": "20738",
        "stop_name": "הנביאים/שמריהו לוין",
        "marker-color": "#ff8800",
        "marker-symbol": "bus",
        "marker-size": "medium"
      },
      "geometry": {
        "type": "Point",
        "coordinates": [
          34.778827,
          32.075952
        ]
      }
    },
    {
      "type": "Feature",
      "properties": {
        "type": "reported_block_stop",
        "stop_code": "20784",
        "stop_name": "דיזנגוף סנטר/המלך ג'ורג'",
        "marker-color": "#ff8800",
        "marker-symbol": "bus",
        "marker-size": "medium"
      },
      "geometry": {
        "type": "Point",
        "coordinates": [
          34.776195,
          32.075397
        ]
      }
    },
    {
      "type": "Feature",
      "properties": {
        "type": "deviate_from_stop",
        "stop_code": "21150",
        "stop_name": "לונדון מיניסטור/שד' שאול המלך",
        "marker-color": "#8000ff",
        "marker-symbol": "bus",
        "marker-size": "medium"
      },
      "geometry": {
        "type": "Point",
        "coordinates": [
          34.782893,
          32.075664
        ]
      }
    },
    {
      "type": "Feature",
      "properties": {
        "type": "deviate_to_stop",
        "stop_code": "25592",
        "stop_name": "הבימה/שד' רוטשילד",
        "marker-color": "#8000ff",
        "marker-symbol": "bus",
        "marker-size": "medium"
      },
      "geometry": {
        "type": "Point",
        "coordinates": [
          34.778882,
          32.071428
        ]
      }
    }
  ]
}