{
  "type": "FeatureCollection",
  "features": [
    {
      "type": "Feature",
      "properties": {
        "type": "deviation_path_edge",
        "from_stop_code": "41254",
        "to_stop_code": "41252",
        "stroke": "#00bcd4",
        "stroke-width": 3,
        "stroke-opacity": 0.95
      },
      "geometry": {
        "type": "LineString",
        "coordinates": [
          [
            34.99899572959658,
            32.8038133298477
          ],
          [
            34.998996,
            32.803857
          ],
          [
            34.998984,
            32.803989
          ],
          [
            34.998965,
            32.804063
          ],
          [
            34.998931,
            32.804126
          ],
          [
            34.998884,
            32.804178
          ],
          [
            34.998832,
            32.804224
          ],
          [
            34.998765,
            32.804269
          ],
          [
            34.998681,
            32.804321
          ],
          [
            34.998572,
            32.804386
          ],
          [
            34.998448,
            32.804477
          ],
          [
            34.998409,
            32.804529
          ],
          [
            34.998384,
            32.804584
          ],
          [
            34.998389,
            32.804638
          ],
          [
            34.998405,
            32.804686
          ],
          [
            34.998453,
            32.804701
          ],
          [
            34.998527,
            32.804713
          ],
          [
            34.998803,
            32.804747
          ],
          [
            34.998856,
            32.804757
          ],
          [
            34.998892,
            32.804764
          ],
          [
            34.999033,
            32.8048
          ],
          [
            34.99926,
            32.804725
          ],
          [
            34.999386,
            32.804685
          ],
          [
            34.999539,
            32.804654
          ],
          [
            34.999703,
            32.804613
          ],
          [
            34.99982,
            32.804596
          ],
          [
            34.999952,
            32.804597
          ],
          [
            35.000082,
            32.804603
          ],
          [
            35.000157,
            32.804617
          ],
          [
            35.000242,
            32.804652
          ],
          [
            35.000333,
            32.804714
          ],
          [
            35.00035917190846,
            32.80474689365544
          ]
        ]
      }
    },
    {
      "type": "Feature",
      "properties": {
        "type": "deviation_path_edge",
        "from_stop_code": "41252",
        "to_stop_code": "41279",
        "stroke": "#00bcd4",
        "stroke-width": 3,
        "stroke-opacity": 0.95
      },
      "geometry": {
        "type": "LineString",
        "coordinates": [
          [
            35.00035917190846,
            32.80474689365544
          ],
          [
            35.000516,
            32.804944
          ],
          [
            35.000567,
            32.805024
          ],
          [
            35.000608,
            32.805123
          ],
          [
            35.000673,
            32.805334
          ],
          [
            35.000762,
            32.805848
          ],
          [
            35.000758,
            32.805922
          ],
          [
            35.000805,
            32.806012
          ],
          [
            35.000826,
            32.806038
          ],
          [
            35.000846,
            32.806053
          ],
          [
            35.000873,
            32.806061
          ],
          [
            35.000902,
            32.806062
          ],
          [
            35.000949,
            32.806059
          ],
          [
            35.001069,
            32.805981
          ],
          [
            35.001129,
            32.805909
          ],
          [
            35.001259,
            32.805746
          ],
          [
            35.00139,
            32.805576
          ],
          [
            35.00147015205743,
            32.80544676257408
          ]
        ]
      }
    },
    {
      "type": "Feature",
      "properties": {
        "type": "deviation_path_edge",
        "from_stop_code": "41279",
        "to_stop_code": "47529",
        "stroke": "#00bcd4",
        "stroke-width": 3,
        "stroke-opacity": 0.95
      },
      "geometry": {
        "type": "LineString",
        "coordinates": [
          [
            35.00147015205743,
            32.80544676257408
          ],
          [
            35.001519,
            32.805368
          ],
          [
            35.001532,
            32.805344
          ],
          [
            35.00171,
            32.805064
          ],
          [
            35.001817,
            32.804895
          ],
          [
            35.001963,
            32.80504
          ],
          [
            35.002163,
            32.805221
          ],
          [
            35.00237,
            32.805432
          ],
          [
            35.00259,
            32.805658
          ],
          [
            35.002606,
            32.805693
          ],
          [
            35.002612,
            32.805717
          ],
          [
            35.002608,
            32.805753
          ],
          [
            35.002557,
            32.805817
          ],
          [
            35.00239,
            32.806037
          ],
          [
            35.002329,
            32.80612
          ],
          [
            35.00214,
            32.806374
          ],
          [
            35.001993,
            32.80657
          ],
          [
            35.0018,
            32.806829
          ],
          [
            35.0017,
            32.806973
          ],
          [
            35.001572,
            32.80713
          ],
          [
            35.001492,
            32.80721
          ],
          [
            35.001434,
            32.807268
          ],
          [
            35.001177,
            32.807492
          ],
          [
            35.00086796545186,
            32.80778853026006
          ]
        ]
      }
    },
    {
      "type": "Feature",
      "properties": {
        "type": "deviation_path_edge",
        "from_stop_code": "47529",
        "to_stop_code": "47530",
        "stroke": "#00bcd4",
        "stroke-width": 3,
        "stroke-opacity": 0.95
      },
      "geometry": {
        "type": "LineString",
        "coordinates": [
          [
            35.00086796545186,
            32.80778853026006
          ],
          [
            35.000831,
            32.807824
          ],
          [
            35.000661,
            32.80798
          ],
          [
            35.000382,
            32.808226
          ],
          [
            35.000281,
            32.808313
          ],
          [
            35.000238,
            32.808351
          ],
          [
            34.99977,
            32.808789
          ],
          [
            34.999433,
            32.809102
          ],
          [
            34.999137,
            32.809393
          ],
          [
            34.999022,
            32.809506
          ],
          [
            34.99892,
            32.809629
          ],
          [
            34.99890431858718,
            32.80965675790315
          ]
        ]
      }
    },
    {
      "type": "Feature",
      "properties": {
        "type": "deviation_path_edge",
        "from_stop_code": "47530",
        "to_stop_code": "43090",
        "stroke": "#00bcd4",
        "stroke-width": 3,
        "stroke-opacity": 0.95
      },
      "geometry": {
        "type": "LineString",
        "coordinates": [
          [
            34.99890431858718,
            32.80965675790315
          ],
          [
            34.998833,
            32.809783
          ],
          [
            34.998608,
            32.81018
          ],
          [
            34.998416,
            32.810516
          ],
          [
            34.998314,
            32.8107
          ],
          [
            34.998254,
            32.81081
          ],
          [
            34.998173,
            32.810944
          ],
          [
            34.998133,
            32.811008
          ],
          [
            34.998235,
            32.811127
          ],
          [
            34.998538,
            32.81148
          ],
          [
            34.998575,
            32.811523
          ],
          [
            34.998695,
            32.811658
          ],
          [
            34.99906944732641,
            32.81204628559717
          ]
        ]
      }
    },
    {
      "type": "Feature",
      "properties": {
        "type": "original_route_shape",
        "shape_id": "141303",
        "stroke": "#1f2a7a",
        "stroke-width": 3,
        "stroke-opacity": 0.85
      },
      "geometry": {
        "type": "LineString",
        "coordinates": [
          [
            35.03482836484385,
            32.79269579430418
          ],
          [
            35.034851,
            32.792633
          ],
          [
            35.034911,
            32.7925
          ],
          [
            35.034959,
            32.792414
          ],
          [
            35.034994,
            32.792342
          ],
          [
            35.03507,
            32.792206
          ],
          [
            35.035128,
            32.792127
          ],
          [
            35.035179,
            32.792071
          ],
          [
            35.03518,
            32.792064
          ],
          [
            35.03518,
            32.792046
          ],
          [
            35.035176,
            32.792027
          ],
          [
            35.035168,
            32.792009
          ],
          [
            35.035152,
            32.791985
          ],
          [
            35.035147,
            32.791974
          ],
          [
            35.035143,
            32.791959
          ],
          [
            35.035122,
            32.79193
          ],
          [
            35.035105,
            32.791915
          ],
          [
            35.035084,
            32.791897
          ],
          [
            35.035001,
            32.791913
          ],
          [
            35.034952,
            32.791925
          ],
          [
            35.034913,
            32.791937
          ],
          [
            35.034878,
            32.79195
          ],
          [
            35.03485,
            32.791972
          ],
          [
            35.034823,
            32.791998
          ],
          [
            35.034798,
            32.792031
          ],
          [
            35.03477,
            32.792082
          ],
          [
            35.034727,
            32.792155
          ],
          [
            35.034684,
            32.792231
          ],
          [
            35.034539,
            32.792537
          ],
          [
            35.034459,
            32.792737
          ],
          [
            35.034452,
            32.792792
          ],
          [
            35.034457,
            32.792824
          ],
          [
            35.034459,
            32.792863
          ],
          [
            35.034449,
            32.792899
          ],
          [
            35.034432,
            32.792918
          ],
          [
            35.034411,
            32.792936
          ],
          [
            35.034377,
            32.792952
          ],
          [
            35.034302,
            32.792962
          ],
          [
            35.03415,
            32.792948
          ],
          [
            35.033954,
            32.792931
          ],
          [
            35.033739,
            32.792912
          ],
          [
            35.033526,
            32.792894
          ],
          [
            35.033499,
            32.792888
          ],
          [
            35.033471,
            32.792877
          ],
          [
            35.033466,
            32.792874
          ],
          [
            35.033444,
            32.792862
          ],
          [
            35.033426,
            32.792849
          ],
          [
            35.033402,
            32.792819
          ],
          [
            35.033384,
            32.792795
          ],
          [
            35.033367,
            32.792745
          ],
          [
            35.03336,
            32.792702
          ],
          [
            35.033365,
            32.792661
          ],
          [
            35.033378,
            32.792606
          ],
          [
            35.033415,
            32.79256
          ],
          [
            35.03389,
            32.792189
          ],
          [
            35.033957,
            32.792132
          ],
          [
            35.034033,
            32.792072
          ],
          [
            35.034151,
            32.791965
          ],
          [
            35.034241,
            32.791884
          ],
          [
            35.034276,
            32.791854
          ],
          [
            35.034297,
            32.791828
          ],
          [
            35.03432,
            32.79181
          ],
          [
            35.034379,
            32.791757
          ],
          [
            35.034409,
            32.791734
          ],
          [
            35.034481,
            32.791701
          ],
          [
            35.034547,
            32.79168
          ],
          [
            35.034637,
            32.791617
          ],
          [
            35.034671,
            32.791575
          ],
          [
            35.034699,
            32.791531
          ],
          [
            35.034715,
            32.791507
          ],
          [
            35.034724,
            32.791488
          ],
          [
            35.034735,
            32.791462
          ],
          [
            35.034724,
            32.791426
          ],
          [
            35.034708,
            32.791395
          ],
          [
            35.034668,
            32.791348
          ],
          [
            35.034068,
            32.791021
          ],
          [
            35.033831,
            32.790903
          ],
          [
            35.03319,
            32.790581
          ],
          [
            35.033101,
            32.790541
          ],
          [
            35.032989,
            32.790485
          ],
          [
            35.032782,
            32.790388
          ],
          [
            35.032607,
            32.790319
          ],
          [
            35.032249,
            32.790202
          ],
          [
            35.032222,
            32.790192
          ],
          [
            35.032156,
            32.790178
          ],
          [
            35.031956,
            32.790246
          ],
          [
            35.031412,
            32.790523
          ],
          [
            35.03098,
            32.790761
          ],
          [
            35.030819,
            32.790851
          ],
          [
            35.030368,
            32.791112
          ],
          [
            35.030116,
            32.791246
          ],
          [
            35.029695,
            32.791555
          ],
          [
            35.029638,
            32.791628
          ],
          [
            35.029603,
            32.791669
          ],
          [
            35.029321,
            32.791517
          ],
          [
            35.028958,
            32.791368
          ],
          [
            35.028871,
            32.791329
          ],
          [
            35.028529,
            32.791179
          ],
          [
            35.028133,
            32.791004
          ],
          [
            35.02787,
            32.790841
          ],
          [
            35.027147,
            32.790393
          ],
          [
            35.026903,
            32.79025
          ],
          [
            35.026811,
            32.790196
          ],
          [
            35.026527,
            32.79003
          ],
          [
            35.026296,
            32.789899
          ],
          [
            35.026123,
            32.789795
          ],
          [
            35.025923,
            32.789689
          ],
          [
            35.025598,
            32.789516
          ],
          [
            35.025478,
            32.789452
          ],
          [
            35.025409,
            32.789415
          ],
          [
            35.025285,
            32.789347
          ],
          [
            35.024877,
            32.789124
          ],
          [
            35.024462,
            32.788874
          ],
          [
            35.024447,
            32.788867
          ],
          [
            35.023922,
            32.788637
          ],
          [
            35.023414,
            32.788478
          ],
          [
            35.022874,
            32.788359
          ],
          [
            35.022365,
            32.788278
          ],
          [
            35.022284,
            32.788275
          ],
          [
            35.021717,
            32.78825
          ],
          [
            35.021068,
            32.7883
          ],
          [
            35.021045,
            32.788304
          ],
          [
            35.020664,
            32.788371
          ],
          [
            35.020559,
            32.78839
          ],
          [
            35.019663,
            32.788569
          ],
          [
            35.019534,
            32.7886
          ],
          [
            35.01826,
            32.788902
          ],
          [
            35.017816,
            32.789008
          ],
          [
            35.017608,
            32.789054
          ],
          [
            35.017059,
            32.789178
          ],
          [
            35.015797,
            32.789466
          ],
          [
            35.015136,
            32.789612
          ],
          [
            35.014424,
            32.789783
          ],
          [
            35.014254,
            32.789824
          ],
          [
            35.013422,
            32.790024
          ],
          [
            35.013104,
            32.790094
          ],
          [
            35.012495,
            32.79023
          ],
          [
            35.011491,
            32.790422
          ],
          [
            35.011241,
            32.790457
          ],
          [
            35.011071,
            32.79048
          ],
          [
            35.010806,
            32.790512
          ],
          [
            35.01032,
            32.790607
          ],
          [
            35.009695,
            32.790695
          ],
          [
            35.009046,
            32.790801
          ],
          [
            35.008662,
            32.790852
          ],
          [
            35.007649,
            32.790996
          ],
          [
            35.007388,
            32.791038
          ],
          [
            35.007079,
            32.791079
          ],
          [
            35.006652,
            32.791129
          ],
          [
            35.006632,
            32.791132
          ],
          [
            35.006203,
            32.791196
          ],
          [
            35.006073,
            32.791211
          ],
          [
            35.005928,
            32.791214
          ],
          [
            35.005808,
            32.791214
          ],
          [
            35.00568,
            32.791204
          ],
          [
            35.005553,
            32.791189
          ],
          [
            35.005471,
            32.791169
          ],
          [
            35.005423,
            32.791164
          ],
          [
            35.005365,
            32.791151
          ],
          [
            35.005171,
            32.791088
          ],
          [
            35.005089,
            32.791054
          ],
          [
            35.004994,
            32.791021
          ],
          [
            35.004826,
            32.790939
          ],
          [
            35.004667,
            32.790844
          ],
          [
            35.00458,
            32.790774
          ],
          [
            35.004396,
            32.790589
          ],
          [
            35.004334,
            32.790541
          ],
          [
            35.004007,
            32.790271
          ],
          [
            35.003872,
            32.790187
          ],
          [
            35.003941,
            32.790124
          ],
          [
            35.004181,
            32.789931
          ],
          [
            35.004312,
            32.789844
          ],
          [
            35.004368,
            32.789808
          ],
          [
            35.004416,
            32.789775
          ],
          [
            35.004593,
            32.789677
          ],
          [
            35.004681,
            32.789629
          ],
          [
            35.004853,
            32.789556
          ],
          [
            35.005003,
            32.789501
          ],
          [
            35.005227,
            32.789441
          ],
          [
            35.005361,
            32.789412
          ],
          [
            35.006397,
            32.789184
          ],
          [
            35.006602,
            32.789142
          ],
          [
            35.007078,
            32.789043
          ],
          [
            35.007318,
            32.789007
          ],
          [
            35.007607,
            32.788986
          ],
          [
            35.007806,
            32.788989
          ],
          [
            35.007909,
            32.789009
          ],
          [
            35.008571,
            32.789132
          ],
          [
            35.008726,
            32.789151
          ],
          [
            35.008935,
            32.789167
          ],
          [
            35.009103,
            32.789158
          ],
          [
            35.009302,
            32.789138
          ],
          [
            35.009573,
            32.789072
          ],
          [
            35.009791,
            32.788991
          ],
          [
            35.0106,
            32.788551
          ],
          [
            35.010799,
            32.788436
          ],
          [
            35.010967,
            32.788379
          ],
          [
            35.010983,
            32.788373
          ],
          [
            35.011151,
            32.788334
          ],
          [
            35.01134,
            32.788294
          ],
          [
            35.011629,
            32.788263
          ],
          [
            35.012012,
            32.788251
          ],
          [
            35.012563,
            32.788185
          ],
          [
            35.01291,
            32.788119
          ],
          [
            35.012978,
            32.788106
          ],
          [
            35.013351,
            32.788031
          ],
          [
            35.013839,
            32.787908
          ],
          [
            35.014228,
            32.787797
          ],
          [
            35.014617,
            32.787652
          ],
          [
            35.015101,
            32.787427
          ],
          [
            35.015536,
            32.787245
          ],
          [
            35.015982,
            32.787031
          ],
          [
            35.016161,
            32.786945
          ],
          [
            35.016323,
            32.78687
          ],
          [
            35.01648,
            32.786801
          ],
          [
            35.016818,
            32.786715
          ],
          [
            35.016922,
            32.786685
          ],
          [
            35.017007,
            32.786656
          ],
          [
            35.017109,
            32.786625
          ],
          [
            35.01715,
            32.786599
          ],
          [
            35.017201,
            32.786512
          ],
          [
            35.017345,
            32.786245
          ],
          [
            35.017492,
            32.785945
          ],
          [
            35.017687,
            32.78549
          ],
          [
            35.01768,
            32.785386
          ],
          [
            35.017661,
            32.785246
          ],
          [
            35.017589,
            32.785149
          ],
          [
            35.017135,
            32.784856
          ],
          [
            35.016887,
            32.784701
          ],
          [
            35.016866,
            32.784687
          ],
          [
            35.016079,
            32.784179
          ],
          [
            35.016037,
            32.784152
          ],
          [
            35.015927,
            32.784083
          ],
          [
            35.015921,
            32.784079
          ],
          [
            35.015771,
            32.783984
          ],
          [
            35.015723,
            32.783955
          ],
          [
            35.015472,
            32.783803
          ],
          [
            35.014932,
            32.783482
          ],
          [
            35.01474,
            32.783348
          ],
          [
            35.014498,
            32.783136
          ],
          [
            35.014478,
            32.783109
          ],
          [
            35.014457,
            32.78308
          ],
          [
            35.014398,
            32.783012
          ],
          [
            35.014342,
            32.782938
          ],
          [
            35.014248,
            32.782769
          ],
          [
            35.014187,
            32.782623
          ],
          [
            35.014134,
            32.782528
          ],
          [
            35.014056,
            32.782441
          ],
          [
            35.013953,
            32.782379
          ],
          [
            35.013837,
            32.782336
          ],
          [
            35.013769,
            32.782311
          ],
          [
            35.013573,
            32.78225
          ],
          [
            35.013254,
            32.782169
          ],
          [
            35.012911,
            32.782129
          ],
          [
            35.012523,
            32.782135
          ],
          [
            35.012052,
            32.782179
          ],
          [
            35.011467,
            32.782246
          ],
          [
            35.011234,
            32.782275
          ],
          [
            35.010844,
            32.782307
          ],
          [
            35.010654,
            32.782314
          ],
          [
            35.0103,
            32.78233
          ],
          [
            35.009873,
            32.782346
          ],
          [
            35.009479,
            32.782345
          ],
          [
            35.009421,
            32.782348
          ],
          [
            35.008883,
            32.782325
          ],
          [
            35.008733,
            32.782319
          ],
          [
            35.008285,
            32.782308
          ],
          [
            35.007977,
            32.782292
          ],
          [
            35.007937,
            32.78229
          ],
          [
            35.0079,
            32.78229
          ],
          [
            35.00769,
            32.782293
          ],
          [
            35.007384,
            32.782304
          ],
          [
            35.006882,
            32.782362
          ],
          [
            35.006817,
            32.782381
          ],
          [
            35.006531,
            32.782481
          ],
          [
            35.006277,
            32.782582
          ],
          [
            35.006079,
            32.782685
          ],
          [
            35.005817,
            32.782838
          ],
          [
            35.005532,
            32.783009
          ],
          [
            35.005194,
            32.783228
          ],
          [
            35.004636,
            32.783587
          ],
          [
            35.004339,
            32.78378
          ],
          [
            35.004261,
            32.783824
          ],
          [
            35.003999,
            32.783982
          ],
          [
            35.003722,
            32.78417
          ],
          [
            35.003544,
            32.78429
          ],
          [
            35.003206,
            32.784487
          ],
          [
            35.002988,
            32.784624
          ],
          [
            35.002787,
            32.784809
          ],
          [
            35.002647,
            32.784979
          ],
          [
            35.002561,
            32.785101
          ],
          [
            35.002476,
            32.785261
          ],
          [
            35.002353,
            32.785501
          ],
          [
            35.002272,
            32.785722
          ],
          [
            35.00214,
            32.786125
          ],
          [
            35.001972,
            32.786616
          ],
          [
            35.001935,
            32.786745
          ],
          [
            35.001866,
            32.786926
          ],
          [
            35.001792,
            32.787059
          ],
          [
            35.001714,
            32.787183
          ],
          [
            35.001603,
            32.787298
          ],
          [
            35.001461,
            32.787391
          ],
          [
            35.001309,
            32.787451
          ],
          [
            35.001122,
            32.787506
          ],
          [
            35.000918,
            32.787532
          ],
          [
            35.000737,
            32.787527
          ],
          [
            35.000553,
            32.787498
          ],
          [
            35.000385,
            32.787451
          ],
          [
            35.000081,
            32.78742
          ],
          [
            34.999971,
            32.787418
          ],
          [
            34.999818,
            32.787422
          ],
          [
            34.999706,
            32.787424
          ],
          [
            34.999624,
            32.787435
          ],
          [
            34.999564,
            32.787459
          ],
          [
            34.999516,
            32.787501
          ],
          [
            34.999493,
            32.787539
          ],
          [
            34.999482,
            32.787585
          ],
          [
            34.999485,
            32.787638
          ],
          [
            34.999511,
            32.787687
          ],
          [
            34.999579,
            32.787743
          ],
          [
            34.999642,
            32.787801
          ],
          [
            34.999804,
            32.787854
          ],
          [
            34.999972,
            32.78789
          ],
          [
            35.000208,
            32.787921
          ],
          [
            35.000439,
            32.787948
          ],
          [
            35.000683,
            32.787973
          ],
          [
            35.000895,
            32.788015
          ],
          [
            35.001038,
            32.788039
          ],
          [
            35.00119,
            32.788074
          ],
          [
            35.001451,
            32.788166
          ],
          [
            35.001594,
            32.788214
          ],
          [
            35.001681,
            32.78824
          ],
          [
            35.001967,
            32.788377
          ],
          [
            35.002119,
            32.78848
          ],
          [
            35.002309,
            32.788614
          ],
          [
            35.002505,
            32.788767
          ],
          [
            35.002646,
            32.788905
          ],
          [
            35.002829,
            32.789099
          ],
          [
            35.003609,
            32.789827
          ],
          [
            35.003745,
            32.789927
          ],
          [
            35.003941,
            32.790124
          ],
          [
            35.003987,
            32.79023
          ],
          [
            35.004007,
            32.790271
          ],
          [
            35.003631,
            32.790584
          ],
          [
            35.003454,
            32.790728
          ],
          [
            35.003182,
            32.790957
          ],
          [
            35.002933,
            32.79114
          ],
          [
            35.002584,
            32.791369
          ],
          [
            35.002213,
            32.791626
          ],
          [
            35.002012,
            32.791743
          ],
          [
            35.00174,
            32.791886
          ],
          [
            35.001619,
            32.791962
          ],
          [
            35.001502,
            32.792066
          ],
          [
            35.001423,
            32.79218
          ],
          [
            35.001364,
            32.79233
          ],
          [
            35.001349,
            32.792474
          ],
          [
            35.001366,
            32.7926
          ],
          [
            35.00141,
            32.792706
          ],
          [
            35.001456,
            32.792778
          ],
          [
            35.001553,
            32.792882
          ],
          [
            35.001693,
            32.793016
          ],
          [
            35.001819,
            32.793167
          ],
          [
            35.001938,
            32.793338
          ],
          [
            35.002008,
            32.793462
          ],
          [
            35.002067,
            32.793585
          ],
          [
            35.002122,
            32.793793
          ],
          [
            35.002157,
            32.793994
          ],
          [
            35.002331,
            32.79462
          ],
          [
            35.002389,
            32.794939
          ],
          [
            35.002397,
            32.795268
          ],
          [
            35.002396,
            32.795587
          ],
          [
            35.002404,
            32.795748
          ],
          [
            35.002422,
            32.795926
          ],
          [
            35.002462,
            32.796101
          ],
          [
            35.002535,
            32.796312
          ],
          [
            35.002625,
            32.796505
          ],
          [
            35.002722,
            32.796658
          ],
          [
            35.002843,
            32.796845
          ],
          [
            35.002895,
            32.796974
          ],
          [
            35.00292,
            32.797033
          ],
          [
            35.002934,
            32.797105
          ],
          [
            35.002946,
            32.797174
          ],
          [
            35.002952,
            32.797252
          ],
          [
            35.002938,
            32.797351
          ],
          [
            35.002904,
            32.797466
          ],
          [
            35.00286,
            32.79755
          ],
          [
            35.002773,
            32.797674
          ],
          [
            35.002583,
            32.797895
          ],
          [
            35.002454,
            32.798053
          ],
          [
            35.002268,
            32.798283
          ],
          [
            35.002139,
            32.798449
          ],
          [
            35.00202,
            32.798592
          ],
          [
            35.001867,
            32.798787
          ],
          [
            35.001842,
            32.79883
          ],
          [
            35.001823,
            32.798876
          ],
          [
            35.001829,
            32.798912
          ],
          [
            35.001834,
            32.798975
          ],
          [
            35.001838,
            32.799039
          ],
          [
            35.001853,
            32.799134
          ],
          [
            35.001881,
            32.79923
          ],
          [
            35.001925,
            32.799341
          ],
          [
            35.002096,
            32.799744
          ],
          [
            35.002151,
            32.799908
          ],
          [
            35.002198,
            32.800087
          ],
          [
            35.002245,
            32.800291
          ],
          [
            35.002258,
            32.800473
          ],
          [
            35.002257,
            32.800721
          ],
          [
            35.002235,
            32.800856
          ],
          [
            35.002213,
            32.800998
          ],
          [
            35.002174,
            32.80114
          ],
          [
            35.002127,
            32.801267
          ],
          [
            35.002083,
            32.801373
          ],
          [
            35.002023,
            32.801493
          ],
          [
            35.001935,
            32.801628
          ],
          [
            35.001869,
            32.801706
          ],
          [
            35.001706,
            32.801857
          ],
          [
            35.001592,
            32.801942
          ],
          [
            35.001477,
            32.802013
          ],
          [
            35.00135,
            32.80209
          ],
          [
            35.00119,
            32.802174
          ],
          [
            35.001088,
            32.802227
          ],
          [
            35.000842,
            32.802356
          ],
          [
            35.000529,
            32.802497
          ],
          [
            35.000216,
            32.802633
          ],
          [
            34.999768,
            32.802831
          ],
          [
            34.999509,
            32.802926
          ],
          [
            34.999172,
            32.803059
          ],
          [
            34.999062,
            32.803142
          ],
          [
            34.999034,
            32.803213
          ],
          [
            34.999011,
            32.803255
          ],
          [
            34.998994,
            32.803534
          ],
          [
            34.998996,
            32.803857
          ],
          [
            34.998984,
            32.803989
          ],
          [
            34.998965,
            32.804063
          ],
          [
            34.998931,
            32.804126
          ],
          [
            34.998884,
            32.804178
          ],
          [
            34.998832,
            32.804224
          ],
          [
            34.998765,
            32.804269
          ],
          [
            34.998681,
            32.804321
          ],
          [
            34.998572,
            32.804386
          ],
          [
            34.998448,
            32.804477
          ],
          [
            34.998409,
            32.804529
          ],
          [
            34.998384,
            32.804584
          ],
          [
            34.998389,
            32.804638
          ],
          [
            34.998405,
            32.804686
          ],
          [
            34.998453,
            32.804701
          ],
          [
            34.998527,
            32.804713
          ],
          [
            34.998803,
            32.804747
          ],
          [
            34.998856,
            32.804757
          ],
          [
            34.998892,
            32.804764
          ],
          [
            34.999033,
            32.8048
          ],
          [
            34.998986,
            32.804883
          ],
          [
            34.998946,
            32.804927
          ],
          [
            34.998899,
            32.80496
          ],
          [
            34.99882,
            32.804999
          ],
          [
            34.998635,
            32.805087
          ],
          [
            34.998518,
            32.805153
          ],
          [
            34.998288,
            32.805311
          ],
          [
            34.99805,
            32.805529
          ],
          [
            34.997891,
            32.805689
          ],
          [
            34.997697,
            32.805874
          ],
          [
            34.997565,
            32.806024
          ],
          [
            34.997421,
            32.806129
          ],
          [
            34.997381,
            32.806158
          ],
          [
            34.997213,
            32.806265
          ],
          [
            34.996173,
            32.806862
          ],
          [
            34.995946,
            32.806983
          ],
          [
            34.995818,
            32.807039
          ],
          [
            34.995752,
            32.807069
          ],
          [
            34.995558,
            32.807138
          ],
          [
            34.995147,
            32.807304
          ],
          [
            34.995084,
            32.80737
          ],
          [
            34.995076,
            32.807387
          ],
          [
            34.995073,
            32.8074
          ],
          [
            34.99507,
            32.807477
          ],
          [
            34.995143,
            32.807621
          ],
          [
            34.995158,
            32.80765
          ],
          [
            34.995257,
            32.807806
          ],
          [
            34.995392,
            32.808061
          ],
          [
            34.995463,
            32.808242
          ],
          [
            34.995524,
            32.808354
          ],
          [
            34.995629,
            32.808547
          ],
          [
            34.995974,
            32.809152
          ],
          [
            34.996016,
            32.809215
          ],
          [
            34.996065,
            32.809275
          ],
          [
            34.996141,
            32.809344
          ],
          [
            34.996236,
            32.80942
          ],
          [
            34.996311,
            32.80947
          ],
          [
            34.996504,
            32.809579
          ],
          [
            34.996861,
            32.809749
          ],
          [
            34.996966,
            32.809813
          ],
          [
            34.997072,
            32.809873
          ],
          [
            34.997166,
            32.809982
          ],
          [
            34.997444,
            32.810282
          ],
          [
            34.997618,
            32.810442
          ],
          [
            34.9979,
            32.810731
          ],
          [
            34.998099,
            32.810969
          ],
          [
            34.998133,
            32.811008
          ],
          [
            34.998235,
            32.811127
          ],
          [
            34.998538,
            32.81148
          ],
          [
            34.998575,
            32.811523
          ],
          [
            34.998695,
            32.811658
          ],
          [
            34.999155,
            32.812135
          ],
          [
            34.99929,
            32.812283
          ],
          [
            34.999417,
            32.812444
          ],
          [
            34.99949,
            32.812549
          ],
          [
            34.999556,
            32.812587
          ],
          [
            34.999598,
            32.812603
          ],
          [
            34.999632,
            32.812613
          ],
          [
            34.999681,
            32.812617
          ],
          [
            34.999763,
            32.812606
          ],
          [
            34.999786,
            32.812588
          ],
          [
            34.999928,
            32.812463
          ],
          [
            35.000113,
            32.812351
          ],
          [
            35.000141,
            32.812332
          ],
          [
            35.000183,
            32.812308
          ],
          [
            35.000229,
            32.812291
          ],
          [
            35.000272,
            32.812279
          ],
          [
            35.000314,
            32.81227
          ],
          [
            35.000355,
            32.812268
          ],
          [
            35.000401,
            32.812267
          ],
          [
            35.000447,
            32.812274
          ],
          [
            35.000525,
            32.81229
          ],
          [
            35.000775,
            32.812359
          ],
          [
            35.000946,
            32.812419
          ],
          [
            35.001003,
            32.812441
          ],
          [
            35.00105,
            32.81247
          ],
          [
            35.001096,
            32.812506
          ],
          [
            35.001122,
            32.812536
          ],
          [
            35.001143,
            32.812574
          ],
          [
            35.001157,
            32.812616
          ],
          [
            35.001159,
            32.812661
          ],
          [
            35.001111,
            32.812802
          ],
          [
            35.001081,
            32.812866
          ],
          [
            35.001021,
            32.812938
          ],
          [
            35.000753,
            32.813372
          ],
          [
            35.000618,
            32.813607
          ],
          [
            35.000451,
            32.813934
          ],
          [
            35.000289,
            32.814312
          ],
          [
            35.000204,
            32.814558
          ],
          [
            35.00018,
            32.81464
          ],
          [
            35.000161,
            32.814698
          ],
          [
            35.000109,
            32.814906
          ],
          [
            35.0001,
            32.814962
          ],
          [
            35.000097,
            32.81504
          ],
          [
            35.000101,
            32.815108
          ],
          [
            35.000111,
            32.815106
          ],
          [
            35.000127,
            32.815106
          ],
          [
            35.000136,
            32.815108
          ],
          [
            35.000151,
            32.815113
          ],
          [
            35.000161,
            32.81512
          ],
          [
            35.000174,
            32.815133
          ],
          [
            35.00018,
            32.815143
          ],
          [
            35.000183,
            32.815154
          ],
          [
            35.000185,
            32.815165
          ],
          [
            35.00018,
            32.815186
          ],
          [
            35.000167,
            32.815204
          ],
          [
            35.000154,
            32.815214
          ],
          [
            35.000144,
            32.815218
          ],
          [
            34.999952,
            32.815382
          ],
          [
            34.999787,
            32.815584
          ],
          [
            34.999454,
            32.815989
          ],
          [
            34.999224,
            32.81625
          ],
          [
            34.998817,
            32.81663
          ],
          [
            34.998604,
            32.816865
          ],
          [
            34.998473,
            32.817037
          ],
          [
            34.998361,
            32.817179
          ],
          [
            34.998278,
            32.817346
          ],
          [
            34.998214,
            32.817483
          ],
          [
            34.998177,
            32.817561
          ],
          [
            34.998093,
            32.817719
          ],
          [
            34.998049,
            32.817811
          ],
          [
            34.998002,
            32.817933
          ],
          [
            34.997992,
            32.817962
          ],
          [
            34.997985,
            32.817985
          ],
          [
            34.99798,
            32.818053
          ],
          [
            34.997982,
            32.818109
          ],
          [
            34.997984,
            32.818181
          ],
          [
            34.997982,
            32.818237
          ],
          [
            34.99796,
            32.818321
          ],
          [
            34.997927,
            32.818389
          ],
          [
            34.997869,
            32.818462
          ],
          [
            34.997565,
            32.8186
          ],
          [
            34.997477,
            32.818645
          ],
          [
            34.997377,
            32.818693
          ],
          [
            34.997264,
            32.818757
          ],
          [
            34.996695,
            32.81901
          ],
          [
            34.996355,
            32.819173
          ],
          [
            34.99604,
            32.819307
          ],
          [
            34.995797,
            32.819407
          ],
          [
            34.995614,
            32.819485
          ],
          [
            34.995395,
            32.819588
          ],
          [
            34.994973,
            32.819764
          ],
          [
            34.994816,
            32.819893
          ],
          [
            34.994811,
            32.819916
          ],
          [
            34.994804,
            32.819933
          ],
          [
            34.994792,
            32.819957
          ],
          [
            34.994781,
            32.819971
          ],
          [
            34.99477,
            32.819984
          ],
          [
            34.994752,
            32.82
          ],
          [
            34.994732,
            32.820014
          ],
          [
            34.99471,
            32.820026
          ],
          [
            34.994687,
            32.820036
          ],
          [
            34.994662,
            32.820043
          ],
          [
            34.994634,
            32.820047
          ],
          [
            34.994611,
            32.820049
          ],
          [
            34.994585,
            32.820048
          ],
          [
            34.994559,
            32.820044
          ],
          [
            34.994534,
            32.820038
          ],
          [
            34.994512,
            32.820029
          ],
          [
            34.994394,
            32.820059
          ],
          [
            34.994303,
            32.820084
          ],
          [
            34.993889,
            32.820257
          ],
          [
            34.993724,
            32.820323
          ],
          [
            34.993606,
            32.820372
          ],
          [
            34.993333,
            32.820495
          ],
          [
            34.993068,
            32.820621
          ],
          [
            34.992629,
            32.820812
          ],
          [
            34.992362,
            32.820928
          ],
          [
            34.992202,
            32.820997
          ],
          [
            34.99192,
            32.821122
          ],
          [
            34.991722,
            32.821216
          ],
          [
            34.99154,
            32.821313
          ],
          [
            34.991425,
            32.821386
          ],
          [
            34.991418,
            32.821416
          ],
          [
            34.991405,
            32.821432
          ],
          [
            34.991387,
            32.821448
          ],
          [
            34.99136,
            32.821457
          ],
          [
            34.991333,
            32.821459
          ],
          [
            34.991319,
            32.82146
          ],
          [
            34.991285,
            32.821457
          ],
          [
            34.991073,
            32.821453
          ],
          [
            34.990982,
            32.821467
          ],
          [
            34.990562,
            32.821644
          ],
          [
            34.99018,
            32.821829
          ],
          [
            34.990088,
            32.821902
          ],
          [
            34.990044,
            32.821932
          ],
          [
            34.988936,
            32.822418
          ],
          [
            34.98836,
            32.822664
          ],
          [
            34.987827,
            32.822909
          ],
          [
            34.987707,
            32.822964
          ],
          [
            34.98756,
            32.823027
          ],
          [
            34.986629,
            32.823425
          ],
          [
            34.986201,
            32.823602
          ],
          [
            34.985929,
            32.823722
          ],
          [
            34.985366,
            32.823959
          ],
          [
            34.985211,
            32.824044
          ],
          [
            34.984998,
            32.82416
          ],
          [
            34.984834,
            32.824269
          ],
          [
            34.984639,
            32.824416
          ],
          [
            34.984532,
            32.824515
          ],
          [
            34.984396,
            32.824649
          ],
          [
            34.984318,
            32.824737
          ],
          [
            34.984263,
            32.824833
          ],
          [
            34.984205,
            32.824932
          ],
          [
            34.984163,
            32.825
          ],
          [
            34.984106,
            32.825092
          ],
          [
            34.984077,
            32.825181
          ],
          [
            34.984006,
            32.825436
          ],
          [
            34.983739,
            32.826336
          ],
          [
            34.983719,
            32.826449
          ],
          [
            34.98369,
            32.826614
          ],
          [
            34.983676,
            32.826785
          ],
          [
            34.983674,
            32.826856
          ],
          [
            34.983679,
            32.826951
          ],
          [
            34.983695,
            32.827055
          ],
          [
            34.983717,
            32.827172
          ],
          [
            34.983805,
            32.827429
          ],
          [
            34.983845,
            32.827546
          ],
          [
            34.983901,
            32.827693
          ],
          [
            34.983954,
            32.827812
          ],
          [
            34.984038,
            32.827988
          ],
          [
            34.984119,
            32.828173
          ],
          [
            34.984273,
            32.828506
          ],
          [
            34.984771,
            32.829396
          ],
          [
            34.985311,
            32.830407
          ],
          [
            34.985463,
            32.830672
          ],
          [
            34.985554,
            32.830829
          ],
          [
            34.985742,
            32.831147
          ],
          [
            34.985766,
            32.831152
          ],
          [
            34.985784,
            32.831158
          ],
          [
            34.985796,
            32.831163
          ],
          [
            34.985814,
            32.831172
          ],
          [
            34.985831,
            32.831184
          ],
          [
            34.985845,
            32.831197
          ],
          [
            34.985858,
            32.831211
          ],
          [
            34.985868,
            32.831226
          ],
          [
            34.985876,
            32.831243
          ],
          [
            34.98588,
            32.831253
          ],
          [
            34.985883,
            32.831269
          ],
          [
            34.985884,
            32.831287
          ],
          [
            34.985883,
            32.831304
          ],
          [
            34.985879,
            32.831321
          ],
          [
            34.985876,
            32.831329
          ],
          [
            34.985868,
            32.831346
          ],
          [
            34.985857,
            32.831361
          ],
          [
            34.985851,
            32.831369
          ],
          [
            34.985845,
            32.831376
          ],
          [
            34.98583,
            32.831389
          ],
          [
            34.985813,
            32.8314
          ],
          [
            34.985795,
            32.831409
          ],
          [
            34.985775,
            32.831417
          ],
          [
            34.985755,
            32.831423
          ],
          [
            34.985734,
            32.831426
          ],
          [
            34.985712,
            32.831428
          ],
          [
            34.985688,
            32.831426
          ],
          [
            34.985315,
            32.831586
          ],
          [
            34.98511,
            32.831662
          ],
          [
            34.984984,
            32.831698
          ],
          [
            34.984826,
            32.831734
          ],
          [
            34.984395,
            32.831833
          ],
          [
            34.984147,
            32.83189
          ],
          [
            34.983881,
            32.831961
          ],
          [
            34.983662,
            32.832005
          ],
          [
            34.98328,
            32.832076
          ],
          [
            34.983172,
            32.832078
          ],
          [
            34.982767,
            32.832168
          ],
          [
            34.982591,
            32.8322
          ],
          [
            34.982463,
            32.832201
          ],
          [
            34.982347,
            32.83219
          ],
          [
            34.982175,
            32.832171
          ],
          [
            34.981886,
            32.832117
          ],
          [
            34.981499,
            32.832076
          ],
          [
            34.981312,
            32.832056
          ],
          [
            34.980738,
            32.832029
          ],
          [
            34.980731,
            32.832058
          ],
          [
            34.980718,
            32.832074
          ],
          [
            34.980695,
            32.832093
          ],
          [
            34.980656,
            32.832111
          ],
          [
            34.980609,
            32.832108
          ],
          [
            34.980566,
            32.83209
          ],
          [
            34.980537,
            32.832062
          ],
          [
            34.980526,
            32.83202
          ],
          [
            34.980274,
            32.832051
          ],
          [
            34.980137,
            32.832068
          ],
          [
            34.979646,
            32.832129
          ],
          [
            34.979141,
            32.832174
          ],
          [
            34.978898,
            32.832176
          ],
          [
            34.978686,
            32.832164
          ],
          [
            34.978607,
            32.832156
          ],
          [
            34.978471,
            32.832156
          ],
          [
            34.978224,
            32.832172
          ],
          [
            34.978207,
            32.832181
          ],
          [
            34.978189,
            32.832189
          ],
          [
            34.97817,
            32.832194
          ],
          [
            34.978143,
            32.8322
          ],
          [
            34.978118,
            32.832202
          ],
          [
            34.978097,
            32.832202
          ],
          [
            34.978076,
            32.832201
          ],
          [
            34.978055,
            32.832198
          ],
          [
            34.978017,
            32.832187
          ],
          [
            34.977999,
            32.832179
          ],
          [
            34.977991,
            32.832175
          ],
          [
            34.977976,
            32.832165
          ],
          [
            34.97797,
            32.83216
          ],
          [
            34.977958,
            32.832149
          ],
          [
            34.977951,
            32.832141
          ],
          [
            34.977944,
            32.832131
          ],
          [
            34.977939,
            32.832118
          ],
          [
            34.977937,
            32.832111
          ],
          [
            34.977935,
            32.832098
          ],
          [
            34.977591,
            32.832158
          ],
          [
            34.977392,
            32.832188
          ],
          [
            34.977147,
            32.832244
          ],
          [
            34.976955,
            32.832265
          ],
          [
            34.97672,
            32.832267
          ],
          [
            34.976488,
            32.832237
          ],
          [
            34.976413,
            32.832225
          ],
          [
            34.976198,
            32.832188
          ],
          [
            34.975717,
            32.83207
          ],
          [
            34.975566,
            32.832048
          ],
          [
            34.97495,
            32.831927
          ],
          [
            34.974839,
            32.831896
          ],
          [
            34.974645,
            32.831854
          ],
          [
            34.974033,
            32.831719
          ],
          [
            34.973827,
            32.831688
          ],
          [
            34.973606,
            32.831652
          ],
          [
            34.972613,
            32.8315
          ],
          [
            34.971384,
            32.831293
          ],
          [
            34.971212,
            32.831411
          ],
          [
            34.971115,
            32.831437
          ],
          [
            34.971057,
            32.831431
          ],
          [
            34.97105,
            32.83143
          ],
          [
            34.970984,
            32.831411
          ],
          [
            34.970967,
            32.831386
          ],
          [
            34.970953,
            32.831344
          ],
          [
            34.970962,
            32.831278
          ],
          [
            34.97098203694267,
            32.83116636560509
          ]
        ]
      }
    },
    {
      "type": "Feature",
      "properties": {
        "type": "original_route_stop",
        "stop_code": "41533",
        "stop_name": "ת. מרכזית המפרץ/רציפים עירוני",
        "marker-color": "#2ca02c",
        "marker-symbol": "bus",
        "marker-size": "medium"
      },
      "geometry": {
        "type": "Point",
        "coordinates": [
          35.034779,
          32.792678
        ]
      }
    },
    {
      "type": "Feature",
      "properties": {
        "type": "original_route_stop",
        "stop_code": "42571",
        "stop_name": "גרנד קניון/שמחה גולן",
        "marker-color": "#2ca02c",
        "marker-symbol": "bus",
        "marker-size": "medium"
      },
      "geometry": {
        "type": "Point",
        "coordinates": [
          35.008567,
          32.789085
        ]
      }
    },
    {
      "type": "Feature",
      "properties": {
        "type": "original_route_stop",
        "stop_code": "42870",
        "stop_name": "שמחה גולן/חניתה",
        "marker-color": "#2ca02c",
        "marker-symbol": "bus",
        "marker-size": "medium"
      },
      "geometry": {
        "type": "Point",
        "coordinates": [
          35.016233,
          32.78686
        ]
      }
    },
    {
      "type": "Feature",
      "properties": {
        "type": "original_route_stop",
        "stop_code": "43077",
        "stop_name": "טרומפלדור/חניתה",
        "marker-color": "#2ca02c",
        "marker-symbol": "bus",
        "marker-size": "medium"
      },
      "geometry": {
        "type": "Point",
        "coordinates": [
          35.017323,
          32.785034
        ]
      }
    },
    {
      "type": "Feature",
      "properties": {
        "type": "original_route_stop",
        "stop_code": "41208",
        "stop_name": "טרומפלדור/מרכז זיו",
        "marker-color": "#2ca02c",
        "marker-symbol": "bus",
        "marker-size": "medium"
      },
      "geometry": {
        "type": "Point",
        "coordinates": [
          35.014971,
          32.78356
        ]
      }
    },
    {
      "type": "Feature",
      "properties": {
        "type": "original_route_stop",
        "stop_code": "41201",
        "stop_name": "חנקין/קומוי",
        "marker-color": "#2ca02c",
        "marker-symbol": "bus",
        "marker-size": "medium"
      },
      "geometry": {
        "type": "Point",
        "coordinates": [
          35.013178,
          32.782206
        ]
      }
    },
    {
      "type": "Feature",
      "properties": {
        "type": "original_route_stop",
        "stop_code": "41196",
        "stop_name": "דרך חנקין/בת חן",
        "marker-color": "#2ca02c",
        "marker-symbol": "bus",
        "marker-size": "medium"
      },
      "geometry": {
        "type": "Point",
        "coordinates": [
          35.00818,
          32.782348
        ]
      }
    },
    {
      "type": "Feature",
      "properties": {
        "type": "original_route_stop",
        "stop_code": "41751",
        "stop_name": "חנקין/גוטל לוין",
        "marker-color": "#2ca02c",
        "marker-symbol": "bus",
        "marker-size": "medium"
      },
      "geometry": {
        "type": "Point",
        "coordinates": [
          35.003877,
          32.784122
        ]
      }
    },
    {
      "type": "Feature",
      "properties": {
        "type": "original_route_stop",
        "stop_code": "41701",
        "stop_name": "רופין/ככר אליזבט",
        "marker-color": "#2ca02c",
        "marker-symbol": "bus",
        "marker-size": "medium"
      },
      "geometry": {
        "type": "Point",
        "coordinates": [
          35.000213,
          32.787876
        ]
      }
    },
    {
      "type": "Feature",
      "properties": {
        "type": "original_route_stop",
        "stop_code": "41968",
        "stop_name": "רופין/שמחה גולן",
        "marker-color": "#2ca02c",
        "marker-symbol": "bus",
        "marker-size": "medium"
      },
      "geometry": {
        "type": "Point",
        "coordinates": [
          35.0034,
          32.790837
        ]
      }
    },
    {
      "type": "Feature",
      "properties": {
        "type": "original_route_stop",
        "stop_code": "41575",
        "stop_name": "רופין/קניאל",
        "marker-color": "#2ca02c",
        "marker-symbol": "bus",
        "marker-size": "medium"
      },
      "geometry": {
        "type": "Point",
        "coordinates": [
          35.002022,
          32.799437
        ]
      }
    },
    {
      "type": "Feature",
      "properties": {
        "type": "original_route_stop",
        "stop_code": "41253",
        "stop_name": "גאולה/רבי עקיבא",
        "marker-color": "#2ca02c",
        "marker-symbol": "bus",
        "marker-size": "medium"
      },
      "geometry": {
        "type": "Point",
        "coordinates": [
          35.000393,
          32.802606
        ]
      }
    },
    {
      "type": "Feature",
      "properties": {
        "type": "original_route_stop",
        "stop_code": "41284",
        "stop_name": "מעלה השחרור/שיבת ציון",
        "marker-color": "#2ca02c",
        "marker-symbol": "bus",
        "marker-size": "medium"
      },
      "geometry": {
        "type": "Point",
        "coordinates": [
          35.000982,
          32.813099
        ]
      }
    },
    {
      "type": "Feature",
      "properties": {
        "type": "original_route_stop",
        "stop_code": "41287",
        "stop_name": "שיבת ציון/רובין",
        "marker-color": "#2ca02c",
        "marker-symbol": "bus",
        "marker-size": "medium"
      },
      "geometry": {
        "type": "Point",
        "coordinates": [
          34.999444,
          32.816076
        ]
      }
    },
    {
      "type": "Feature",
      "properties": {
        "type": "original_route_stop",
        "stop_code": "41170",
        "stop_name": "המגינים/ככר ההגנה",
        "marker-color": "#2ca02c",
        "marker-symbol": "bus",
        "marker-size": "medium"
      },
      "geometry": {
        "type": "Point",
        "coordinates": [
          34.997684,
          32.818597
        ]
      }
    },
    {
      "type": "Feature",
      "properties": {
        "type": "original_route_stop",
        "stop_code": "41168",
        "stop_name": "המגינים/מאיר",
        "marker-color": "#2ca02c",
        "marker-symbol": "bus",
        "marker-size": "medium"
      },
      "geometry": {
        "type": "Point",
        "coordinates": [
          34.992937,
          32.820728
        ]
      }
    },
    {
      "type": "Feature",
      "properties": {
        "type": "original_route_stop",
        "stop_code": "42954",
        "stop_name": "המגינים/בן גוריון",
        "marker-color": "#2ca02c",
        "marker-symbol": "bus",
        "marker-size": "medium"
      },
      "geometry": {
        "type": "Point",
        "coordinates": [
          34.991663,
          32.821301
        ]
      }
    },
    {
      "type": "Feature",
      "properties": {
        "type": "original_route_stop",
        "stop_code": "47882",
        "stop_name": "בית חולים איטלקי/המגינים",
        "marker-color": "#2ca02c",
        "marker-symbol": "bus",
        "marker-size": "medium"
      },
      "geometry": {
        "type": "Point",
        "coordinates": [
          34.988216,
          32.822782
        ]
      }
    },
    {
      "type": "Feature",
      "properties": {
        "type": "original_route_stop",
        "stop_code": "47940",
        "stop_name": "מרכז רפואי לין",
        "marker-color": "#2ca02c",
        "marker-symbol": "bus",
        "marker-size": "medium"
      },
      "geometry": {
        "type": "Point",
        "coordinates": [
          34.985203,
          32.824102
        ]
      }
    },
    {
      "type": "Feature",
      "properties": {
        "type": "original_route_stop",
        "stop_code": "42953",
        "stop_name": "צומת דולפין",
        "marker-color": "#2ca02c",
        "marker-symbol": "bus",
        "marker-size": "medium"
      },
      "geometry": {
        "type": "Point",
        "coordinates": [
          34.983728,
          32.826827
        ]
      }
    },
    {
      "type": "Feature",
      "properties": {
        "type": "original_route_stop",
        "stop_code": "41157",
        "stop_name": "בי''ח רמב''ם/העלייה השנייה",
        "marker-color": "#2ca02c",
        "marker-symbol": "bus",
        "marker-size": "medium"
      },
      "geometry": {
        "type": "Point",
        "coordinates": [
          34.985153,
          32.831695
        ]
      }
    },
    {
      "type": "Feature",
      "properties": {
        "type": "original_route_stop",
        "stop_code": "41159",
        "stop_name": "העליה השניה/עפרון",
        "marker-color": "#2ca02c",
        "marker-symbol": "bus",
        "marker-size": "medium"
      },
      "geometry": {
        "type": "Point",
        "coordinates": [
          34.983022,
          32.832158
        ]
      }
    },
    {
      "type": "Feature",
      "properties": {
        "type": "original_route_stop",
        "stop_code": "41160",
        "stop_name": "העליה השניה/לוץ",
        "marker-color": "#2ca02c",
        "marker-symbol": "bus",
        "marker-size": "medium"
      },
      "geometry": {
        "type": "Point",
        "coordinates": [
          34.980321,
          32.832091
        ]
      }
    },
    {
      "type": "Feature",
      "properties": {
        "type": "original_route_stop",
        "stop_code": "41569",
        "stop_name": "העליה השניה/הכ''ג",
        "marker-color": "#2ca02c",
        "marker-symbol": "bus",
        "marker-size": "medium"
      },
      "geometry": {
        "type": "Point",
        "coordinates": [
          34.977363,
          32.832242
        ]
      }
    },
    {
      "type": "Feature",
      "properties": {
        "type": "original_route_stop",
        "stop_code": "41570",
        "stop_name": "העליה השניה/אלישע",
        "marker-color": "#2ca02c",
        "marker-symbol": "bus",
        "marker-size": "medium"
      },
      "geometry": {
        "type": "Point",
        "coordinates": [
          34.97453,
          32.831875
        ]
      }
    },
    {
      "type": "Feature",
      "properties": {
        "type": "original_route_stop",
        "stop_code": "42015",
        "stop_name": "רכבל/העלייה השנייה",
        "marker-color": "#2ca02c",
        "marker-symbol": "bus",
        "marker-size": "medium"
      },
      "geometry": {
        "type": "Point",
        "coordinates": [
          34.970941,
          32.831159
        ]
      }
    },
    {
      "type": "Feature",
      "properties": {
        "type": "cancelled_stop",
        "stop_code": "41250",
        "stop_name": "ארלוזורוב/גאולה",
        "marker-color": "#ff0000",
        "marker-symbol": "bus",
        "marker-size": "medium"
      },
      "geometry": {
        "type": "Point",
        "coordinates": [
          34.998293,
          32.805373
        ]
      }
    },
    {
      "type": "Feature",
      "properties": {
        "type": "cancelled_stop",
        "stop_code": "41251",
        "stop_name": "ארלוזורוב/בלפור",
        "marker-color": "#ff0000",
        "marker-symbol": "bus",
        "marker-size": "medium"
      },
      "geometry": {
        "type": "Point",
        "coordinates": [
          34.995586,
          32.807177
        ]
      }
    },
    {
      "type": "Feature",
      "properties": {
        "type": "cancelled_stop",
        "stop_code": "41134",
        "stop_name": "בלפור/יוסף",
        "marker-color": "#ff0000",
        "marker-symbol": "bus",
        "marker-size": "medium"
      },
      "geometry": {
        "type": "Point",
        "coordinates": [
          34.995827,
          32.808789
        ]
      }
    },
    {
      "type": "Feature",
      "properties": {
        "type": "cancelled_stop",
        "stop_code": "41135",
        "stop_name": "מדעטק/בלפור",
        "marker-color": "#ff0000",
        "marker-symbol": "bus",
        "marker-size": "medium"
      },
      "geometry": {
        "type": "Point",
        "coordinates": [
          34.997048,
          32.809805
        ]
      }
    },
    {
      "type": "Feature",
      "properties": {
        "type": "new_stop",
        "stop_code": "41252",
        "stop_name": "ארלוזורוב/פבזנר",
        "marker-color": "#1f9ed6",
        "marker-symbol": "bus",
        "marker-size": "medium"
      },
      "geometry": {
        "type": "Point",
        "coordinates": [
          35.000398,
          32.804716
        ]
      }
    },
    {
      "type": "Feature",
      "properties": {
        "type": "new_stop",
        "stop_code": "41279",
        "stop_name": "מיכאל/בר כוכבא",
        "marker-color": "#1f9ed6",
        "marker-symbol": "bus",
        "marker-size": "medium"
      },
      "geometry": {
        "type": "Point",
        "coordinates": [
          35.001427,
          32.80542
        ]
      }
    },
    {
      "type": "Feature",
      "properties": {
        "type": "new_stop",
        "stop_code": "47529",
        "stop_name": "שוק תלפיות",
        "marker-color": "#1f9ed6",
        "marker-symbol": "bus",
        "marker-size": "medium"
      },
      "geometry": {
        "type": "Point",
        "coordinates": [
          35.000902,
          32.807824
        ]
      }
    },
    {
      "type": "Feature",
      "properties": {
        "type": "new_stop",
        "stop_code": "47530",
        "stop_name": "לב הדר",
        "marker-color": "#1f9ed6",
        "marker-symbol": "bus",
        "marker-size": "medium"
      },
      "geometry": {
        "type": "Point",
        "coordinates": [
          34.998949,
          32.809682
        ]
      }
    },
    {
      "type": "Feature",
      "properties": {
        "type": "reported_block_stop",
        "stop_code": "41134",
        "stop_name": "בלפור/יוסף",
        "marker-color": "#ff8800",
        "marker-symbol": "bus",
        "marker-size": "medium"
      },
      "geometry": {
        "type": "Point",
        "coordinates": [
          34.995827,
          32.808789
        ]
      }
    },
    {
      "type": "Feature",
      "properties": {
        "type": "reported_block_stop",
        "stop_code": "41135",
        "stop_name": "מדעטק/בלפור",
        "marker-color": "#ff8800",
        "marker-symbol": "bus",
        "marker-size": "medium"
      },
      "geometry": {
        "type": "Point",
        "coordinates": [
          34.997048,
          32.809805
        ]
      }
    },
    {
      "type": "Feature",
      "properties": {
        "type": "deviate_from_stop",
        "stop_code": "41254",
        "stop_name": "גאולה/בן זכאי",
        "marker-color": "#8000ff",
        "marker-symbol": "bus",
        "marker-size": "medium"
      },
      "geometry": {
        "type": "Point",
        "coordinates": [
          34.999049,
          32.803813
        ]
      }
    },
    {
      "type": "Feature",
      "properties": {
        "type": "deviate_to_stop",
        "stop_code": "43090",
        "stop_name": "עיריית חיפה/ביאליק",
        "marker-color": "#8000ff",
        "marker-symbol": "bus",
        "marker-size": "medium"
      },
      "geometry": {
        "type": "Point",
        "coordinates": [
          34.999105,
          32.812012
        ]
      }
    }
  ]
}