{
  "type": "FeatureCollection",
  "features": [
    {
      "type": "Feature",
      "properties": {
        "type": "deviation_path_edge",
        "from_stop_code": "25750",
        "to_stop_code": "26100",
        "stroke": "#00bcd4",
        "stroke-width": 3,
        "stroke-opacity": 0.95
      },
      "geometry": {
        "type": "LineString",
        "coordinates": [
          [
            34.79961761889721,
            32.070106298080326
          ],
          [
            34.799795,
            32.070551
          ],
          [
            34.799845,
            32.070676
          ],
          [
            34.799861,
            32.07072
          ],
          [
            34.79988,
            32.070773
          ],
          [
            34.799912,
            32.070861
          ],
          [
            34.799983,
            32.071057
          ],
          [
            34.800178,
            32.071596
          ],
          [
            34.80072,
            32.07287
          ],
          [
            34.800855,
            32.073244
          ],
          [
            34.800943,
            32.07345
          ],
          [
            34.801056,
            32.073737
          ],
          [
            34.801083,
            32.073802
          ],
          [
            34.801200293412286,
            32.07411523838383
          ]
        ]
      }
    },
    {
      "type": "Feature",
      "properties": {
        "type": "deviation_path_edge",
        "from_stop_code": "26100",
        "to_stop_code": "21095",
        "stroke": "#00bcd4",
        "stroke-width": 3,
        "stroke-opacity": 0.95
      },
      "geometry": {
        "type": "LineString",
        "coordinates": [
          [
            34.801200293412286,
            32.07411523838383
          ],
          [
            34.801426,
            32.074718
          ],
          [
            34.801702,
            32.075295
          ],
          [
            34.802305,
            32.075278
          ],
          [
            34.802962,
            32.075258
          ],
          [
            34.80336004461481,
            32.07523117101248
          ]
        ]
      }
    },
    {
      "type": "Feature",
      "properties": {
        "type": "deviation_path_edge",
        "from_stop_code": "21095",
        "to_stop_code": "22921",
        "stroke": "#00bcd4",
        "stroke-width": 3,
        "stroke-opacity": 0.95
      },
      "geometry": {
        "type": "LineString",
        "coordinates": [
          [
            34.80336004461481,
            32.07523117101248
          ],
          [
            34.803778,
            32.075203
          ],
          [
            34.804438,
            32.075193
          ],
          [
            34.804713,
            32.075179
          ],
          [
            34.80556152807476,
            32.0751505079765
          ]
        ]
      }
    },
    {
      "type": "Feature",
      "properties": {
        "type": "deviation_path_edge",
        "from_stop_code": "22921",
        "to_stop_code": "26127",
        "stroke": "#00bcd4",
        "stroke-width": 3,
        "stroke-opacity": 0.95
      },
      "geometry": {
        "type": "LineString",
        "coordinates": [
          [
            34.80556152807476,
            32.0751505079765
          ],
          [
            34.805666,
            32.075147
          ],
          [
            34.806437,
            32.075147
          ],
          [
            34.8071,
            32.075175
          ],
          [
            34.807528,
            32.075203
          ],
          [
            34.807661,
            32.075212
          ],
          [
            34.8079737344817,
            32.07522082855214
          ]
        ]
      }
    },
    {
      "type": "Feature",
      "properties": {
        "type": "deviation_path_edge",
        "from_stop_code": "26127",
        "to_stop_code": "26130",
        "stroke": "#00bcd4",
        "stroke-width": 3,
        "stroke-opacity": 0.95
      },
      "geometry": {
        "type": "LineString",
        "coordinates": [
          [
            34.8079737344817,
            32.07522082855214
          ],
          [
            34.808582,
            32.075238
          ],
          [
            34.808693,
            32.075249
          ],
          [
            34.808845,
            32.075285
          ],
          [
            34.809141,
            32.075388
          ],
          [
            34.809416,
            32.075527
          ],
          [
            34.809581,
            32.075582
          ],
          [
            34.809746,
            32.075637
          ],
          [
            34.809872,
            32.075667
          ],
          [
            34.810021,
            32.075678
          ],
          [
            34.810224,
            32.075681
          ],
          [
            34.810577,
            32.075665
          ],
          [
            34.810608,
            32.075668
          ],
          [
            34.81075142705516,
            32.07566983293361
          ]
        ]
      }
    },
    {
      "type": "Feature",
      "properties": {
        "type": "original_route_shape",
        "shape_id": "164697",
        "stroke": "#1f2a7a",
        "stroke-width": 3,
        "stroke-opacity": 0.85
      },
      "geometry": {
        "type": "LineString",
        "coordinates": [
          [
            34.78447198821849,
            32.048170178864694
          ],
          [
            34.784482,
            32.048194
          ],
          [
            34.784593,
            32.048457
          ],
          [
            34.78472,
            32.048752
          ],
          [
            34.784727,
            32.048762
          ],
          [
            34.784764,
            32.048902
          ],
          [
            34.784795,
            32.049036
          ],
          [
            34.784794,
            32.049192
          ],
          [
            34.784768,
            32.049305
          ],
          [
            34.784728,
            32.049398
          ],
          [
            34.78469,
            32.049452
          ],
          [
            34.784599,
            32.049548
          ],
          [
            34.784476,
            32.049648
          ],
          [
            34.784381,
            32.049728
          ],
          [
            34.784312,
            32.049798
          ],
          [
            34.784265,
            32.049844
          ],
          [
            34.784236,
            32.049873
          ],
          [
            34.784159,
            32.049958
          ],
          [
            34.784109,
            32.050007
          ],
          [
            34.784052,
            32.050082
          ],
          [
            34.783994,
            32.050151
          ],
          [
            34.783905,
            32.050291
          ],
          [
            34.783854,
            32.050387
          ],
          [
            34.783764,
            32.0506
          ],
          [
            34.783716,
            32.050729
          ],
          [
            34.783526,
            32.051256
          ],
          [
            34.783404,
            32.051622
          ],
          [
            34.783359,
            32.051826
          ],
          [
            34.783334,
            32.05198
          ],
          [
            34.783319,
            32.052098
          ],
          [
            34.783314,
            32.052144
          ],
          [
            34.783305,
            32.052363
          ],
          [
            34.783299,
            32.052786
          ],
          [
            34.783315,
            32.053495
          ],
          [
            34.783323,
            32.053681
          ],
          [
            34.783356,
            32.05425
          ],
          [
            34.783359,
            32.05435
          ],
          [
            34.783369,
            32.054421
          ],
          [
            34.78329,
            32.054434
          ],
          [
            34.783221,
            32.054452
          ],
          [
            34.783134,
            32.054482
          ],
          [
            34.782968,
            32.054517
          ],
          [
            34.78278,
            32.05456
          ],
          [
            34.782611,
            32.05461
          ],
          [
            34.782544,
            32.05463
          ],
          [
            34.782368,
            32.0547
          ],
          [
            34.782341,
            32.054717
          ],
          [
            34.782498,
            32.05526
          ],
          [
            34.782582,
            32.055344
          ],
          [
            34.782607,
            32.05536
          ],
          [
            34.782662,
            32.05539
          ],
          [
            34.783238,
            32.055135
          ],
          [
            34.783293,
            32.05511
          ],
          [
            34.783423,
            32.055054
          ],
          [
            34.783566,
            32.054989
          ],
          [
            34.783616,
            32.054966
          ],
          [
            34.783701,
            32.054929
          ],
          [
            34.784261,
            32.054683
          ],
          [
            34.784415,
            32.054616
          ],
          [
            34.784539,
            32.054563
          ],
          [
            34.784652,
            32.054514
          ],
          [
            34.784808,
            32.054452
          ],
          [
            34.785034,
            32.054362
          ],
          [
            34.785195,
            32.054292
          ],
          [
            34.785241,
            32.054272
          ],
          [
            34.785374,
            32.054216
          ],
          [
            34.785422,
            32.054196
          ],
          [
            34.785743,
            32.054096
          ],
          [
            34.785859,
            32.054083
          ],
          [
            34.785975,
            32.054083
          ],
          [
            34.78615,
            32.054097
          ],
          [
            34.786431,
            32.054131
          ],
          [
            34.787094,
            32.054182
          ],
          [
            34.787316,
            32.054191
          ],
          [
            34.788194,
            32.054191
          ],
          [
            34.788605,
            32.054168
          ],
          [
            34.78957,
            32.054078
          ],
          [
            34.789646,
            32.054069
          ],
          [
            34.790079,
            32.054033
          ],
          [
            34.790566,
            32.054
          ],
          [
            34.790885,
            32.053978
          ],
          [
            34.791574,
            32.053952
          ],
          [
            34.791771,
            32.053912
          ],
          [
            34.792139,
            32.053865
          ],
          [
            34.792451,
            32.053817
          ],
          [
            34.792683,
            32.053794
          ],
          [
            34.793018,
            32.053762
          ],
          [
            34.793461,
            32.053728
          ],
          [
            34.793941,
            32.053705
          ],
          [
            34.794218,
            32.053689
          ],
          [
            34.794738,
            32.053653
          ],
          [
            34.795039,
            32.053638
          ],
          [
            34.795428,
            32.053617
          ],
          [
            34.796192,
            32.05357
          ],
          [
            34.796304,
            32.053563
          ],
          [
            34.79764,
            32.053472
          ],
          [
            34.798322,
            32.053439
          ],
          [
            34.798845,
            32.0534
          ],
          [
            34.799879,
            32.05333
          ],
          [
            34.799982,
            32.053323
          ],
          [
            34.800187,
            32.05327
          ],
          [
            34.800198,
            32.053383
          ],
          [
            34.800261,
            32.054294
          ],
          [
            34.800278,
            32.054528
          ],
          [
            34.800404,
            32.056144
          ],
          [
            34.800489,
            32.057666
          ],
          [
            34.800477,
            32.058217
          ],
          [
            34.80046,
            32.058989
          ],
          [
            34.800455,
            32.059179
          ],
          [
            34.800451,
            32.059396
          ],
          [
            34.800444,
            32.059723
          ],
          [
            34.800386,
            32.060386
          ],
          [
            34.80033,
            32.060731
          ],
          [
            34.800274,
            32.061061
          ],
          [
            34.800272,
            32.061071
          ],
          [
            34.800098,
            32.061643
          ],
          [
            34.799858,
            32.062278
          ],
          [
            34.799831,
            32.062349
          ],
          [
            34.799689,
            32.062745
          ],
          [
            34.79951,
            32.063245
          ],
          [
            34.799379,
            32.063633
          ],
          [
            34.799296,
            32.063882
          ],
          [
            34.799197,
            32.064227
          ],
          [
            34.799166,
            32.064334
          ],
          [
            34.799023,
            32.064835
          ],
          [
            34.798957,
            32.065057
          ],
          [
            34.798935,
            32.065174
          ],
          [
            34.798869,
            32.065888
          ],
          [
            34.798861,
            32.066086
          ],
          [
            34.798859,
            32.066694
          ],
          [
            34.798875,
            32.067088
          ],
          [
            34.798886,
            32.067265
          ],
          [
            34.798945,
            32.06782
          ],
          [
            34.798962,
            32.067921
          ],
          [
            34.799037,
            32.068348
          ],
          [
            34.799082,
            32.06861
          ],
          [
            34.799107,
            32.068694
          ],
          [
            34.799193,
            32.068965
          ],
          [
            34.799272,
            32.069195
          ],
          [
            34.799386,
            32.069527
          ],
          [
            34.799511,
            32.069839
          ],
          [
            34.799795,
            32.070551
          ],
          [
            34.799888,
            32.070622
          ],
          [
            34.799946,
            32.070646
          ],
          [
            34.800011,
            32.070653
          ],
          [
            34.800199,
            32.070629
          ],
          [
            34.800639,
            32.070477
          ],
          [
            34.801157,
            32.070321
          ],
          [
            34.801586,
            32.0702
          ],
          [
            34.801834,
            32.070107
          ],
          [
            34.801908,
            32.070205
          ],
          [
            34.802037,
            32.070375
          ],
          [
            34.802313,
            32.07072
          ],
          [
            34.802664,
            32.070492
          ],
          [
            34.803186,
            32.070339
          ],
          [
            34.803364,
            32.070297
          ],
          [
            34.803601,
            32.070273
          ],
          [
            34.803848,
            32.070267
          ],
          [
            34.804266,
            32.070297
          ],
          [
            34.805232,
            32.070368
          ],
          [
            34.806181,
            32.070436
          ],
          [
            34.806398,
            32.070438
          ],
          [
            34.8064,
            32.070431
          ],
          [
            34.806403,
            32.07042
          ],
          [
            34.806409,
            32.070409
          ],
          [
            34.806416,
            32.070399
          ],
          [
            34.806424,
            32.07039
          ],
          [
            34.806434,
            32.070382
          ],
          [
            34.806445,
            32.070375
          ],
          [
            34.806453,
            32.07037
          ],
          [
            34.806469,
            32.070364
          ],
          [
            34.806482,
            32.070361
          ],
          [
            34.806496,
            32.070359
          ],
          [
            34.80651,
            32.070358
          ],
          [
            34.806523,
            32.070359
          ],
          [
            34.806537,
            32.070362
          ],
          [
            34.80655,
            32.070365
          ],
          [
            34.806563,
            32.070371
          ],
          [
            34.806574,
            32.070377
          ],
          [
            34.806584,
            32.070384
          ],
          [
            34.806594,
            32.070393
          ],
          [
            34.8066,
            32.070399
          ],
          [
            34.806608,
            32.070412
          ],
          [
            34.806615,
            32.070428
          ],
          [
            34.806618,
            32.070446
          ],
          [
            34.806618,
            32.070458
          ],
          [
            34.80683,
            32.070483
          ],
          [
            34.807451,
            32.070557
          ],
          [
            34.808508,
            32.070651
          ],
          [
            34.808581,
            32.070651
          ],
          [
            34.808586,
            32.070943
          ],
          [
            34.808587,
            32.07115
          ],
          [
            34.80857,
            32.071199
          ],
          [
            34.808573,
            32.07126
          ],
          [
            34.8086,
            32.071636
          ],
          [
            34.808614,
            32.071871
          ],
          [
            34.808627,
            32.072131
          ],
          [
            34.808635,
            32.07293
          ],
          [
            34.808587,
            32.073554
          ],
          [
            34.808591,
            32.073681
          ],
          [
            34.808586,
            32.073884
          ],
          [
            34.808621,
            32.074033
          ],
          [
            34.808628,
            32.074076
          ],
          [
            34.808631,
            32.074127
          ],
          [
            34.808624,
            32.074455
          ],
          [
            34.808618,
            32.074509
          ],
          [
            34.808608,
            32.074548
          ],
          [
            34.808587,
            32.074582
          ],
          [
            34.808567,
            32.07474
          ],
          [
            34.808573,
            32.075117
          ],
          [
            34.808582,
            32.075238
          ],
          [
            34.808693,
            32.075249
          ],
          [
            34.808845,
            32.075285
          ],
          [
            34.809141,
            32.075388
          ],
          [
            34.809416,
            32.075527
          ],
          [
            34.809581,
            32.075582
          ],
          [
            34.809746,
            32.075637
          ],
          [
            34.809872,
            32.075667
          ],
          [
            34.810021,
            32.075678
          ],
          [
            34.810224,
            32.075681
          ],
          [
            34.810577,
            32.075665
          ],
          [
            34.810608,
            32.075668
          ],
          [
            34.811547,
            32.07568
          ],
          [
            34.811875,
            32.075687
          ],
          [
            34.811986,
            32.075696
          ],
          [
            34.812073,
            32.075713
          ],
          [
            34.812205,
            32.075758
          ],
          [
            34.812448,
            32.075878
          ],
          [
            34.812593,
            32.075981
          ],
          [
            34.812747,
            32.076102
          ],
          [
            34.813058,
            32.076374
          ],
          [
            34.813687,
            32.076923
          ],
          [
            34.813783,
            32.077011
          ],
          [
            34.813852,
            32.077067
          ],
          [
            34.814013,
            32.077112
          ],
          [
            34.814136,
            32.077126
          ],
          [
            34.814385,
            32.077138
          ],
          [
            34.814439,
            32.077219
          ],
          [
            34.814456,
            32.077352
          ],
          [
            34.814466,
            32.077442
          ],
          [
            34.814487,
            32.077495
          ],
          [
            34.814575,
            32.077617
          ],
          [
            34.814769,
            32.077839
          ],
          [
            34.815098,
            32.078197
          ],
          [
            34.815129,
            32.078242
          ],
          [
            34.815166,
            32.078312
          ],
          [
            34.815168,
            32.078324
          ],
          [
            34.815172,
            32.07837
          ],
          [
            34.815152,
            32.078429
          ],
          [
            34.815059,
            32.07869
          ],
          [
            34.814991,
            32.078822
          ],
          [
            34.81492,
            32.079026
          ],
          [
            34.814933,
            32.079093
          ],
          [
            34.814976,
            32.079146
          ],
          [
            34.815386,
            32.079224
          ],
          [
            34.815701,
            32.079324
          ],
          [
            34.815888,
            32.079408
          ],
          [
            34.816007,
            32.079463
          ],
          [
            34.816663,
            32.079703
          ],
          [
            34.817002,
            32.07989
          ],
          [
            34.817335,
            32.080087
          ],
          [
            34.817862,
            32.080397
          ],
          [
            34.818252,
            32.080648
          ],
          [
            34.818455,
            32.08086
          ],
          [
            34.81859,
            32.081002
          ],
          [
            34.818281,
            32.081147
          ],
          [
            34.817917,
            32.081311
          ],
          [
            34.817398,
            32.081546
          ],
          [
            34.817277,
            32.081617
          ],
          [
            34.817082,
            32.081722
          ],
          [
            34.816831,
            32.081858
          ],
          [
            34.816515,
            32.082107
          ],
          [
            34.816361,
            32.082256
          ],
          [
            34.816293,
            32.08233
          ],
          [
            34.816191,
            32.08245
          ],
          [
            34.816165,
            32.082486
          ],
          [
            34.816109,
            32.082562
          ],
          [
            34.81592,
            32.082807
          ],
          [
            34.815841,
            32.082933
          ],
          [
            34.815741,
            32.083116
          ],
          [
            34.8157,
            32.083213
          ],
          [
            34.815648,
            32.083337
          ],
          [
            34.815451,
            32.083799
          ],
          [
            34.815416,
            32.083986
          ],
          [
            34.815264,
            32.084813
          ],
          [
            34.815212,
            32.085206
          ],
          [
            34.815195,
            32.085343
          ],
          [
            34.815003,
            32.086367
          ],
          [
            34.814938,
            32.086816
          ],
          [
            34.81491,
            32.087005
          ],
          [
            34.814884,
            32.087389
          ],
          [
            34.814832,
            32.087687
          ],
          [
            34.814782,
            32.087988
          ],
          [
            34.814785,
            32.08826
          ],
          [
            34.814815,
            32.088346
          ],
          [
            34.81487,
            32.088419
          ],
          [
            34.814963,
            32.088502
          ],
          [
            34.815156,
            32.088585
          ],
          [
            34.815574,
            32.08871
          ],
          [
            34.815882,
            32.088803
          ],
          [
            34.81599,
            32.088828
          ],
          [
            34.816377,
            32.088918
          ],
          [
            34.817004,
            32.089066
          ],
          [
            34.817136,
            32.089097
          ],
          [
            34.817567,
            32.089188
          ],
          [
            34.817947,
            32.089285
          ],
          [
            34.817995,
            32.089297
          ],
          [
            34.818277,
            32.08939
          ],
          [
            34.81898,
            32.089709
          ],
          [
            34.819323,
            32.089854
          ],
          [
            34.81965,
            32.09
          ],
          [
            34.819958,
            32.090124
          ],
          [
            34.820211,
            32.090207
          ],
          [
            34.820512,
            32.090297
          ],
          [
            34.821427,
            32.09048
          ],
          [
            34.822186,
            32.090645
          ],
          [
            34.822581,
            32.090719
          ],
          [
            34.822616,
            32.090724
          ],
          [
            34.822741,
            32.090742
          ],
          [
            34.822918,
            32.090849
          ],
          [
            34.82295,
            32.090862
          ],
          [
            34.822993,
            32.090878
          ],
          [
            34.823892,
            32.09114
          ],
          [
            34.824094,
            32.091193
          ],
          [
            34.824555,
            32.091318
          ],
          [
            34.825077,
            32.091406
          ],
          [
            34.826316,
            32.091542
          ],
          [
            34.826796,
            32.09163
          ],
          [
            34.827003,
            32.091659
          ],
          [
            34.827222,
            32.091679
          ],
          [
            34.827411,
            32.091667
          ],
          [
            34.82779,
            32.091627
          ],
          [
            34.82864,
            32.091519
          ],
          [
            34.829404,
            32.091423
          ],
          [
            34.830028,
            32.091359
          ],
          [
            34.830421,
            32.091376
          ],
          [
            34.830784,
            32.091427
          ],
          [
            34.831242,
            32.091539
          ],
          [
            34.831387,
            32.091585
          ],
          [
            34.831461,
            32.091611
          ],
          [
            34.831901,
            32.091773
          ],
          [
            34.832214,
            32.091877
          ],
          [
            34.832685,
            32.092036
          ],
          [
            34.832966,
            32.092133
          ],
          [
            34.83329,
            32.09221
          ],
          [
            34.833354,
            32.092226
          ],
          [
            34.833405,
            32.092236
          ],
          [
            34.83347,
            32.092248
          ],
          [
            34.833902,
            32.092314
          ],
          [
            34.834366,
            32.092391
          ],
          [
            34.835085,
            32.092501
          ],
          [
            34.83533,
            32.09254
          ],
          [
            34.836406,
            32.092684
          ],
          [
            34.83662,
            32.0927
          ],
          [
            34.836806,
            32.092705
          ],
          [
            34.837056,
            32.092687
          ],
          [
            34.837713,
            32.092608
          ],
          [
            34.837994,
            32.092584
          ],
          [
            34.838517,
            32.092583
          ],
          [
            34.83931,
            32.092599
          ],
          [
            34.839454,
            32.092604
          ],
          [
            34.839901,
            32.092637
          ],
          [
            34.840813,
            32.092576
          ],
          [
            34.840813,
            32.092574
          ],
          [
            34.841351,
            32.092544
          ],
          [
            34.842309,
            32.092487
          ],
          [
            34.842623,
            32.09247
          ],
          [
            34.844247,
            32.09238
          ],
          [
            34.844812,
            32.092365
          ],
          [
            34.84489,
            32.09236
          ],
          [
            34.845315,
            32.092356
          ],
          [
            34.845371482969334,
            32.092355399117345
          ]
        ]
      }
    },
    {
      "type": "Feature",
      "properties": {
        "type": "original_route_stop",
        "stop_code": "21609",
        "stop_name": "חיל השריון/קיבוץ גלויות",
        "marker-color": "#2ca02c",
        "marker-symbol": "bus",
        "marker-size": "medium"
      },
      "geometry": {
        "type": "Point",
        "coordinates": [
          34.78452,
          32.04815
        ]
      }
    },
    {
      "type": "Feature",
      "properties": {
        "type": "original_route_stop",
        "stop_code": "25637",
        "stop_name": "ת.רכבת ההגנה",
        "marker-color": "#2ca02c",
        "marker-symbol": "bus",
        "marker-size": "medium"
      },
      "geometry": {
        "type": "Point",
        "coordinates": [
          34.783919,
          32.054782
        ]
      }
    },
    {
      "type": "Feature",
      "properties": {
        "type": "original_route_stop",
        "stop_code": "25641",
        "stop_name": "דרך ההגנה/המעפילים",
        "marker-color": "#2ca02c",
        "marker-symbol": "bus",
        "marker-size": "medium"
      },
      "geometry": {
        "type": "Point",
        "coordinates": [
          34.787909,
          32.054146
        ]
      }
    },
    {
      "type": "Feature",
      "properties": {
        "type": "original_route_stop",
        "stop_code": "25644",
        "stop_name": "שוק התקווה/דרך ההגנה",
        "marker-color": "#2ca02c",
        "marker-symbol": "bus",
        "marker-size": "medium"
      },
      "geometry": {
        "type": "Point",
        "coordinates": [
          34.789975,
          32.053996
        ]
      }
    },
    {
      "type": "Feature",
      "properties": {
        "type": "original_route_stop",
        "stop_code": "21305",
        "stop_name": "גן התקווה/דרך ההגנה",
        "marker-color": "#2ca02c",
        "marker-symbol": "bus",
        "marker-size": "medium"
      },
      "geometry": {
        "type": "Point",
        "coordinates": [
          34.794493,
          32.053625
        ]
      }
    },
    {
      "type": "Feature",
      "properties": {
        "type": "original_route_stop",
        "stop_code": "27050",
        "stop_name": "דרך ההגנה/גבעתי",
        "marker-color": "#2ca02c",
        "marker-symbol": "bus",
        "marker-size": "medium"
      },
      "geometry": {
        "type": "Point",
        "coordinates": [
          34.796774,
          32.053486
        ]
      }
    },
    {
      "type": "Feature",
      "properties": {
        "type": "original_route_stop",
        "stop_code": "26018",
        "stop_name": "דרך משה דיין/צבי נשרי",
        "marker-color": "#2ca02c",
        "marker-symbol": "bus",
        "marker-size": "medium"
      },
      "geometry": {
        "type": "Point",
        "coordinates": [
          34.800345,
          32.054703
        ]
      }
    },
    {
      "type": "Feature",
      "properties": {
        "type": "original_route_stop",
        "stop_code": "26030",
        "stop_name": "דרך משה דיין/לה גווארדייה",
        "marker-color": "#2ca02c",
        "marker-symbol": "bus",
        "marker-size": "medium"
      },
      "geometry": {
        "type": "Point",
        "coordinates": [
          34.800537,
          32.057897
        ]
      }
    },
    {
      "type": "Feature",
      "properties": {
        "type": "original_route_stop",
        "stop_code": "26035",
        "stop_name": "דרך משה דיין/משה שטינשנידר",
        "marker-color": "#2ca02c",
        "marker-symbol": "bus",
        "marker-size": "medium"
      },
      "geometry": {
        "type": "Point",
        "coordinates": [
          34.800182,
          32.061547
        ]
      }
    },
    {
      "type": "Feature",
      "properties": {
        "type": "original_route_stop",
        "stop_code": "25743",
        "stop_name": "דרך משה דיין/יצחק שדה",
        "marker-color": "#2ca02c",
        "marker-symbol": "bus",
        "marker-size": "medium"
      },
      "geometry": {
        "type": "Point",
        "coordinates": [
          34.799124,
          32.064669
        ]
      }
    },
    {
      "type": "Feature",
      "properties": {
        "type": "original_route_stop",
        "stop_code": "25747",
        "stop_name": "רמת ישראל/דרך משה דיין",
        "marker-color": "#2ca02c",
        "marker-symbol": "bus",
        "marker-size": "medium"
      },
      "geometry": {
        "type": "Point",
        "coordinates": [
          34.799133,
          32.068599
        ]
      }
    },
    {
      "type": "Feature",
      "properties": {
        "type": "original_route_stop",
        "stop_code": "26136",
        "stop_name": "סירקין/ביאליק",
        "marker-color": "#2ca02c",
        "marker-symbol": "bus",
        "marker-size": "medium"
      },
      "geometry": {
        "type": "Point",
        "coordinates": [
          34.814717,
          32.077704
        ]
      }
    },
    {
      "type": "Feature",
      "properties": {
        "type": "original_route_stop",
        "stop_code": "26140",
        "stop_name": "קריניצי/ביאליק",
        "marker-color": "#2ca02c",
        "marker-symbol": "bus",
        "marker-size": "medium"
      },
      "geometry": {
        "type": "Point",
        "coordinates": [
          34.815753,
          32.079296
        ]
      }
    },
    {
      "type": "Feature",
      "properties": {
        "type": "original_route_stop",
        "stop_code": "26332",
        "stop_name": "הרצל/קריניצי",
        "marker-color": "#2ca02c",
        "marker-symbol": "bus",
        "marker-size": "medium"
      },
      "geometry": {
        "type": "Point",
        "coordinates": [
          34.818264,
          32.081206
        ]
      }
    },
    {
      "type": "Feature",
      "properties": {
        "type": "original_route_stop",
        "stop_code": "21660",
        "stop_name": "הרצל/קופת חולים",
        "marker-color": "#2ca02c",
        "marker-symbol": "bus",
        "marker-size": "medium"
      },
      "geometry": {
        "type": "Point",
        "coordinates": [
          34.816128,
          32.082619
        ]
      }
    },
    {
      "type": "Feature",
      "properties": {
        "type": "original_route_stop",
        "stop_code": "23026",
        "stop_name": "ת.רק''ל ביאליק/דרך ז'בוטינסקי",
        "marker-color": "#2ca02c",
        "marker-symbol": "bus",
        "marker-size": "medium"
      },
      "geometry": {
        "type": "Point",
        "coordinates": [
          34.815104,
          32.088512
        ]
      }
    },
    {
      "type": "Feature",
      "properties": {
        "type": "original_route_stop",
        "stop_code": "21540",
        "stop_name": "דרך ז'בוטינסקי/רש''י",
        "marker-color": "#2ca02c",
        "marker-symbol": "bus",
        "marker-size": "medium"
      },
      "geometry": {
        "type": "Point",
        "coordinates": [
          34.818138,
          32.089296
        ]
      }
    },
    {
      "type": "Feature",
      "properties": {
        "type": "original_route_stop",
        "stop_code": "21684",
        "stop_name": "ת.רק''ל בן גוריון/דרך ז'בוטינסקי",
        "marker-color": "#2ca02c",
        "marker-symbol": "bus",
        "marker-size": "medium"
      },
      "geometry": {
        "type": "Point",
        "coordinates": [
          34.82339,
          32.090946
        ]
      }
    },
    {
      "type": "Feature",
      "properties": {
        "type": "original_route_stop",
        "stop_code": "22980",
        "stop_name": "מכון מור/דרך זאב ז'בוטינסקי",
        "marker-color": "#2ca02c",
        "marker-symbol": "bus",
        "marker-size": "medium"
      },
      "geometry": {
        "type": "Point",
        "coordinates": [
          34.825591,
          32.091417
        ]
      }
    },
    {
      "type": "Feature",
      "properties": {
        "type": "original_route_stop",
        "stop_code": "26416",
        "stop_name": "דרך ז'בוטינסקי/דב גרונר",
        "marker-color": "#2ca02c",
        "marker-symbol": "bus",
        "marker-size": "medium"
      },
      "geometry": {
        "type": "Point",
        "coordinates": [
          34.829253,
          32.091396
        ]
      }
    },
    {
      "type": "Feature",
      "properties": {
        "type": "original_route_stop",
        "stop_code": "26544",
        "stop_name": "דרך ז'בוטינסקי/סוקולוב",
        "marker-color": "#2ca02c",
        "marker-symbol": "bus",
        "marker-size": "medium"
      },
      "geometry": {
        "type": "Point",
        "coordinates": [
          34.834218,
          32.092321
        ]
      }
    },
    {
      "type": "Feature",
      "properties": {
        "type": "original_route_stop",
        "stop_code": "21161",
        "stop_name": "ת.רק''ל אהרונוביץ'/דרך ז'בוטינסקי",
        "marker-color": "#2ca02c",
        "marker-symbol": "bus",
        "marker-size": "medium"
      },
      "geometry": {
        "type": "Point",
        "coordinates": [
          34.840144,
          32.092575
        ]
      }
    },
    {
      "type": "Feature",
      "properties": {
        "type": "original_route_stop",
        "stop_code": "27063",
        "stop_name": "מחלף גהה/דרך ז'בוטינסקי",
        "marker-color": "#2ca02c",
        "marker-symbol": "bus",
        "marker-size": "medium"
      },
      "geometry": {
        "type": "Point",
        "coordinates": [
          34.845371,
          32.09231
        ]
      }
    },
    {
      "type": "Feature",
      "properties": {
        "type": "cancelled_stop",
        "stop_code": "26091",
        "stop_name": "ב. עלמין נחלת יצחק/רמב''ם",
        "marker-color": "#ff0000",
        "marker-symbol": "bus",
        "marker-size": "medium"
      },
      "geometry": {
        "type": "Point",
        "coordinates": [
          34.802554,
          32.070507
        ]
      }
    },
    {
      "type": "Feature",
      "properties": {
        "type": "cancelled_stop",
        "stop_code": "26098",
        "stop_name": "רמב''ם/אילת",
        "marker-color": "#ff0000",
        "marker-symbol": "bus",
        "marker-size": "medium"
      },
      "geometry": {
        "type": "Point",
        "coordinates": [
          34.807074,
          32.070466
        ]
      }
    },
    {
      "type": "Feature",
      "properties": {
        "type": "cancelled_stop",
        "stop_code": "21076",
        "stop_name": "ויצמן/צה''ל",
        "marker-color": "#ff0000",
        "marker-symbol": "bus",
        "marker-size": "medium"
      },
      "geometry": {
        "type": "Point",
        "coordinates": [
          34.808682,
          32.07234
        ]
      }
    },
    {
      "type": "Feature",
      "properties": {
        "type": "cancelled_stop",
        "stop_code": "21075",
        "stop_name": "ויצמן/ז'בוטינסקי",
        "marker-color": "#ff0000",
        "marker-symbol": "bus",
        "marker-size": "medium"
      },
      "geometry": {
        "type": "Point",
        "coordinates": [
          34.80864,
          32.073859
        ]
      }
    },
    {
      "type": "Feature",
      "properties": {
        "type": "new_stop",
        "stop_code": "26100",
        "stop_name": "עליית הנוער/נחלת יצחק",
        "marker-color": "#1f9ed6",
        "marker-symbol": "bus",
        "marker-size": "medium"
      },
      "geometry": {
        "type": "Point",
        "coordinates": [
          34.801249,
          32.074097
        ]
      }
    },
    {
      "type": "Feature",
      "properties": {
        "type": "new_stop",
        "stop_code": "21095",
        "stop_name": "כצנלסון/עליית הנוער",
        "marker-color": "#1f9ed6",
        "marker-symbol": "bus",
        "marker-size": "medium"
      },
      "geometry": {
        "type": "Point",
        "coordinates": [
          34.803357,
          32.075186
        ]
      }
    },
    {
      "type": "Feature",
      "properties": {
        "type": "new_stop",
        "stop_code": "22921",
        "stop_name": "כצנלסון/קק''ל",
        "marker-color": "#1f9ed6",
        "marker-symbol": "bus",
        "marker-size": "medium"
      },
      "geometry": {
        "type": "Point",
        "coordinates": [
          34.80556,
          32.075105
        ]
      }
    },
    {
      "type": "Feature",
      "properties": {
        "type": "new_stop",
        "stop_code": "26127",
        "stop_name": "כצנלסון/ויצמן",
        "marker-color": "#1f9ed6",
        "marker-symbol": "bus",
        "marker-size": "medium"
      },
      "geometry": {
        "type": "Point",
        "coordinates": [
          34.807975,
          32.075176
        ]
      }
    },
    {
      "type": "Feature",
      "properties": {
        "type": "reported_block_stop",
        "stop_code": "21076",
        "stop_name": "ויצמן/צה''ל",
        "marker-color": "#ff8800",
        "marker-symbol": "bus",
        "marker-size": "medium"
      },
      "geometry": {
        "type": "Point",
        "coordinates": [
          34.808682,
          32.07234
        ]
      }
    },
    {
      "type": "Feature",
      "properties": {
        "type": "reported_block_stop",
        "stop_code": "21075",
        "stop_name": "ויצמן/ז'בוטינסקי",
        "marker-color": "#ff8800",
        "marker-symbol": "bus",
        "marker-size": "medium"
      },
      "geometry": {
        "type": "Point",
        "coordinates": [
          34.80864,
          32.073859
        ]
      }
    },
    {
      "type": "Feature",
      "properties": {
        "type": "deviate_from_stop",
        "stop_code": "25750",
        "stop_name": "דרך משה דיין/דרך השלום",
        "marker-color": "#8000ff",
        "marker-symbol": "bus",
        "marker-size": "medium"
      },
      "geometry": {
        "type": "Point",
        "coordinates": [
          34.799666,
          32.070087
        ]
      }
    },
    {
      "type": "Feature",
      "properties": {
        "type": "deviate_to_stop",
        "stop_code": "26130",
        "stop_name": "גן הזיכרון/כצנלסון",
        "marker-color": "#8000ff",
        "marker-symbol": "bus",
        "marker-size": "medium"
      },
      "geometry": {
        "type": "Point",
        "coordinates": [
          34.810752,
          32.075625
        ]
      }
    }
  ]
}