{
  "type": "FeatureCollection",
  "features": [
    {
      "type": "Feature",
      "properties": {
        "type": "deviation_path_edge",
        "from_stop_code": "36168",
        "to_stop_code": "36164",
        "stroke": "#00bcd4",
        "stroke-width": 3,
        "stroke-opacity": 0.95
      },
      "geometry": {
        "type": "LineString",
        "coordinates": [
          [
            34.7548801171031,
            32.00841901693295
          ],
          [
            34.75496,
            32.008709
          ],
          [
            34.755105,
            32.009243
          ],
          [
            34.755117,
            32.009281
          ],
          [
            34.755194,
            32.0094
          ],
          [
            34.7552,
            32.009402
          ],
          [
            34.75521,
            32.009409
          ],
          [
            34.755219,
            32.009416
          ],
          [
            34.755231,
            32.009428
          ],
          [
            34.755239,
            32.009443
          ],
          [
            34.755243,
            32.009453
          ],
          [
            34.755245,
            32.009462
          ],
          [
            34.755246,
            32.009474
          ],
          [
            34.755244,
            32.009489
          ],
          [
            34.755239,
            32.009504
          ],
          [
            34.755231,
            32.009518
          ],
          [
            34.755227,
            32.009523
          ],
          [
            34.755214,
            32.009535
          ],
          [
            34.755199,
            32.009545
          ],
          [
            34.755182,
            32.009552
          ],
          [
            34.755164,
            32.009556
          ],
          [
            34.755151,
            32.009558
          ],
          [
            34.755138,
            32.009558
          ],
          [
            34.75512,
            32.009556
          ],
          [
            34.755104,
            32.009551
          ],
          [
            34.754508,
            32.009946
          ],
          [
            34.75382624213775,
            32.01034656426802
          ]
        ]
      }
    },
    {
      "type": "Feature",
      "properties": {
        "type": "deviation_path_edge",
        "from_stop_code": "36164",
        "to_stop_code": "36161",
        "stroke": "#00bcd4",
        "stroke-width": 3,
        "stroke-opacity": 0.95
      },
      "geometry": {
        "type": "LineString",
        "coordinates": [
          [
            34.75382624213775,
            32.01034656426802
          ],
          [
            34.752886,
            32.010899
          ],
          [
            34.752699,
            32.01098
          ],
          [
            34.752459,
            32.011084
          ],
          [
            34.752308026022426,
            32.01113971249286
          ]
        ]
      }
    },
    {
      "type": "Feature",
      "properties": {
        "type": "deviation_path_edge",
        "from_stop_code": "36161",
        "to_stop_code": "35797",
        "stroke": "#00bcd4",
        "stroke-width": 3,
        "stroke-opacity": 0.95
      },
      "geometry": {
        "type": "LineString",
        "coordinates": [
          [
            34.752308026022426,
            32.01113971249286
          ],
          [
            34.75202,
            32.011246
          ],
          [
            34.751966,
            32.011289
          ],
          [
            34.75193,
            32.011341
          ],
          [
            34.751915,
            32.011381
          ],
          [
            34.751899,
            32.011438
          ],
          [
            34.751972,
            32.011594
          ],
          [
            34.752329,
            32.012265
          ],
          [
            34.752409,
            32.012402
          ],
          [
            34.752674,
            32.012978
          ],
          [
            34.752875,
            32.013377
          ],
          [
            34.752953,
            32.01353
          ],
          [
            34.752982,
            32.013586
          ],
          [
            34.753097,
            32.013826
          ],
          [
            34.753156,
            32.014008
          ],
          [
            34.7531561553527,
            32.01400930257262
          ]
        ]
      }
    },
    {
      "type": "Feature",
      "properties": {
        "type": "deviation_path_edge",
        "from_stop_code": "35797",
        "to_stop_code": "36239",
        "stroke": "#00bcd4",
        "stroke-width": 3,
        "stroke-opacity": 0.95
      },
      "geometry": {
        "type": "LineString",
        "coordinates": [
          [
            34.7531561553527,
            32.01400930257262
          ],
          [
            34.753169,
            32.014117
          ],
          [
            34.753213,
            32.0145
          ],
          [
            34.753213,
            32.014675
          ],
          [
            34.753205,
            32.014758
          ],
          [
            34.753268,
            32.014932
          ],
          [
            34.753321,
            32.015027
          ],
          [
            34.753387,
            32.015101
          ],
          [
            34.753488,
            32.015219
          ],
          [
            34.754153,
            32.015395
          ],
          [
            34.754526,
            32.015473
          ],
          [
            34.754565,
            32.015479
          ],
          [
            34.754611,
            32.015487
          ],
          [
            34.754609,
            32.015608
          ],
          [
            34.754574,
            32.015896
          ],
          [
            34.754526,
            32.016329
          ],
          [
            34.754522,
            32.016426
          ],
          [
            34.7545217611465,
            32.01643181210191
          ]
        ]
      }
    },
    {
      "type": "Feature",
      "properties": {
        "type": "original_route_shape",
        "shape_id": "163842",
        "stroke": "#1f2a7a",
        "stroke-width": 3,
        "stroke-opacity": 0.85
      },
      "geometry": {
        "type": "LineString",
        "coordinates": [
          [
            34.746784021623064,
            32.00205493619861
          ],
          [
            34.746972,
            32.002394
          ],
          [
            34.747098,
            32.002566
          ],
          [
            34.74783,
            32.003594
          ],
          [
            34.747958,
            32.00365
          ],
          [
            34.74801,
            32.003663
          ],
          [
            34.748062,
            32.003669
          ],
          [
            34.748209,
            32.003655
          ],
          [
            34.748476,
            32.003536
          ],
          [
            34.749479,
            32.003166
          ],
          [
            34.749773,
            32.00307
          ],
          [
            34.749955,
            32.003011
          ],
          [
            34.750156,
            32.002966
          ],
          [
            34.750426,
            32.002918
          ],
          [
            34.751129,
            32.002807
          ],
          [
            34.751878,
            32.002708
          ],
          [
            34.752043,
            32.002676
          ],
          [
            34.753112,
            32.002469
          ],
          [
            34.753214,
            32.002452
          ],
          [
            34.75323,
            32.002448
          ],
          [
            34.753259,
            32.002559
          ],
          [
            34.753326,
            32.002875
          ],
          [
            34.753358,
            32.002974
          ],
          [
            34.753688,
            32.004201
          ],
          [
            34.753704,
            32.004205
          ],
          [
            34.753722,
            32.004214
          ],
          [
            34.753738,
            32.004224
          ],
          [
            34.753752,
            32.004238
          ],
          [
            34.753762,
            32.004253
          ],
          [
            34.753767,
            32.004264
          ],
          [
            34.75377,
            32.004274
          ],
          [
            34.753771,
            32.004281
          ],
          [
            34.753772,
            32.004292
          ],
          [
            34.75377,
            32.00431
          ],
          [
            34.753764,
            32.004326
          ],
          [
            34.75376,
            32.004334
          ],
          [
            34.7541,
            32.005618
          ],
          [
            34.754173,
            32.005926
          ],
          [
            34.754568,
            32.007286
          ],
          [
            34.75496,
            32.008709
          ],
          [
            34.755105,
            32.009243
          ],
          [
            34.755117,
            32.009281
          ],
          [
            34.755194,
            32.0094
          ],
          [
            34.7552,
            32.009402
          ],
          [
            34.75521,
            32.009409
          ],
          [
            34.755219,
            32.009416
          ],
          [
            34.755231,
            32.009428
          ],
          [
            34.755447,
            32.009407
          ],
          [
            34.757112,
            32.009075
          ],
          [
            34.757397,
            32.009018
          ],
          [
            34.75749,
            32.009
          ],
          [
            34.757502,
            32.008989
          ],
          [
            34.757522,
            32.008976
          ],
          [
            34.757537,
            32.00897
          ],
          [
            34.757561,
            32.008963
          ],
          [
            34.757577,
            32.008961
          ],
          [
            34.757602,
            32.008961
          ],
          [
            34.757627,
            32.008964
          ],
          [
            34.757647,
            32.008971
          ],
          [
            34.757665,
            32.008979
          ],
          [
            34.757678,
            32.008987
          ],
          [
            34.75769,
            32.008997
          ],
          [
            34.757701,
            32.009008
          ],
          [
            34.75771,
            32.009021
          ],
          [
            34.757717,
            32.009033
          ],
          [
            34.757722,
            32.009047
          ],
          [
            34.757724,
            32.009059
          ],
          [
            34.757726,
            32.009068
          ],
          [
            34.757725,
            32.009082
          ],
          [
            34.757722,
            32.009103
          ],
          [
            34.757716,
            32.009117
          ],
          [
            34.757709,
            32.00913
          ],
          [
            34.7577,
            32.009142
          ],
          [
            34.757694,
            32.009149
          ],
          [
            34.757698,
            32.009244
          ],
          [
            34.757711,
            32.009306
          ],
          [
            34.757828,
            32.009754
          ],
          [
            34.75792,
            32.010013
          ],
          [
            34.757984,
            32.010295
          ],
          [
            34.758131,
            32.010846
          ],
          [
            34.758242,
            32.011261
          ],
          [
            34.758301,
            32.01136
          ],
          [
            34.758387,
            32.011814
          ],
          [
            34.758452,
            32.012068
          ],
          [
            34.758515,
            32.012312
          ],
          [
            34.758653,
            32.012684
          ],
          [
            34.758759,
            32.013069
          ],
          [
            34.758836,
            32.013349
          ],
          [
            34.758952,
            32.013779
          ],
          [
            34.758971,
            32.013847
          ],
          [
            34.759231,
            32.014946
          ],
          [
            34.759296,
            32.015174
          ],
          [
            34.759395,
            32.015552
          ],
          [
            34.7594,
            32.0156
          ],
          [
            34.759402,
            32.015619
          ],
          [
            34.759404,
            32.015662
          ],
          [
            34.759349,
            32.015672
          ],
          [
            34.759299,
            32.015681
          ],
          [
            34.758858,
            32.015745
          ],
          [
            34.757996,
            32.015834
          ],
          [
            34.757244,
            32.015871
          ],
          [
            34.757207,
            32.015868
          ],
          [
            34.757031,
            32.015865
          ],
          [
            34.756365,
            32.015855
          ],
          [
            34.756139,
            32.015842
          ],
          [
            34.75555,
            32.015792
          ],
          [
            34.755032,
            32.015683
          ],
          [
            34.754754,
            32.01571
          ],
          [
            34.754698,
            32.015735
          ],
          [
            34.754671,
            32.015752
          ],
          [
            34.754636,
            32.015779
          ],
          [
            34.754613,
            32.015808
          ],
          [
            34.754574,
            32.015896
          ],
          [
            34.754526,
            32.016329
          ],
          [
            34.754522,
            32.016426
          ],
          [
            34.75451,
            32.016718
          ],
          [
            34.75449,
            32.01721
          ],
          [
            34.754455,
            32.017617
          ],
          [
            34.754464,
            32.018146
          ],
          [
            34.754434,
            32.018487
          ],
          [
            34.754406,
            32.019084
          ],
          [
            34.754442,
            32.019557
          ],
          [
            34.754475,
            32.020003
          ],
          [
            34.754491,
            32.020381
          ],
          [
            34.754518,
            32.02099
          ],
          [
            34.754521,
            32.021055
          ],
          [
            34.754524,
            32.021441
          ],
          [
            34.754529,
            32.021922
          ],
          [
            34.754566,
            32.022615
          ],
          [
            34.754578,
            32.022879
          ],
          [
            34.754589,
            32.023305
          ],
          [
            34.75469,
            32.0234
          ],
          [
            34.754715,
            32.02342
          ],
          [
            34.754738,
            32.023433
          ],
          [
            34.754777,
            32.023445
          ],
          [
            34.754912,
            32.02347
          ],
          [
            34.755236,
            32.023468
          ],
          [
            34.755964,
            32.023477
          ],
          [
            34.756601,
            32.023469
          ],
          [
            34.757159,
            32.023406
          ],
          [
            34.757509,
            32.02335
          ],
          [
            34.758151,
            32.023262
          ],
          [
            34.7591,
            32.023267
          ],
          [
            34.759764,
            32.023276
          ],
          [
            34.760447,
            32.023253
          ],
          [
            34.760564,
            32.023263
          ],
          [
            34.760659,
            32.023263
          ],
          [
            34.761044,
            32.023266
          ],
          [
            34.761199,
            32.02325
          ],
          [
            34.761168,
            32.023411
          ],
          [
            34.761069,
            32.023914
          ],
          [
            34.76104,
            32.024013
          ],
          [
            34.760954,
            32.02447
          ],
          [
            34.760873,
            32.024922
          ],
          [
            34.760796,
            32.025608
          ],
          [
            34.760749,
            32.0261
          ],
          [
            34.760697,
            32.026727
          ],
          [
            34.760664,
            32.027033
          ],
          [
            34.760676,
            32.027575
          ],
          [
            34.760679,
            32.027986
          ],
          [
            34.760682,
            32.029154
          ],
          [
            34.760663,
            32.029489
          ],
          [
            34.76062,
            32.029837
          ],
          [
            34.760545,
            32.030254
          ],
          [
            34.760444,
            32.030695
          ],
          [
            34.760295,
            32.031214
          ],
          [
            34.76005,
            32.031923
          ],
          [
            34.760011,
            32.032047
          ],
          [
            34.759996,
            32.032096
          ],
          [
            34.759863,
            32.032573
          ],
          [
            34.759839,
            32.032918
          ],
          [
            34.759841,
            32.033091
          ],
          [
            34.759855,
            32.03347
          ],
          [
            34.759859,
            32.033622
          ],
          [
            34.759864,
            32.033733
          ],
          [
            34.759889,
            32.034013
          ],
          [
            34.759944,
            32.034364
          ],
          [
            34.760017,
            32.034613
          ],
          [
            34.760078,
            32.03476
          ],
          [
            34.760222,
            32.035238
          ],
          [
            34.760282,
            32.035449
          ],
          [
            34.760447,
            32.036003
          ],
          [
            34.760492,
            32.0361
          ],
          [
            34.760568,
            32.036204
          ],
          [
            34.760639,
            32.036294
          ],
          [
            34.760701,
            32.036343
          ],
          [
            34.760769,
            32.036375
          ],
          [
            34.760847,
            32.036402
          ],
          [
            34.760951,
            32.036424
          ],
          [
            34.761165,
            32.036465
          ],
          [
            34.761347,
            32.036492
          ],
          [
            34.761514,
            32.036511
          ],
          [
            34.761633,
            32.036515
          ],
          [
            34.761735,
            32.036519
          ],
          [
            34.762045,
            32.036522
          ],
          [
            34.76213,
            32.036522
          ],
          [
            34.762396,
            32.036521
          ],
          [
            34.762523,
            32.036435
          ],
          [
            34.762616,
            32.036402
          ],
          [
            34.76283,
            32.036365
          ],
          [
            34.763234,
            32.036332
          ],
          [
            34.76347,
            32.036336
          ],
          [
            34.763595,
            32.036364
          ],
          [
            34.763712,
            32.036451
          ],
          [
            34.763717,
            32.036463
          ],
          [
            34.764047,
            32.036434
          ],
          [
            34.764596,
            32.036335
          ],
          [
            34.765107,
            32.03623
          ],
          [
            34.765389,
            32.036165
          ],
          [
            34.765567,
            32.036121
          ],
          [
            34.765739,
            32.036066
          ],
          [
            34.765992,
            32.03599
          ],
          [
            34.766073,
            32.035961
          ],
          [
            34.766076,
            32.035974
          ],
          [
            34.766081,
            32.036043
          ],
          [
            34.766072,
            32.036101
          ],
          [
            34.76589,
            32.036176
          ],
          [
            34.765955,
            32.036283
          ],
          [
            34.766022,
            32.036419
          ],
          [
            34.766106,
            32.03655
          ],
          [
            34.766186,
            32.036661
          ],
          [
            34.766255,
            32.036722
          ],
          [
            34.766327,
            32.03677
          ],
          [
            34.766408,
            32.036818
          ],
          [
            34.766498,
            32.036859
          ],
          [
            34.766638,
            32.036907
          ],
          [
            34.766803,
            32.036933
          ],
          [
            34.767021,
            32.036946
          ],
          [
            34.76726,
            32.036947
          ],
          [
            34.76741,
            32.036939
          ],
          [
            34.767535,
            32.03692
          ],
          [
            34.767763,
            32.036879
          ],
          [
            34.767948,
            32.036834
          ],
          [
            34.768155,
            32.036786
          ],
          [
            34.768375,
            32.036726
          ],
          [
            34.768724,
            32.036639
          ],
          [
            34.769076,
            32.036498
          ],
          [
            34.769164,
            32.036463
          ],
          [
            34.770011,
            32.036169
          ],
          [
            34.770514,
            32.036007
          ],
          [
            34.770935,
            32.035887
          ],
          [
            34.771298,
            32.035812
          ],
          [
            34.771768,
            32.035727
          ],
          [
            34.772062,
            32.035696
          ],
          [
            34.772162,
            32.03569
          ],
          [
            34.772689,
            32.035661
          ],
          [
            34.772927,
            32.035661
          ],
          [
            34.773002,
            32.035662
          ],
          [
            34.773393,
            32.035676
          ],
          [
            34.773695,
            32.035711
          ],
          [
            34.774333,
            32.035816
          ],
          [
            34.774821,
            32.035932
          ],
          [
            34.775692,
            32.036162
          ],
          [
            34.776048,
            32.036255
          ],
          [
            34.776607,
            32.0364
          ],
          [
            34.776919,
            32.036451
          ],
          [
            34.777131,
            32.036484
          ],
          [
            34.777272,
            32.036489
          ],
          [
            34.777403,
            32.036496
          ],
          [
            34.777587,
            32.036507
          ],
          [
            34.77769,
            32.036526
          ],
          [
            34.777743,
            32.036555
          ],
          [
            34.777807,
            32.036615
          ],
          [
            34.778187884636466,
            32.03721822369766
          ]
        ]
      }
    },
    {
      "type": "Feature",
      "properties": {
        "type": "original_route_stop",
        "stop_code": "30018",
        "stop_name": "ת.רק''ל הקוממיות/דרך בגין",
        "marker-color": "#2ca02c",
        "marker-symbol": "bus",
        "marker-size": "medium"
      },
      "geometry": {
        "type": "Point",
        "coordinates": [
          34.746829,
          32.00203
        ]
      }
    },
    {
      "type": "Feature",
      "properties": {
        "type": "original_route_stop",
        "stop_code": "37571",
        "stop_name": "אנה פרנק/הקוממיות",
        "marker-color": "#2ca02c",
        "marker-symbol": "bus",
        "marker-size": "medium"
      },
      "geometry": {
        "type": "Point",
        "coordinates": [
          34.75357,
          32.00356
        ]
      }
    },
    {
      "type": "Feature",
      "properties": {
        "type": "original_route_stop",
        "stop_code": "31457",
        "stop_name": "אנה פרנק/הרב מיימון",
        "marker-color": "#2ca02c",
        "marker-symbol": "bus",
        "marker-size": "medium"
      },
      "geometry": {
        "type": "Point",
        "coordinates": [
          34.754491,
          32.006834
        ]
      }
    },
    {
      "type": "Feature",
      "properties": {
        "type": "original_route_stop",
        "stop_code": "36242",
        "stop_name": "כצנלסון/אנילביץ'",
        "marker-color": "#2ca02c",
        "marker-symbol": "bus",
        "marker-size": "medium"
      },
      "geometry": {
        "type": "Point",
        "coordinates": [
          34.754556,
          32.020643
        ]
      }
    },
    {
      "type": "Feature",
      "properties": {
        "type": "original_route_stop",
        "stop_code": "36258",
        "stop_name": "קק''ל/רהב",
        "marker-color": "#2ca02c",
        "marker-symbol": "bus",
        "marker-size": "medium"
      },
      "geometry": {
        "type": "Point",
        "coordinates": [
          34.75717,
          32.023359
        ]
      }
    },
    {
      "type": "Feature",
      "properties": {
        "type": "original_route_stop",
        "stop_code": "36298",
        "stop_name": "בי''ח וולפסון",
        "marker-color": "#2ca02c",
        "marker-symbol": "bus",
        "marker-size": "medium"
      },
      "geometry": {
        "type": "Point",
        "coordinates": [
          34.762698,
          32.036342
        ]
      }
    },
    {
      "type": "Feature",
      "properties": {
        "type": "original_route_stop",
        "stop_code": "25274",
        "stop_name": "ת. רכבת צומת חולון",
        "marker-color": "#2ca02c",
        "marker-symbol": "bus",
        "marker-size": "medium"
      },
      "geometry": {
        "type": "Point",
        "coordinates": [
          34.778231,
          32.037191
        ]
      }
    },
    {
      "type": "Feature",
      "properties": {
        "type": "cancelled_stop",
        "stop_code": "36172",
        "stop_name": "כ''ט בנובמבר/אלי כהן",
        "marker-color": "#ff0000",
        "marker-symbol": "bus",
        "marker-size": "medium"
      },
      "geometry": {
        "type": "Point",
        "coordinates": [
          34.757062,
          32.009039
        ]
      }
    },
    {
      "type": "Feature",
      "properties": {
        "type": "cancelled_stop",
        "stop_code": "36174",
        "stop_name": "אלי כהן/חצור",
        "marker-color": "#ff0000",
        "marker-symbol": "bus",
        "marker-size": "medium"
      },
      "geometry": {
        "type": "Point",
        "coordinates": [
          34.758168,
          32.01078
        ]
      }
    },
    {
      "type": "Feature",
      "properties": {
        "type": "cancelled_stop",
        "stop_code": "36178",
        "stop_name": "אלי כהן/דוד רזיאל",
        "marker-color": "#ff0000",
        "marker-symbol": "bus",
        "marker-size": "medium"
      },
      "geometry": {
        "type": "Point",
        "coordinates": [
          34.75881,
          32.013054
        ]
      }
    },
    {
      "type": "Feature",
      "properties": {
        "type": "cancelled_stop",
        "stop_code": "36245",
        "stop_name": "קניון בת ים/יוספטל",
        "marker-color": "#ff0000",
        "marker-symbol": "bus",
        "marker-size": "medium"
      },
      "geometry": {
        "type": "Point",
        "coordinates": [
          34.756329,
          32.015898
        ]
      }
    },
    {
      "type": "Feature",
      "properties": {
        "type": "new_stop",
        "stop_code": "36164",
        "stop_name": "כ''ט בנובמבר/אנה פרנק",
        "marker-color": "#1f9ed6",
        "marker-symbol": "bus",
        "marker-size": "medium"
      },
      "geometry": {
        "type": "Point",
        "coordinates": [
          34.75385,
          32.010387
        ]
      }
    },
    {
      "type": "Feature",
      "properties": {
        "type": "new_stop",
        "stop_code": "36161",
        "stop_name": "ת.רק''ל כ''ט בנובמבר",
        "marker-color": "#1f9ed6",
        "marker-symbol": "bus",
        "marker-size": "medium"
      },
      "geometry": {
        "type": "Point",
        "coordinates": [
          34.752324,
          32.011183
        ]
      }
    },
    {
      "type": "Feature",
      "properties": {
        "type": "new_stop",
        "stop_code": "35797",
        "stop_name": "בית ספר שזר/הרב ניסנבאום",
        "marker-color": "#1f9ed6",
        "marker-symbol": "bus",
        "marker-size": "medium"
      },
      "geometry": {
        "type": "Point",
        "coordinates": [
          34.753209,
          32.014003
        ]
      }
    },
    {
      "type": "Feature",
      "properties": {
        "type": "reported_block_stop",
        "stop_code": "36174",
        "stop_name": "אלי כהן/חצור",
        "marker-color": "#ff8800",
        "marker-symbol": "bus",
        "marker-size": "medium"
      },
      "geometry": {
        "type": "Point",
        "coordinates": [
          34.758168,
          32.01078
        ]
      }
    },
    {
      "type": "Feature",
      "properties": {
        "type": "reported_block_stop",
        "stop_code": "36178",
        "stop_name": "אלי כהן/דוד רזיאל",
        "marker-color": "#ff8800",
        "marker-symbol": "bus",
        "marker-size": "medium"
      },
      "geometry": {
        "type": "Point",
        "coordinates": [
          34.75881,
          32.013054
        ]
      }
    },
    {
      "type": "Feature",
      "properties": {
        "type": "deviate_from_stop",
        "stop_code": "36168",
        "stop_name": "אנה פרנק/כ''ט בנובמבר",
        "marker-color": "#8000ff",
        "marker-symbol": "bus",
        "marker-size": "medium"
      },
      "geometry": {
        "type": "Point",
        "coordinates": [
          34.754931,
          32.008405
        ]
      }
    },
    {
      "type": "Feature",
      "properties": {
        "type": "deviate_to_stop",
        "stop_code": "36239",
        "stop_name": "כצנלסון/יוספטל",
        "marker-color": "#8000ff",
        "marker-symbol": "bus",
        "marker-size": "medium"
      },
      "geometry": {
        "type": "Point",
        "coordinates": [
          34.754575,
          32.016434
        ]
      }
    }
  ]
}